<?xml version="1.0" encoding="UTF-8"?>
<gpx version="1.1" creator="dolomites-trip" xmlns="http://www.topografix.com/GPX/1/1">
  <metadata><name>День 11 (опционально): Опциональное продолжение дня 10: вверх по Isarco до поезда по силам</name></metadata>
  <trk>
    <name>День 11 (опционально): Опциональное продолжение дня 10: вверх по Isarco до поезда по силам</name>
    <trkseg>
      <trkpt lat="46.71650" lon="11.65777"><ele>560</ele></trkpt>
      <trkpt lat="46.71650" lon="11.65780"><ele>560</ele></trkpt>
      <trkpt lat="46.71657" lon="11.65779"><ele>560</ele></trkpt>
      <trkpt lat="46.71657" lon="11.65777"><ele>560</ele></trkpt>
      <trkpt lat="46.71659" lon="11.65776"><ele>560</ele></trkpt>
      <trkpt lat="46.71660" lon="11.65780"><ele>560</ele></trkpt>
      <trkpt lat="46.71661" lon="11.65790"><ele>560</ele></trkpt>
      <trkpt lat="46.71665" lon="11.65824"><ele>560</ele></trkpt>
      <trkpt lat="46.71672" lon="11.65852"><ele>560</ele></trkpt>
      <trkpt lat="46.71677" lon="11.65866"><ele>560</ele></trkpt>
      <trkpt lat="46.71682" lon="11.65877"><ele>560</ele></trkpt>
      <trkpt lat="46.71684" lon="11.65879"><ele>559</ele></trkpt>
      <trkpt lat="46.71725" lon="11.65855"><ele>561</ele></trkpt>
      <trkpt lat="46.71746" lon="11.65849"><ele>560</ele></trkpt>
      <trkpt lat="46.71761" lon="11.65846"><ele>560</ele></trkpt>
      <trkpt lat="46.71784" lon="11.65844"><ele>560</ele></trkpt>
      <trkpt lat="46.71826" lon="11.65848"><ele>560</ele></trkpt>
      <trkpt lat="46.71840" lon="11.65849"><ele>561</ele></trkpt>
      <trkpt lat="46.71882" lon="11.65848"><ele>561</ele></trkpt>
      <trkpt lat="46.71982" lon="11.65828"><ele>562</ele></trkpt>
      <trkpt lat="46.72007" lon="11.65818"><ele>562</ele></trkpt>
      <trkpt lat="46.72062" lon="11.65780"><ele>563</ele></trkpt>
      <trkpt lat="46.72082" lon="11.65764"><ele>563</ele></trkpt>
      <trkpt lat="46.72106" lon="11.65743"><ele>563</ele></trkpt>
      <trkpt lat="46.72177" lon="11.65679"><ele>564</ele></trkpt>
      <trkpt lat="46.72232" lon="11.65633"><ele>564</ele></trkpt>
      <trkpt lat="46.72268" lon="11.65611"><ele>565</ele></trkpt>
      <trkpt lat="46.72309" lon="11.65592"><ele>566</ele></trkpt>
      <trkpt lat="46.72313" lon="11.65590"><ele>566</ele></trkpt>
      <trkpt lat="46.72317" lon="11.65588"><ele>566</ele></trkpt>
      <trkpt lat="46.72324" lon="11.65589"><ele>566</ele></trkpt>
      <trkpt lat="46.72350" lon="11.65579"><ele>566</ele></trkpt>
      <trkpt lat="46.72409" lon="11.65551"><ele>566</ele></trkpt>
      <trkpt lat="46.72463" lon="11.65529"><ele>567</ele></trkpt>
      <trkpt lat="46.72469" lon="11.65526"><ele>567</ele></trkpt>
      <trkpt lat="46.72473" lon="11.65527"><ele>567</ele></trkpt>
      <trkpt lat="46.72476" lon="11.65527"><ele>567</ele></trkpt>
      <trkpt lat="46.72507" lon="11.65522"><ele>567</ele></trkpt>
      <trkpt lat="46.72545" lon="11.65506"><ele>568</ele></trkpt>
      <trkpt lat="46.72577" lon="11.65496"><ele>567</ele></trkpt>
      <trkpt lat="46.72595" lon="11.65486"><ele>567</ele></trkpt>
      <trkpt lat="46.72610" lon="11.65476"><ele>568</ele></trkpt>
      <trkpt lat="46.72624" lon="11.65463"><ele>568</ele></trkpt>
      <trkpt lat="46.72642" lon="11.65440"><ele>568</ele></trkpt>
      <trkpt lat="46.72660" lon="11.65423"><ele>568</ele></trkpt>
      <trkpt lat="46.72686" lon="11.65406"><ele>568</ele></trkpt>
      <trkpt lat="46.72707" lon="11.65394"><ele>569</ele></trkpt>
      <trkpt lat="46.72740" lon="11.65380"><ele>569</ele></trkpt>
      <trkpt lat="46.72777" lon="11.65369"><ele>570</ele></trkpt>
      <trkpt lat="46.72837" lon="11.65351"><ele>570</ele></trkpt>
      <trkpt lat="46.72933" lon="11.65325"><ele>570</ele></trkpt>
      <trkpt lat="46.72971" lon="11.65319"><ele>572</ele></trkpt>
      <trkpt lat="46.73009" lon="11.65316"><ele>572</ele></trkpt>
      <trkpt lat="46.73009" lon="11.65320"><ele>571</ele></trkpt>
      <trkpt lat="46.73012" lon="11.65396"><ele>572</ele></trkpt>
      <trkpt lat="46.73012" lon="11.65405"><ele>573</ele></trkpt>
      <trkpt lat="46.73065" lon="11.65396"><ele>572</ele></trkpt>
      <trkpt lat="46.73177" lon="11.65366"><ele>574</ele></trkpt>
      <trkpt lat="46.73265" lon="11.65350"><ele>576</ele></trkpt>
      <trkpt lat="46.73278" lon="11.65346"><ele>576</ele></trkpt>
      <trkpt lat="46.73321" lon="11.65335"><ele>578</ele></trkpt>
      <trkpt lat="46.73346" lon="11.65325"><ele>579</ele></trkpt>
      <trkpt lat="46.73367" lon="11.65310"><ele>577</ele></trkpt>
      <trkpt lat="46.73385" lon="11.65293"><ele>578</ele></trkpt>
      <trkpt lat="46.73402" lon="11.65273"><ele>576</ele></trkpt>
      <trkpt lat="46.73412" lon="11.65259"><ele>576</ele></trkpt>
      <trkpt lat="46.73421" lon="11.65245"><ele>576</ele></trkpt>
      <trkpt lat="46.73424" lon="11.65237"><ele>576</ele></trkpt>
      <trkpt lat="46.73437" lon="11.65201"><ele>576</ele></trkpt>
      <trkpt lat="46.73446" lon="11.65172"><ele>577</ele></trkpt>
      <trkpt lat="46.73462" lon="11.65096"><ele>578</ele></trkpt>
      <trkpt lat="46.73434" lon="11.65084"><ele>576</ele></trkpt>
      <trkpt lat="46.73425" lon="11.65082"><ele>578</ele></trkpt>
      <trkpt lat="46.73425" lon="11.65076"><ele>578</ele></trkpt>
      <trkpt lat="46.73427" lon="11.65065"><ele>578</ele></trkpt>
      <trkpt lat="46.73430" lon="11.65061"><ele>577</ele></trkpt>
      <trkpt lat="46.73435" lon="11.65060"><ele>577</ele></trkpt>
      <trkpt lat="46.73437" lon="11.65056"><ele>577</ele></trkpt>
      <trkpt lat="46.73439" lon="11.65019"><ele>577</ele></trkpt>
      <trkpt lat="46.73444" lon="11.64984"><ele>578</ele></trkpt>
      <trkpt lat="46.73449" lon="11.64960"><ele>578</ele></trkpt>
      <trkpt lat="46.73457" lon="11.64944"><ele>578</ele></trkpt>
      <trkpt lat="46.73480" lon="11.64905"><ele>578</ele></trkpt>
      <trkpt lat="46.73501" lon="11.64859"><ele>580</ele></trkpt>
      <trkpt lat="46.73511" lon="11.64835"><ele>580</ele></trkpt>
      <trkpt lat="46.73512" lon="11.64829"><ele>580</ele></trkpt>
      <trkpt lat="46.73512" lon="11.64821"><ele>581</ele></trkpt>
      <trkpt lat="46.73510" lon="11.64759"><ele>584</ele></trkpt>
      <trkpt lat="46.73512" lon="11.64756"><ele>584</ele></trkpt>
      <trkpt lat="46.73527" lon="11.64757"><ele>583</ele></trkpt>
      <trkpt lat="46.73529" lon="11.64757"><ele>583</ele></trkpt>
      <trkpt lat="46.73529" lon="11.64752"><ele>584</ele></trkpt>
      <trkpt lat="46.73523" lon="11.64652"><ele>586</ele></trkpt>
      <trkpt lat="46.73521" lon="11.64603"><ele>588</ele></trkpt>
      <trkpt lat="46.73519" lon="11.64580"><ele>591</ele></trkpt>
      <trkpt lat="46.73515" lon="11.64563"><ele>592</ele></trkpt>
      <trkpt lat="46.73504" lon="11.64527"><ele>592</ele></trkpt>
      <trkpt lat="46.73503" lon="11.64508"><ele>593</ele></trkpt>
      <trkpt lat="46.73506" lon="11.64494"><ele>594</ele></trkpt>
      <trkpt lat="46.73516" lon="11.64474"><ele>596</ele></trkpt>
      <trkpt lat="46.73537" lon="11.64442"><ele>596</ele></trkpt>
      <trkpt lat="46.73542" lon="11.64436"><ele>596</ele></trkpt>
      <trkpt lat="46.73566" lon="11.64414"><ele>597</ele></trkpt>
      <trkpt lat="46.73577" lon="11.64404"><ele>598</ele></trkpt>
      <trkpt lat="46.73586" lon="11.64396"><ele>598</ele></trkpt>
      <trkpt lat="46.73591" lon="11.64393"><ele>598</ele></trkpt>
      <trkpt lat="46.73605" lon="11.64386"><ele>600</ele></trkpt>
      <trkpt lat="46.73607" lon="11.64383"><ele>600</ele></trkpt>
      <trkpt lat="46.73612" lon="11.64377"><ele>600</ele></trkpt>
      <trkpt lat="46.73623" lon="11.64374"><ele>601</ele></trkpt>
      <trkpt lat="46.73640" lon="11.64374"><ele>602</ele></trkpt>
      <trkpt lat="46.73643" lon="11.64374"><ele>602</ele></trkpt>
      <trkpt lat="46.73629" lon="11.64354"><ele>602</ele></trkpt>
      <trkpt lat="46.73622" lon="11.64344"><ele>602</ele></trkpt>
      <trkpt lat="46.73617" lon="11.64338"><ele>602</ele></trkpt>
      <trkpt lat="46.73609" lon="11.64329"><ele>603</ele></trkpt>
      <trkpt lat="46.73642" lon="11.64294"><ele>605</ele></trkpt>
      <trkpt lat="46.73654" lon="11.64277"><ele>606</ele></trkpt>
      <trkpt lat="46.73678" lon="11.64233"><ele>609</ele></trkpt>
      <trkpt lat="46.73703" lon="11.64189"><ele>612</ele></trkpt>
      <trkpt lat="46.73738" lon="11.64125"><ele>616</ele></trkpt>
      <trkpt lat="46.73779" lon="11.64058"><ele>621</ele></trkpt>
      <trkpt lat="46.73788" lon="11.64044"><ele>622</ele></trkpt>
      <trkpt lat="46.73793" lon="11.64037"><ele>622</ele></trkpt>
      <trkpt lat="46.73804" lon="11.64029"><ele>623</ele></trkpt>
      <trkpt lat="46.73811" lon="11.64025"><ele>623</ele></trkpt>
      <trkpt lat="46.73818" lon="11.64024"><ele>623</ele></trkpt>
      <trkpt lat="46.73815" lon="11.64005"><ele>624</ele></trkpt>
      <trkpt lat="46.73815" lon="11.63986"><ele>624</ele></trkpt>
      <trkpt lat="46.73817" lon="11.63975"><ele>625</ele></trkpt>
      <trkpt lat="46.73819" lon="11.63966"><ele>627</ele></trkpt>
      <trkpt lat="46.73822" lon="11.63957"><ele>630</ele></trkpt>
      <trkpt lat="46.73826" lon="11.63946"><ele>630</ele></trkpt>
      <trkpt lat="46.73831" lon="11.63933"><ele>630</ele></trkpt>
      <trkpt lat="46.73835" lon="11.63918"><ele>630</ele></trkpt>
      <trkpt lat="46.73835" lon="11.63912"><ele>630</ele></trkpt>
      <trkpt lat="46.73835" lon="11.63900"><ele>630</ele></trkpt>
      <trkpt lat="46.73836" lon="11.63892"><ele>630</ele></trkpt>
      <trkpt lat="46.73839" lon="11.63886"><ele>630</ele></trkpt>
      <trkpt lat="46.73848" lon="11.63874"><ele>630</ele></trkpt>
      <trkpt lat="46.73857" lon="11.63857"><ele>632</ele></trkpt>
      <trkpt lat="46.73860" lon="11.63851"><ele>632</ele></trkpt>
      <trkpt lat="46.73876" lon="11.63800"><ele>634</ele></trkpt>
      <trkpt lat="46.73883" lon="11.63780"><ele>636</ele></trkpt>
      <trkpt lat="46.73888" lon="11.63764"><ele>637</ele></trkpt>
      <trkpt lat="46.73891" lon="11.63748"><ele>638</ele></trkpt>
      <trkpt lat="46.73897" lon="11.63693"><ele>641</ele></trkpt>
      <trkpt lat="46.73899" lon="11.63679"><ele>643</ele></trkpt>
      <trkpt lat="46.73905" lon="11.63629"><ele>644</ele></trkpt>
      <trkpt lat="46.73905" lon="11.63626"><ele>645</ele></trkpt>
      <trkpt lat="46.73910" lon="11.63621"><ele>644</ele></trkpt>
      <trkpt lat="46.73921" lon="11.63610"><ele>645</ele></trkpt>
      <trkpt lat="46.73927" lon="11.63604"><ele>646</ele></trkpt>
      <trkpt lat="46.73930" lon="11.63602"><ele>646</ele></trkpt>
      <trkpt lat="46.73937" lon="11.63597"><ele>647</ele></trkpt>
      <trkpt lat="46.73942" lon="11.63590"><ele>648</ele></trkpt>
      <trkpt lat="46.73949" lon="11.63580"><ele>648</ele></trkpt>
      <trkpt lat="46.73968" lon="11.63541"><ele>652</ele></trkpt>
      <trkpt lat="46.73977" lon="11.63524"><ele>654</ele></trkpt>
      <trkpt lat="46.73999" lon="11.63504"><ele>657</ele></trkpt>
      <trkpt lat="46.74005" lon="11.63493"><ele>658</ele></trkpt>
      <trkpt lat="46.74011" lon="11.63472"><ele>659</ele></trkpt>
      <trkpt lat="46.74014" lon="11.63463"><ele>659</ele></trkpt>
      <trkpt lat="46.74024" lon="11.63442"><ele>661</ele></trkpt>
      <trkpt lat="46.74026" lon="11.63439"><ele>661</ele></trkpt>
      <trkpt lat="46.74049" lon="11.63398"><ele>665</ele></trkpt>
      <trkpt lat="46.74055" lon="11.63388"><ele>666</ele></trkpt>
      <trkpt lat="46.74072" lon="11.63364"><ele>668</ele></trkpt>
      <trkpt lat="46.74078" lon="11.63356"><ele>668</ele></trkpt>
      <trkpt lat="46.74111" lon="11.63330"><ele>671</ele></trkpt>
      <trkpt lat="46.74118" lon="11.63325"><ele>672</ele></trkpt>
      <trkpt lat="46.74131" lon="11.63320"><ele>672</ele></trkpt>
      <trkpt lat="46.74137" lon="11.63316"><ele>673</ele></trkpt>
      <trkpt lat="46.74142" lon="11.63310"><ele>673</ele></trkpt>
      <trkpt lat="46.74156" lon="11.63283"><ele>676</ele></trkpt>
      <trkpt lat="46.74159" lon="11.63278"><ele>676</ele></trkpt>
      <trkpt lat="46.74179" lon="11.63278"><ele>678</ele></trkpt>
      <trkpt lat="46.74185" lon="11.63278"><ele>678</ele></trkpt>
      <trkpt lat="46.74211" lon="11.63282"><ele>678</ele></trkpt>
      <trkpt lat="46.74218" lon="11.63281"><ele>679</ele></trkpt>
      <trkpt lat="46.74222" lon="11.63279"><ele>679</ele></trkpt>
      <trkpt lat="46.74229" lon="11.63272"><ele>679</ele></trkpt>
      <trkpt lat="46.74233" lon="11.63265"><ele>680</ele></trkpt>
      <trkpt lat="46.74236" lon="11.63252"><ele>680</ele></trkpt>
      <trkpt lat="46.74240" lon="11.63227"><ele>682</ele></trkpt>
      <trkpt lat="46.74242" lon="11.63218"><ele>683</ele></trkpt>
      <trkpt lat="46.74245" lon="11.63208"><ele>684</ele></trkpt>
      <trkpt lat="46.74248" lon="11.63200"><ele>686</ele></trkpt>
      <trkpt lat="46.74254" lon="11.63193"><ele>687</ele></trkpt>
      <trkpt lat="46.74260" lon="11.63185"><ele>688</ele></trkpt>
      <trkpt lat="46.74276" lon="11.63172"><ele>690</ele></trkpt>
      <trkpt lat="46.74285" lon="11.63166"><ele>692</ele></trkpt>
      <trkpt lat="46.74292" lon="11.63163"><ele>694</ele></trkpt>
      <trkpt lat="46.74300" lon="11.63162"><ele>695</ele></trkpt>
      <trkpt lat="46.74307" lon="11.63161"><ele>695</ele></trkpt>
      <trkpt lat="46.74330" lon="11.63166"><ele>695</ele></trkpt>
      <trkpt lat="46.74338" lon="11.63165"><ele>695</ele></trkpt>
      <trkpt lat="46.74340" lon="11.63170"><ele>694</ele></trkpt>
      <trkpt lat="46.74344" lon="11.63172"><ele>694</ele></trkpt>
      <trkpt lat="46.74355" lon="11.63172"><ele>695</ele></trkpt>
      <trkpt lat="46.74362" lon="11.63171"><ele>695</ele></trkpt>
      <trkpt lat="46.74377" lon="11.63160"><ele>697</ele></trkpt>
      <trkpt lat="46.74403" lon="11.63166"><ele>696</ele></trkpt>
      <trkpt lat="46.74413" lon="11.63168"><ele>696</ele></trkpt>
      <trkpt lat="46.74416" lon="11.63169"><ele>696</ele></trkpt>
      <trkpt lat="46.74423" lon="11.63173"><ele>697</ele></trkpt>
      <trkpt lat="46.74429" lon="11.63179"><ele>697</ele></trkpt>
      <trkpt lat="46.74432" lon="11.63185"><ele>697</ele></trkpt>
      <trkpt lat="46.74440" lon="11.63198"><ele>697</ele></trkpt>
      <trkpt lat="46.74446" lon="11.63205"><ele>697</ele></trkpt>
      <trkpt lat="46.74458" lon="11.63213"><ele>697</ele></trkpt>
      <trkpt lat="46.74468" lon="11.63216"><ele>698</ele></trkpt>
      <trkpt lat="46.74483" lon="11.63218"><ele>697</ele></trkpt>
      <trkpt lat="46.74502" lon="11.63215"><ele>697</ele></trkpt>
      <trkpt lat="46.74522" lon="11.63211"><ele>697</ele></trkpt>
      <trkpt lat="46.74534" lon="11.63213"><ele>697</ele></trkpt>
      <trkpt lat="46.74567" lon="11.63223"><ele>695</ele></trkpt>
      <trkpt lat="46.74575" lon="11.63223"><ele>695</ele></trkpt>
      <trkpt lat="46.74605" lon="11.63222"><ele>693</ele></trkpt>
      <trkpt lat="46.74628" lon="11.63217"><ele>693</ele></trkpt>
      <trkpt lat="46.74634" lon="11.63211"><ele>693</ele></trkpt>
      <trkpt lat="46.74649" lon="11.63186"><ele>694</ele></trkpt>
      <trkpt lat="46.74655" lon="11.63180"><ele>695</ele></trkpt>
      <trkpt lat="46.74689" lon="11.63157"><ele>695</ele></trkpt>
      <trkpt lat="46.74699" lon="11.63148"><ele>695</ele></trkpt>
      <trkpt lat="46.74711" lon="11.63132"><ele>695</ele></trkpt>
      <trkpt lat="46.74729" lon="11.63108"><ele>697</ele></trkpt>
      <trkpt lat="46.74739" lon="11.63097"><ele>698</ele></trkpt>
      <trkpt lat="46.74752" lon="11.63085"><ele>698</ele></trkpt>
      <trkpt lat="46.74761" lon="11.63080"><ele>698</ele></trkpt>
      <trkpt lat="46.74768" lon="11.63077"><ele>698</ele></trkpt>
      <trkpt lat="46.74781" lon="11.63077"><ele>698</ele></trkpt>
      <trkpt lat="46.74801" lon="11.63081"><ele>696</ele></trkpt>
      <trkpt lat="46.74824" lon="11.63092"><ele>695</ele></trkpt>
      <trkpt lat="46.74853" lon="11.63111"><ele>694</ele></trkpt>
      <trkpt lat="46.74879" lon="11.63138"><ele>692</ele></trkpt>
      <trkpt lat="46.74903" lon="11.63168"><ele>690</ele></trkpt>
      <trkpt lat="46.74944" lon="11.63194"><ele>688</ele></trkpt>
      <trkpt lat="46.74985" lon="11.63225"><ele>684</ele></trkpt>
      <trkpt lat="46.75037" lon="11.63253"><ele>683</ele></trkpt>
      <trkpt lat="46.75066" lon="11.63262"><ele>683</ele></trkpt>
      <trkpt lat="46.75095" lon="11.63269"><ele>682</ele></trkpt>
      <trkpt lat="46.75117" lon="11.63275"><ele>682</ele></trkpt>
      <trkpt lat="46.75126" lon="11.63277"><ele>682</ele></trkpt>
      <trkpt lat="46.75145" lon="11.63279"><ele>682</ele></trkpt>
      <trkpt lat="46.75163" lon="11.63278"><ele>682</ele></trkpt>
      <trkpt lat="46.75219" lon="11.63266"><ele>679</ele></trkpt>
      <trkpt lat="46.75253" lon="11.63267"><ele>676</ele></trkpt>
      <trkpt lat="46.75276" lon="11.63264"><ele>674</ele></trkpt>
      <trkpt lat="46.75301" lon="11.63264"><ele>674</ele></trkpt>
      <trkpt lat="46.75355" lon="11.63259"><ele>674</ele></trkpt>
      <trkpt lat="46.75379" lon="11.63259"><ele>675</ele></trkpt>
      <trkpt lat="46.75401" lon="11.63262"><ele>676</ele></trkpt>
      <trkpt lat="46.75448" lon="11.63276"><ele>674</ele></trkpt>
      <trkpt lat="46.75524" lon="11.63288"><ele>680</ele></trkpt>
      <trkpt lat="46.75549" lon="11.63294"><ele>681</ele></trkpt>
      <trkpt lat="46.75578" lon="11.63302"><ele>681</ele></trkpt>
      <trkpt lat="46.75652" lon="11.63326"><ele>683</ele></trkpt>
      <trkpt lat="46.75681" lon="11.63338"><ele>682</ele></trkpt>
      <trkpt lat="46.75726" lon="11.63360"><ele>686</ele></trkpt>
      <trkpt lat="46.75795" lon="11.63406"><ele>688</ele></trkpt>
      <trkpt lat="46.75856" lon="11.63448"><ele>690</ele></trkpt>
      <trkpt lat="46.75881" lon="11.63458"><ele>692</ele></trkpt>
      <trkpt lat="46.75893" lon="11.63466"><ele>691</ele></trkpt>
      <trkpt lat="46.75897" lon="11.63469"><ele>691</ele></trkpt>
      <trkpt lat="46.75960" lon="11.63517"><ele>691</ele></trkpt>
      <trkpt lat="46.75976" lon="11.63527"><ele>690</ele></trkpt>
      <trkpt lat="46.75998" lon="11.63528"><ele>691</ele></trkpt>
      <trkpt lat="46.76015" lon="11.63533"><ele>691</ele></trkpt>
      <trkpt lat="46.76043" lon="11.63534"><ele>691</ele></trkpt>
      <trkpt lat="46.76062" lon="11.63531"><ele>690</ele></trkpt>
      <trkpt lat="46.76065" lon="11.63533"><ele>690</ele></trkpt>
      <trkpt lat="46.76064" lon="11.63542"><ele>690</ele></trkpt>
      <trkpt lat="46.76064" lon="11.63551"><ele>689</ele></trkpt>
      <trkpt lat="46.76067" lon="11.63564"><ele>689</ele></trkpt>
      <trkpt lat="46.76072" lon="11.63576"><ele>689</ele></trkpt>
      <trkpt lat="46.76077" lon="11.63587"><ele>689</ele></trkpt>
      <trkpt lat="46.76081" lon="11.63592"><ele>689</ele></trkpt>
      <trkpt lat="46.76096" lon="11.63607"><ele>689</ele></trkpt>
      <trkpt lat="46.76096" lon="11.63610"><ele>689</ele></trkpt>
      <trkpt lat="46.76095" lon="11.63615"><ele>690</ele></trkpt>
      <trkpt lat="46.76091" lon="11.63626"><ele>691</ele></trkpt>
      <trkpt lat="46.76089" lon="11.63633"><ele>691</ele></trkpt>
      <trkpt lat="46.76086" lon="11.63637"><ele>690</ele></trkpt>
      <trkpt lat="46.76085" lon="11.63640"><ele>690</ele></trkpt>
      <trkpt lat="46.76081" lon="11.63643"><ele>690</ele></trkpt>
      <trkpt lat="46.76075" lon="11.63642"><ele>690</ele></trkpt>
      <trkpt lat="46.76059" lon="11.63635"><ele>689</ele></trkpt>
      <trkpt lat="46.76054" lon="11.63634"><ele>688</ele></trkpt>
      <trkpt lat="46.76051" lon="11.63636"><ele>688</ele></trkpt>
      <trkpt lat="46.76047" lon="11.63639"><ele>688</ele></trkpt>
      <trkpt lat="46.76044" lon="11.63646"><ele>689</ele></trkpt>
      <trkpt lat="46.76043" lon="11.63651"><ele>690</ele></trkpt>
      <trkpt lat="46.76032" lon="11.63689"><ele>690</ele></trkpt>
      <trkpt lat="46.76029" lon="11.63695"><ele>689</ele></trkpt>
      <trkpt lat="46.76026" lon="11.63697"><ele>690</ele></trkpt>
      <trkpt lat="46.76024" lon="11.63698"><ele>690</ele></trkpt>
      <trkpt lat="46.76021" lon="11.63699"><ele>690</ele></trkpt>
      <trkpt lat="46.75995" lon="11.63695"><ele>690</ele></trkpt>
      <trkpt lat="46.75983" lon="11.63695"><ele>690</ele></trkpt>
      <trkpt lat="46.75973" lon="11.63698"><ele>691</ele></trkpt>
      <trkpt lat="46.75960" lon="11.63704"><ele>692</ele></trkpt>
      <trkpt lat="46.75933" lon="11.63722"><ele>696</ele></trkpt>
      <trkpt lat="46.75871" lon="11.63746"><ele>704</ele></trkpt>
      <trkpt lat="46.75865" lon="11.63750"><ele>704</ele></trkpt>
      <trkpt lat="46.75861" lon="11.63754"><ele>704</ele></trkpt>
      <trkpt lat="46.75857" lon="11.63760"><ele>704</ele></trkpt>
      <trkpt lat="46.75853" lon="11.63768"><ele>704</ele></trkpt>
      <trkpt lat="46.75844" lon="11.63779"><ele>703</ele></trkpt>
      <trkpt lat="46.75840" lon="11.63786"><ele>703</ele></trkpt>
      <trkpt lat="46.75836" lon="11.63789"><ele>703</ele></trkpt>
      <trkpt lat="46.75833" lon="11.63793"><ele>703</ele></trkpt>
      <trkpt lat="46.75831" lon="11.63799"><ele>703</ele></trkpt>
      <trkpt lat="46.75831" lon="11.63805"><ele>703</ele></trkpt>
      <trkpt lat="46.75832" lon="11.63812"><ele>702</ele></trkpt>
      <trkpt lat="46.75833" lon="11.63814"><ele>702</ele></trkpt>
      <trkpt lat="46.75834" lon="11.63816"><ele>702</ele></trkpt>
      <trkpt lat="46.75837" lon="11.63819"><ele>702</ele></trkpt>
      <trkpt lat="46.75841" lon="11.63821"><ele>702</ele></trkpt>
      <trkpt lat="46.75844" lon="11.63822"><ele>702</ele></trkpt>
      <trkpt lat="46.75849" lon="11.63820"><ele>702</ele></trkpt>
      <trkpt lat="46.75851" lon="11.63817"><ele>703</ele></trkpt>
      <trkpt lat="46.75852" lon="11.63817"><ele>703</ele></trkpt>
      <trkpt lat="46.75866" lon="11.63815"><ele>704</ele></trkpt>
      <trkpt lat="46.75888" lon="11.63817"><ele>705</ele></trkpt>
      <trkpt lat="46.75928" lon="11.63834"><ele>705</ele></trkpt>
      <trkpt lat="46.75941" lon="11.63841"><ele>705</ele></trkpt>
      <trkpt lat="46.75971" lon="11.63861"><ele>707</ele></trkpt>
      <trkpt lat="46.75997" lon="11.63881"><ele>706</ele></trkpt>
      <trkpt lat="46.76014" lon="11.63897"><ele>707</ele></trkpt>
      <trkpt lat="46.76043" lon="11.63929"><ele>707</ele></trkpt>
      <trkpt lat="46.76056" lon="11.63946"><ele>709</ele></trkpt>
      <trkpt lat="46.76095" lon="11.64004"><ele>710</ele></trkpt>
      <trkpt lat="46.76134" lon="11.64066"><ele>712</ele></trkpt>
      <trkpt lat="46.76213" lon="11.64190"><ele>714</ele></trkpt>
      <trkpt lat="46.76281" lon="11.64297"><ele>715</ele></trkpt>
      <trkpt lat="46.76295" lon="11.64316"><ele>715</ele></trkpt>
      <trkpt lat="46.76309" lon="11.64331"><ele>714</ele></trkpt>
      <trkpt lat="46.76323" lon="11.64343"><ele>715</ele></trkpt>
      <trkpt lat="46.76338" lon="11.64353"><ele>715</ele></trkpt>
      <trkpt lat="46.76356" lon="11.64363"><ele>714</ele></trkpt>
      <trkpt lat="46.76380" lon="11.64371"><ele>714</ele></trkpt>
      <trkpt lat="46.76400" lon="11.64374"><ele>715</ele></trkpt>
      <trkpt lat="46.76422" lon="11.64374"><ele>714</ele></trkpt>
      <trkpt lat="46.76441" lon="11.64370"><ele>715</ele></trkpt>
      <trkpt lat="46.76459" lon="11.64363"><ele>715</ele></trkpt>
      <trkpt lat="46.76474" lon="11.64356"><ele>716</ele></trkpt>
      <trkpt lat="46.76489" lon="11.64345"><ele>716</ele></trkpt>
      <trkpt lat="46.76503" lon="11.64333"><ele>714</ele></trkpt>
      <trkpt lat="46.76521" lon="11.64315"><ele>714</ele></trkpt>
      <trkpt lat="46.76540" lon="11.64293"><ele>717</ele></trkpt>
      <trkpt lat="46.76667" lon="11.64130"><ele>715</ele></trkpt>
      <trkpt lat="46.76697" lon="11.64093"><ele>715</ele></trkpt>
      <trkpt lat="46.76738" lon="11.64041"><ele>716</ele></trkpt>
      <trkpt lat="46.76774" lon="11.64001"><ele>716</ele></trkpt>
      <trkpt lat="46.76793" lon="11.63984"><ele>715</ele></trkpt>
      <trkpt lat="46.76809" lon="11.63972"><ele>716</ele></trkpt>
      <trkpt lat="46.76831" lon="11.63957"><ele>714</ele></trkpt>
      <trkpt lat="46.76860" lon="11.63941"><ele>716</ele></trkpt>
      <trkpt lat="46.76874" lon="11.63934"><ele>715</ele></trkpt>
      <trkpt lat="46.76933" lon="11.63907"><ele>716</ele></trkpt>
      <trkpt lat="46.76945" lon="11.63901"><ele>716</ele></trkpt>
      <trkpt lat="46.76997" lon="11.63879"><ele>718</ele></trkpt>
      <trkpt lat="46.77024" lon="11.63868"><ele>718</ele></trkpt>
      <trkpt lat="46.77040" lon="11.63861"><ele>718</ele></trkpt>
      <trkpt lat="46.77060" lon="11.63852"><ele>718</ele></trkpt>
      <trkpt lat="46.77073" lon="11.63846"><ele>719</ele></trkpt>
      <trkpt lat="46.77102" lon="11.63833"><ele>718</ele></trkpt>
      <trkpt lat="46.77125" lon="11.63821"><ele>718</ele></trkpt>
      <trkpt lat="46.77147" lon="11.63807"><ele>718</ele></trkpt>
      <trkpt lat="46.77168" lon="11.63790"><ele>718</ele></trkpt>
      <trkpt lat="46.77231" lon="11.63739"><ele>717</ele></trkpt>
      <trkpt lat="46.77256" lon="11.63717"><ele>717</ele></trkpt>
      <trkpt lat="46.77270" lon="11.63704"><ele>717</ele></trkpt>
      <trkpt lat="46.77283" lon="11.63688"><ele>721</ele></trkpt>
      <trkpt lat="46.77292" lon="11.63676"><ele>722</ele></trkpt>
      <trkpt lat="46.77302" lon="11.63661"><ele>723</ele></trkpt>
      <trkpt lat="46.77314" lon="11.63640"><ele>724</ele></trkpt>
      <trkpt lat="46.77327" lon="11.63616"><ele>726</ele></trkpt>
      <trkpt lat="46.77339" lon="11.63586"><ele>724</ele></trkpt>
      <trkpt lat="46.77348" lon="11.63559"><ele>726</ele></trkpt>
      <trkpt lat="46.77355" lon="11.63533"><ele>727</ele></trkpt>
      <trkpt lat="46.77361" lon="11.63507"><ele>726</ele></trkpt>
      <trkpt lat="46.77372" lon="11.63441"><ele>725</ele></trkpt>
      <trkpt lat="46.77396" lon="11.63289"><ele>725</ele></trkpt>
      <trkpt lat="46.77404" lon="11.63252"><ele>728</ele></trkpt>
      <trkpt lat="46.77410" lon="11.63226"><ele>730</ele></trkpt>
      <trkpt lat="46.77418" lon="11.63196"><ele>729</ele></trkpt>
      <trkpt lat="46.77426" lon="11.63171"><ele>728</ele></trkpt>
      <trkpt lat="46.77444" lon="11.63126"><ele>730</ele></trkpt>
      <trkpt lat="46.77456" lon="11.63099"><ele>730</ele></trkpt>
      <trkpt lat="46.77469" lon="11.63073"><ele>731</ele></trkpt>
      <trkpt lat="46.77488" lon="11.63040"><ele>732</ele></trkpt>
      <trkpt lat="46.77506" lon="11.63009"><ele>733</ele></trkpt>
      <trkpt lat="46.77539" lon="11.62958"><ele>733</ele></trkpt>
      <trkpt lat="46.77558" lon="11.62930"><ele>734</ele></trkpt>
      <trkpt lat="46.77581" lon="11.62901"><ele>734</ele></trkpt>
      <trkpt lat="46.77638" lon="11.62833"><ele>736</ele></trkpt>
      <trkpt lat="46.77683" lon="11.62779"><ele>738</ele></trkpt>
      <trkpt lat="46.77677" lon="11.62770"><ele>740</ele></trkpt>
      <trkpt lat="46.77722" lon="11.62721"><ele>740</ele></trkpt>
      <trkpt lat="46.77768" lon="11.62666"><ele>740</ele></trkpt>
      <trkpt lat="46.77776" lon="11.62656"><ele>739</ele></trkpt>
      <trkpt lat="46.77784" lon="11.62644"><ele>739</ele></trkpt>
      <trkpt lat="46.77790" lon="11.62628"><ele>739</ele></trkpt>
      <trkpt lat="46.77800" lon="11.62597"><ele>738</ele></trkpt>
      <trkpt lat="46.77809" lon="11.62554"><ele>734</ele></trkpt>
      <trkpt lat="46.77808" lon="11.62541"><ele>736</ele></trkpt>
      <trkpt lat="46.77811" lon="11.62517"><ele>736</ele></trkpt>
      <trkpt lat="46.77810" lon="11.62511"><ele>736</ele></trkpt>
      <trkpt lat="46.77815" lon="11.62427"><ele>739</ele></trkpt>
      <trkpt lat="46.77817" lon="11.62415"><ele>739</ele></trkpt>
      <trkpt lat="46.77824" lon="11.62409"><ele>737</ele></trkpt>
      <trkpt lat="46.77853" lon="11.62353"><ele>736</ele></trkpt>
      <trkpt lat="46.77871" lon="11.62326"><ele>738</ele></trkpt>
      <trkpt lat="46.77972" lon="11.62164"><ele>741</ele></trkpt>
      <trkpt lat="46.78018" lon="11.62116"><ele>732</ele></trkpt>
      <trkpt lat="46.78101" lon="11.61981"><ele>730</ele></trkpt>
      <trkpt lat="46.78102" lon="11.61978"><ele>730</ele></trkpt>
      <trkpt lat="46.78109" lon="11.61965"><ele>730</ele></trkpt>
      <trkpt lat="46.78113" lon="11.61946"><ele>735</ele></trkpt>
      <trkpt lat="46.78153" lon="11.61876"><ele>734</ele></trkpt>
      <trkpt lat="46.78184" lon="11.61827"><ele>732</ele></trkpt>
      <trkpt lat="46.78200" lon="11.61790"><ele>733</ele></trkpt>
      <trkpt lat="46.78216" lon="11.61749"><ele>729</ele></trkpt>
      <trkpt lat="46.78237" lon="11.61703"><ele>730</ele></trkpt>
      <trkpt lat="46.78267" lon="11.61657"><ele>730</ele></trkpt>
      <trkpt lat="46.78281" lon="11.61639"><ele>728</ele></trkpt>
      <trkpt lat="46.78288" lon="11.61629"><ele>729</ele></trkpt>
      <trkpt lat="46.78359" lon="11.61540"><ele>726</ele></trkpt>
      <trkpt lat="46.78422" lon="11.61458"><ele>727</ele></trkpt>
      <trkpt lat="46.78424" lon="11.61451"><ele>728</ele></trkpt>
      <trkpt lat="46.78426" lon="11.61443"><ele>728</ele></trkpt>
      <trkpt lat="46.78440" lon="11.61424"><ele>728</ele></trkpt>
      <trkpt lat="46.78452" lon="11.61408"><ele>729</ele></trkpt>
      <trkpt lat="46.78454" lon="11.61404"><ele>729</ele></trkpt>
      <trkpt lat="46.78443" lon="11.61378"><ele>732</ele></trkpt>
      <trkpt lat="46.78442" lon="11.61373"><ele>733</ele></trkpt>
      <trkpt lat="46.78443" lon="11.61368"><ele>733</ele></trkpt>
      <trkpt lat="46.78500" lon="11.61309"><ele>736</ele></trkpt>
      <trkpt lat="46.78534" lon="11.61281"><ele>738</ele></trkpt>
      <trkpt lat="46.78586" lon="11.61243"><ele>742</ele></trkpt>
      <trkpt lat="46.78590" lon="11.61242"><ele>743</ele></trkpt>
      <trkpt lat="46.78609" lon="11.61231"><ele>744</ele></trkpt>
      <trkpt lat="46.78626" lon="11.61220"><ele>744</ele></trkpt>
      <trkpt lat="46.78629" lon="11.61217"><ele>744</ele></trkpt>
      <trkpt lat="46.78632" lon="11.61213"><ele>744</ele></trkpt>
      <trkpt lat="46.78635" lon="11.61210"><ele>744</ele></trkpt>
      <trkpt lat="46.78732" lon="11.61163"><ele>746</ele></trkpt>
      <trkpt lat="46.78752" lon="11.61150"><ele>746</ele></trkpt>
      <trkpt lat="46.78763" lon="11.61141"><ele>747</ele></trkpt>
      <trkpt lat="46.78844" lon="11.61092"><ele>747</ele></trkpt>
      <trkpt lat="46.78856" lon="11.61075"><ele>747</ele></trkpt>
      <trkpt lat="46.78881" lon="11.61059"><ele>747</ele></trkpt>
      <trkpt lat="46.78884" lon="11.61057"><ele>747</ele></trkpt>
      <trkpt lat="46.78888" lon="11.61056"><ele>747</ele></trkpt>
      <trkpt lat="46.78891" lon="11.61058"><ele>747</ele></trkpt>
      <trkpt lat="46.78890" lon="11.61061"><ele>747</ele></trkpt>
      <trkpt lat="46.78891" lon="11.61064"><ele>747</ele></trkpt>
      <trkpt lat="46.78892" lon="11.61068"><ele>747</ele></trkpt>
      <trkpt lat="46.78895" lon="11.61070"><ele>747</ele></trkpt>
      <trkpt lat="46.78899" lon="11.61069"><ele>746</ele></trkpt>
      <trkpt lat="46.78901" lon="11.61067"><ele>746</ele></trkpt>
      <trkpt lat="46.78902" lon="11.61062"><ele>747</ele></trkpt>
      <trkpt lat="46.78901" lon="11.61057"><ele>747</ele></trkpt>
      <trkpt lat="46.78908" lon="11.61054"><ele>747</ele></trkpt>
      <trkpt lat="46.78933" lon="11.61040"><ele>746</ele></trkpt>
      <trkpt lat="46.78931" lon="11.61035"><ele>746</ele></trkpt>
      <trkpt lat="46.78920" lon="11.60996"><ele>747</ele></trkpt>
      <trkpt lat="46.78917" lon="11.60998"><ele>747</ele></trkpt>
      <trkpt lat="46.78906" lon="11.61005"><ele>747</ele></trkpt>
      <trkpt lat="46.78906" lon="11.61005"><ele>747</ele></trkpt>
      <trkpt lat="46.78917" lon="11.60998"><ele>747</ele></trkpt>
      <trkpt lat="46.78920" lon="11.60996"><ele>747</ele></trkpt>
      <trkpt lat="46.78931" lon="11.61035"><ele>746</ele></trkpt>
      <trkpt lat="46.78933" lon="11.61040"><ele>746</ele></trkpt>
      <trkpt lat="46.78934" lon="11.61039"><ele>746</ele></trkpt>
      <trkpt lat="46.78944" lon="11.61023"><ele>747</ele></trkpt>
      <trkpt lat="46.78998" lon="11.60988"><ele>746</ele></trkpt>
      <trkpt lat="46.79022" lon="11.60970"><ele>747</ele></trkpt>
      <trkpt lat="46.79114" lon="11.60916"><ele>746</ele></trkpt>
      <trkpt lat="46.79138" lon="11.60937"><ele>742</ele></trkpt>
      <trkpt lat="46.79162" lon="11.60960"><ele>743</ele></trkpt>
      <trkpt lat="46.79166" lon="11.60960"><ele>743</ele></trkpt>
      <trkpt lat="46.79169" lon="11.60958"><ele>743</ele></trkpt>
      <trkpt lat="46.79196" lon="11.60899"><ele>744</ele></trkpt>
      <trkpt lat="46.79227" lon="11.60845"><ele>745</ele></trkpt>
      <trkpt lat="46.79311" lon="11.60760"><ele>747</ele></trkpt>
      <trkpt lat="46.79325" lon="11.60777"><ele>751</ele></trkpt>
      <trkpt lat="46.79329" lon="11.60779"><ele>752</ele></trkpt>
      <trkpt lat="46.79347" lon="11.60750"><ele>752</ele></trkpt>
      <trkpt lat="46.79362" lon="11.60733"><ele>753</ele></trkpt>
      <trkpt lat="46.79385" lon="11.60712"><ele>753</ele></trkpt>
      <trkpt lat="46.79416" lon="11.60687"><ele>754</ele></trkpt>
      <trkpt lat="46.79435" lon="11.60673"><ele>756</ele></trkpt>
      <trkpt lat="46.79472" lon="11.60645"><ele>756</ele></trkpt>
      <trkpt lat="46.79478" lon="11.60640"><ele>756</ele></trkpt>
      <trkpt lat="46.79578" lon="11.60568"><ele>756</ele></trkpt>
      <trkpt lat="46.79602" lon="11.60550"><ele>756</ele></trkpt>
      <trkpt lat="46.79616" lon="11.60534"><ele>755</ele></trkpt>
      <trkpt lat="46.79630" lon="11.60515"><ele>756</ele></trkpt>
      <trkpt lat="46.79641" lon="11.60496"><ele>756</ele></trkpt>
      <trkpt lat="46.79648" lon="11.60481"><ele>756</ele></trkpt>
      <trkpt lat="46.79658" lon="11.60455"><ele>756</ele></trkpt>
      <trkpt lat="46.79666" lon="11.60427"><ele>756</ele></trkpt>
      <trkpt lat="46.79672" lon="11.60430"><ele>756</ele></trkpt>
      <trkpt lat="46.79685" lon="11.60371"><ele>756</ele></trkpt>
      <trkpt lat="46.79698" lon="11.60308"><ele>756</ele></trkpt>
      <trkpt lat="46.79714" lon="11.60247"><ele>757</ele></trkpt>
      <trkpt lat="46.79726" lon="11.60196"><ele>758</ele></trkpt>
      <trkpt lat="46.79738" lon="11.60161"><ele>758</ele></trkpt>
      <trkpt lat="46.79742" lon="11.60151"><ele>758</ele></trkpt>
      <trkpt lat="46.79753" lon="11.60128"><ele>759</ele></trkpt>
      <trkpt lat="46.79777" lon="11.60079"><ele>762</ele></trkpt>
      <trkpt lat="46.79784" lon="11.60064"><ele>762</ele></trkpt>
      <trkpt lat="46.79786" lon="11.60058"><ele>762</ele></trkpt>
      <trkpt lat="46.79801" lon="11.60016"><ele>762</ele></trkpt>
      <trkpt lat="46.79808" lon="11.59990"><ele>764</ele></trkpt>
      <trkpt lat="46.79814" lon="11.59961"><ele>767</ele></trkpt>
      <trkpt lat="46.79811" lon="11.59956"><ele>765</ele></trkpt>
      <trkpt lat="46.79810" lon="11.59953"><ele>765</ele></trkpt>
      <trkpt lat="46.79813" lon="11.59939"><ele>766</ele></trkpt>
      <trkpt lat="46.79818" lon="11.59898"><ele>766</ele></trkpt>
      <trkpt lat="46.79826" lon="11.59861"><ele>766</ele></trkpt>
      <trkpt lat="46.79828" lon="11.59843"><ele>766</ele></trkpt>
      <trkpt lat="46.79829" lon="11.59839"><ele>765</ele></trkpt>
      <trkpt lat="46.79832" lon="11.59828"><ele>766</ele></trkpt>
      <trkpt lat="46.79833" lon="11.59825"><ele>766</ele></trkpt>
      <trkpt lat="46.79842" lon="11.59811"><ele>768</ele></trkpt>
      <trkpt lat="46.79848" lon="11.59796"><ele>768</ele></trkpt>
      <trkpt lat="46.79863" lon="11.59769"><ele>768</ele></trkpt>
      <trkpt lat="46.79885" lon="11.59739"><ele>768</ele></trkpt>
      <trkpt lat="46.79910" lon="11.59717"><ele>769</ele></trkpt>
      <trkpt lat="46.79954" lon="11.59678"><ele>770</ele></trkpt>
      <trkpt lat="46.79987" lon="11.59648"><ele>771</ele></trkpt>
      <trkpt lat="46.80004" lon="11.59632"><ele>772</ele></trkpt>
      <trkpt lat="46.80057" lon="11.59563"><ele>770</ele></trkpt>
      <trkpt lat="46.80093" lon="11.59509"><ele>774</ele></trkpt>
      <trkpt lat="46.80096" lon="11.59503"><ele>774</ele></trkpt>
      <trkpt lat="46.80098" lon="11.59496"><ele>774</ele></trkpt>
      <trkpt lat="46.80103" lon="11.59486"><ele>774</ele></trkpt>
      <trkpt lat="46.80109" lon="11.59474"><ele>774</ele></trkpt>
      <trkpt lat="46.80119" lon="11.59465"><ele>774</ele></trkpt>
      <trkpt lat="46.80148" lon="11.59407"><ele>775</ele></trkpt>
      <trkpt lat="46.80174" lon="11.59349"><ele>777</ele></trkpt>
      <trkpt lat="46.80309" lon="11.58954"><ele>789</ele></trkpt>
      <trkpt lat="46.80318" lon="11.58917"><ele>792</ele></trkpt>
      <trkpt lat="46.80327" lon="11.58863"><ele>793</ele></trkpt>
      <trkpt lat="46.80338" lon="11.58771"><ele>797</ele></trkpt>
      <trkpt lat="46.80344" lon="11.58737"><ele>795</ele></trkpt>
      <trkpt lat="46.80352" lon="11.58705"><ele>794</ele></trkpt>
      <trkpt lat="46.80362" lon="11.58676"><ele>796</ele></trkpt>
      <trkpt lat="46.80376" lon="11.58647"><ele>795</ele></trkpt>
      <trkpt lat="46.80387" lon="11.58627"><ele>795</ele></trkpt>
      <trkpt lat="46.80404" lon="11.58602"><ele>794</ele></trkpt>
      <trkpt lat="46.80521" lon="11.58463"><ele>796</ele></trkpt>
      <trkpt lat="46.80531" lon="11.58447"><ele>796</ele></trkpt>
      <trkpt lat="46.80533" lon="11.58442"><ele>796</ele></trkpt>
      <trkpt lat="46.80540" lon="11.58430"><ele>796</ele></trkpt>
      <trkpt lat="46.80554" lon="11.58399"><ele>796</ele></trkpt>
      <trkpt lat="46.80569" lon="11.58352"><ele>797</ele></trkpt>
      <trkpt lat="46.80587" lon="11.58266"><ele>798</ele></trkpt>
      <trkpt lat="46.80603" lon="11.58185"><ele>797</ele></trkpt>
      <trkpt lat="46.80621" lon="11.58085"><ele>798</ele></trkpt>
      <trkpt lat="46.80629" lon="11.58046"><ele>798</ele></trkpt>
      <trkpt lat="46.80660" lon="11.57951"><ele>797</ele></trkpt>
      <trkpt lat="46.80680" lon="11.57887"><ele>798</ele></trkpt>
      <trkpt lat="46.80696" lon="11.57841"><ele>800</ele></trkpt>
      <trkpt lat="46.80736" lon="11.57720"><ele>802</ele></trkpt>
      <trkpt lat="46.80781" lon="11.57561"><ele>803</ele></trkpt>
      <trkpt lat="46.80791" lon="11.57520"><ele>803</ele></trkpt>
      <trkpt lat="46.80795" lon="11.57500"><ele>802</ele></trkpt>
      <trkpt lat="46.80793" lon="11.57457"><ele>802</ele></trkpt>
      <trkpt lat="46.80771" lon="11.57439"><ele>799</ele></trkpt>
      <trkpt lat="46.80768" lon="11.57436"><ele>798</ele></trkpt>
      <trkpt lat="46.80746" lon="11.57417"><ele>797</ele></trkpt>
      <trkpt lat="46.80709" lon="11.57383"><ele>798</ele></trkpt>
      <trkpt lat="46.80706" lon="11.57377"><ele>799</ele></trkpt>
      <trkpt lat="46.80696" lon="11.57363"><ele>799</ele></trkpt>
      <trkpt lat="46.80662" lon="11.57313"><ele>800</ele></trkpt>
      <trkpt lat="46.80652" lon="11.57301"><ele>802</ele></trkpt>
      <trkpt lat="46.80641" lon="11.57293"><ele>804</ele></trkpt>
      <trkpt lat="46.80607" lon="11.57268"><ele>804</ele></trkpt>
      <trkpt lat="46.80593" lon="11.57260"><ele>804</ele></trkpt>
      <trkpt lat="46.80597" lon="11.57232"><ele>805</ele></trkpt>
      <trkpt lat="46.80599" lon="11.57219"><ele>806</ele></trkpt>
      <trkpt lat="46.80604" lon="11.57209"><ele>806</ele></trkpt>
      <trkpt lat="46.80611" lon="11.57205"><ele>806</ele></trkpt>
      <trkpt lat="46.80616" lon="11.57197"><ele>806</ele></trkpt>
      <trkpt lat="46.80625" lon="11.57173"><ele>806</ele></trkpt>
      <trkpt lat="46.80642" lon="11.57122"><ele>808</ele></trkpt>
      <trkpt lat="46.80659" lon="11.57065"><ele>808</ele></trkpt>
      <trkpt lat="46.80675" lon="11.57017"><ele>808</ele></trkpt>
      <trkpt lat="46.80687" lon="11.56976"><ele>808</ele></trkpt>
      <trkpt lat="46.80690" lon="11.56955"><ele>807</ele></trkpt>
      <trkpt lat="46.80690" lon="11.56941"><ele>806</ele></trkpt>
      <trkpt lat="46.80693" lon="11.56924"><ele>805</ele></trkpt>
      <trkpt lat="46.80697" lon="11.56903"><ele>806</ele></trkpt>
      <trkpt lat="46.80703" lon="11.56885"><ele>806</ele></trkpt>
      <trkpt lat="46.80722" lon="11.56792"><ele>806</ele></trkpt>
      <trkpt lat="46.80728" lon="11.56772"><ele>806</ele></trkpt>
      <trkpt lat="46.80738" lon="11.56753"><ele>806</ele></trkpt>
      <trkpt lat="46.80746" lon="11.56744"><ele>806</ele></trkpt>
      <trkpt lat="46.80750" lon="11.56736"><ele>806</ele></trkpt>
      <trkpt lat="46.80760" lon="11.56712"><ele>807</ele></trkpt>
      <trkpt lat="46.80776" lon="11.56669"><ele>808</ele></trkpt>
      <trkpt lat="46.80818" lon="11.56531"><ele>808</ele></trkpt>
      <trkpt lat="46.80838" lon="11.56464"><ele>810</ele></trkpt>
      <trkpt lat="46.80840" lon="11.56455"><ele>811</ele></trkpt>
      <trkpt lat="46.80841" lon="11.56439"><ele>812</ele></trkpt>
      <trkpt lat="46.80842" lon="11.56425"><ele>814</ele></trkpt>
      <trkpt lat="46.80881" lon="11.56326"><ele>820</ele></trkpt>
      <trkpt lat="46.80887" lon="11.56302"><ele>818</ele></trkpt>
      <trkpt lat="46.80888" lon="11.56286"><ele>818</ele></trkpt>
      <trkpt lat="46.80891" lon="11.56265"><ele>817</ele></trkpt>
      <trkpt lat="46.80897" lon="11.56254"><ele>817</ele></trkpt>
      <trkpt lat="46.80925" lon="11.56206"><ele>817</ele></trkpt>
      <trkpt lat="46.80966" lon="11.56111"><ele>820</ele></trkpt>
      <trkpt lat="46.80980" lon="11.56080"><ele>823</ele></trkpt>
      <trkpt lat="46.81007" lon="11.56025"><ele>818</ele></trkpt>
      <trkpt lat="46.81107" lon="11.55883"><ele>816</ele></trkpt>
      <trkpt lat="46.81119" lon="11.55864"><ele>815</ele></trkpt>
      <trkpt lat="46.81131" lon="11.55843"><ele>815</ele></trkpt>
      <trkpt lat="46.81156" lon="11.55790"><ele>817</ele></trkpt>
      <trkpt lat="46.81165" lon="11.55770"><ele>818</ele></trkpt>
      <trkpt lat="46.81166" lon="11.55761"><ele>818</ele></trkpt>
      <trkpt lat="46.81165" lon="11.55715"><ele>821</ele></trkpt>
      <trkpt lat="46.81165" lon="11.55702"><ele>821</ele></trkpt>
      <trkpt lat="46.81166" lon="11.55689"><ele>821</ele></trkpt>
      <trkpt lat="46.81185" lon="11.55635"><ele>820</ele></trkpt>
      <trkpt lat="46.81188" lon="11.55628"><ele>819</ele></trkpt>
      <trkpt lat="46.81191" lon="11.55618"><ele>818</ele></trkpt>
      <trkpt lat="46.81196" lon="11.55597"><ele>818</ele></trkpt>
      <trkpt lat="46.81202" lon="11.55302"><ele>827</ele></trkpt>
      <trkpt lat="46.81205" lon="11.55158"><ele>833</ele></trkpt>
      <trkpt lat="46.81208" lon="11.55095"><ele>831</ele></trkpt>
      <trkpt lat="46.81214" lon="11.55050"><ele>831</ele></trkpt>
      <trkpt lat="46.81227" lon="11.54998"><ele>830</ele></trkpt>
      <trkpt lat="46.81327" lon="11.54794"><ele>835</ele></trkpt>
      <trkpt lat="46.81349" lon="11.54739"><ele>836</ele></trkpt>
      <trkpt lat="46.81357" lon="11.54715"><ele>836</ele></trkpt>
      <trkpt lat="46.81366" lon="11.54676"><ele>837</ele></trkpt>
      <trkpt lat="46.81372" lon="11.54647"><ele>837</ele></trkpt>
      <trkpt lat="46.81379" lon="11.54595"><ele>836</ele></trkpt>
      <trkpt lat="46.81379" lon="11.54545"><ele>837</ele></trkpt>
      <trkpt lat="46.81369" lon="11.54494"><ele>838</ele></trkpt>
      <trkpt lat="46.81366" lon="11.54479"><ele>839</ele></trkpt>
      <trkpt lat="46.81356" lon="11.54404"><ele>837</ele></trkpt>
      <trkpt lat="46.81351" lon="11.54353"><ele>835</ele></trkpt>
      <trkpt lat="46.81346" lon="11.54332"><ele>833</ele></trkpt>
      <trkpt lat="46.81330" lon="11.54283"><ele>832</ele></trkpt>
      <trkpt lat="46.81317" lon="11.54249"><ele>834</ele></trkpt>
      <trkpt lat="46.81300" lon="11.54196"><ele>835</ele></trkpt>
      <trkpt lat="46.81299" lon="11.54158"><ele>836</ele></trkpt>
      <trkpt lat="46.81307" lon="11.54128"><ele>836</ele></trkpt>
      <trkpt lat="46.81322" lon="11.54099"><ele>836</ele></trkpt>
      <trkpt lat="46.81349" lon="11.54055"><ele>836</ele></trkpt>
      <trkpt lat="46.81358" lon="11.54043"><ele>836</ele></trkpt>
      <trkpt lat="46.81383" lon="11.54022"><ele>838</ele></trkpt>
      <trkpt lat="46.81398" lon="11.54004"><ele>838</ele></trkpt>
      <trkpt lat="46.81412" lon="11.53980"><ele>840</ele></trkpt>
      <trkpt lat="46.81436" lon="11.53930"><ele>842</ele></trkpt>
      <trkpt lat="46.81450" lon="11.53908"><ele>845</ele></trkpt>
      <trkpt lat="46.81466" lon="11.53885"><ele>848</ele></trkpt>
      <trkpt lat="46.81499" lon="11.53849"><ele>847</ele></trkpt>
      <trkpt lat="46.81511" lon="11.53842"><ele>846</ele></trkpt>
      <trkpt lat="46.81544" lon="11.53828"><ele>843</ele></trkpt>
      <trkpt lat="46.81563" lon="11.53822"><ele>843</ele></trkpt>
      <trkpt lat="46.81586" lon="11.53820"><ele>843</ele></trkpt>
      <trkpt lat="46.81604" lon="11.53815"><ele>844</ele></trkpt>
      <trkpt lat="46.81629" lon="11.53801"><ele>844</ele></trkpt>
      <trkpt lat="46.81662" lon="11.53778"><ele>846</ele></trkpt>
      <trkpt lat="46.81677" lon="11.53770"><ele>846</ele></trkpt>
      <trkpt lat="46.81701" lon="11.53760"><ele>844</ele></trkpt>
      <trkpt lat="46.81728" lon="11.53745"><ele>844</ele></trkpt>
      <trkpt lat="46.81737" lon="11.53735"><ele>843</ele></trkpt>
      <trkpt lat="46.81750" lon="11.53709"><ele>842</ele></trkpt>
      <trkpt lat="46.81763" lon="11.53705"><ele>842</ele></trkpt>
      <trkpt lat="46.81772" lon="11.53702"><ele>842</ele></trkpt>
      <trkpt lat="46.81777" lon="11.53698"><ele>842</ele></trkpt>
      <trkpt lat="46.81782" lon="11.53691"><ele>842</ele></trkpt>
      <trkpt lat="46.81788" lon="11.53676"><ele>842</ele></trkpt>
      <trkpt lat="46.81792" lon="11.53670"><ele>841</ele></trkpt>
      <trkpt lat="46.81803" lon="11.53659"><ele>841</ele></trkpt>
      <trkpt lat="46.81818" lon="11.53651"><ele>842</ele></trkpt>
      <trkpt lat="46.81827" lon="11.53648"><ele>843</ele></trkpt>
      <trkpt lat="46.81832" lon="11.53653"><ele>843</ele></trkpt>
      <trkpt lat="46.81863" lon="11.53637"><ele>844</ele></trkpt>
      <trkpt lat="46.81870" lon="11.53632"><ele>844</ele></trkpt>
      <trkpt lat="46.81878" lon="11.53623"><ele>845</ele></trkpt>
      <trkpt lat="46.81904" lon="11.53579"><ele>848</ele></trkpt>
      <trkpt lat="46.81917" lon="11.53559"><ele>849</ele></trkpt>
      <trkpt lat="46.81929" lon="11.53548"><ele>849</ele></trkpt>
      <trkpt lat="46.81972" lon="11.53540"><ele>850</ele></trkpt>
      <trkpt lat="46.81979" lon="11.53534"><ele>849</ele></trkpt>
      <trkpt lat="46.81998" lon="11.53508"><ele>849</ele></trkpt>
      <trkpt lat="46.82005" lon="11.53493"><ele>849</ele></trkpt>
      <trkpt lat="46.82008" lon="11.53489"><ele>849</ele></trkpt>
      <trkpt lat="46.82013" lon="11.53483"><ele>848</ele></trkpt>
      <trkpt lat="46.82025" lon="11.53482"><ele>848</ele></trkpt>
      <trkpt lat="46.82051" lon="11.53492"><ele>846</ele></trkpt>
      <trkpt lat="46.82080" lon="11.53501"><ele>844</ele></trkpt>
      <trkpt lat="46.82203" lon="11.53510"><ele>843</ele></trkpt>
      <trkpt lat="46.82274" lon="11.53504"><ele>845</ele></trkpt>
      <trkpt lat="46.82332" lon="11.53513"><ele>847</ele></trkpt>
      <trkpt lat="46.82361" lon="11.53507"><ele>847</ele></trkpt>
      <trkpt lat="46.82384" lon="11.53505"><ele>848</ele></trkpt>
      <trkpt lat="46.82426" lon="11.53510"><ele>850</ele></trkpt>
      <trkpt lat="46.82480" lon="11.53502"><ele>852</ele></trkpt>
      <trkpt lat="46.82508" lon="11.53499"><ele>856</ele></trkpt>
      <trkpt lat="46.82524" lon="11.53493"><ele>858</ele></trkpt>
      <trkpt lat="46.82545" lon="11.53486"><ele>860</ele></trkpt>
      <trkpt lat="46.82575" lon="11.53469"><ele>866</ele></trkpt>
      <trkpt lat="46.82580" lon="11.53469"><ele>866</ele></trkpt>
      <trkpt lat="46.82583" lon="11.53474"><ele>866</ele></trkpt>
      <trkpt lat="46.82589" lon="11.53499"><ele>864</ele></trkpt>
      <trkpt lat="46.82592" lon="11.53505"><ele>863</ele></trkpt>
      <trkpt lat="46.82596" lon="11.53507"><ele>863</ele></trkpt>
      <trkpt lat="46.82603" lon="11.53508"><ele>862</ele></trkpt>
      <trkpt lat="46.82662" lon="11.53509"><ele>857</ele></trkpt>
      <trkpt lat="46.82685" lon="11.53505"><ele>858</ele></trkpt>
      <trkpt lat="46.82716" lon="11.53498"><ele>857</ele></trkpt>
      <trkpt lat="46.82751" lon="11.53498"><ele>855</ele></trkpt>
      <trkpt lat="46.82785" lon="11.53493"><ele>853</ele></trkpt>
      <trkpt lat="46.82812" lon="11.53482"><ele>857</ele></trkpt>
      <trkpt lat="46.82825" lon="11.53480"><ele>861</ele></trkpt>
      <trkpt lat="46.82841" lon="11.53476"><ele>863</ele></trkpt>
      <trkpt lat="46.82857" lon="11.53471"><ele>863</ele></trkpt>
      <trkpt lat="46.82874" lon="11.53462"><ele>864</ele></trkpt>
      <trkpt lat="46.82935" lon="11.53427"><ele>861</ele></trkpt>
      <trkpt lat="46.82952" lon="11.53418"><ele>858</ele></trkpt>
      <trkpt lat="46.82979" lon="11.53405"><ele>857</ele></trkpt>
      <trkpt lat="46.83029" lon="11.53377"><ele>854</ele></trkpt>
      <trkpt lat="46.83054" lon="11.53361"><ele>854</ele></trkpt>
      <trkpt lat="46.83068" lon="11.53349"><ele>854</ele></trkpt>
      <trkpt lat="46.83096" lon="11.53319"><ele>854</ele></trkpt>
      <trkpt lat="46.83105" lon="11.53305"><ele>854</ele></trkpt>
      <trkpt lat="46.83123" lon="11.53275"><ele>854</ele></trkpt>
      <trkpt lat="46.83138" lon="11.53250"><ele>854</ele></trkpt>
      <trkpt lat="46.83163" lon="11.53214"><ele>856</ele></trkpt>
      <trkpt lat="46.83170" lon="11.53206"><ele>856</ele></trkpt>
      <trkpt lat="46.83185" lon="11.53194"><ele>856</ele></trkpt>
      <trkpt lat="46.83199" lon="11.53180"><ele>857</ele></trkpt>
      <trkpt lat="46.83228" lon="11.53146"><ele>857</ele></trkpt>
      <trkpt lat="46.83253" lon="11.53118"><ele>860</ele></trkpt>
      <trkpt lat="46.83262" lon="11.53108"><ele>860</ele></trkpt>
      <trkpt lat="46.83270" lon="11.53095"><ele>861</ele></trkpt>
      <trkpt lat="46.83276" lon="11.53083"><ele>861</ele></trkpt>
      <trkpt lat="46.83290" lon="11.53037"><ele>861</ele></trkpt>
      <trkpt lat="46.83296" lon="11.53024"><ele>861</ele></trkpt>
      <trkpt lat="46.83302" lon="11.53014"><ele>861</ele></trkpt>
      <trkpt lat="46.83307" lon="11.53009"><ele>860</ele></trkpt>
      <trkpt lat="46.83315" lon="11.53005"><ele>860</ele></trkpt>
      <trkpt lat="46.83320" lon="11.53000"><ele>860</ele></trkpt>
      <trkpt lat="46.83341" lon="11.52974"><ele>860</ele></trkpt>
      <trkpt lat="46.83346" lon="11.52966"><ele>860</ele></trkpt>
      <trkpt lat="46.83352" lon="11.52949"><ele>861</ele></trkpt>
      <trkpt lat="46.83361" lon="11.52933"><ele>862</ele></trkpt>
      <trkpt lat="46.83382" lon="11.52907"><ele>864</ele></trkpt>
      <trkpt lat="46.83403" lon="11.52876"><ele>870</ele></trkpt>
      <trkpt lat="46.83409" lon="11.52870"><ele>870</ele></trkpt>
      <trkpt lat="46.83419" lon="11.52868"><ele>867</ele></trkpt>
      <trkpt lat="46.83442" lon="11.52875"><ele>867</ele></trkpt>
      <trkpt lat="46.83458" lon="11.52881"><ele>866</ele></trkpt>
      <trkpt lat="46.83467" lon="11.52883"><ele>866</ele></trkpt>
      <trkpt lat="46.83476" lon="11.52882"><ele>866</ele></trkpt>
      <trkpt lat="46.83486" lon="11.52877"><ele>866</ele></trkpt>
      <trkpt lat="46.83496" lon="11.52867"><ele>866</ele></trkpt>
      <trkpt lat="46.83509" lon="11.52848"><ele>866</ele></trkpt>
      <trkpt lat="46.83522" lon="11.52825"><ele>865</ele></trkpt>
      <trkpt lat="46.83539" lon="11.52802"><ele>866</ele></trkpt>
      <trkpt lat="46.83552" lon="11.52792"><ele>867</ele></trkpt>
      <trkpt lat="46.83567" lon="11.52789"><ele>867</ele></trkpt>
      <trkpt lat="46.83622" lon="11.52792"><ele>869</ele></trkpt>
      <trkpt lat="46.83638" lon="11.52797"><ele>868</ele></trkpt>
      <trkpt lat="46.83647" lon="11.52797"><ele>868</ele></trkpt>
      <trkpt lat="46.83655" lon="11.52792"><ele>868</ele></trkpt>
      <trkpt lat="46.83662" lon="11.52785"><ele>868</ele></trkpt>
      <trkpt lat="46.83667" lon="11.52776"><ele>868</ele></trkpt>
      <trkpt lat="46.83673" lon="11.52762"><ele>868</ele></trkpt>
      <trkpt lat="46.83679" lon="11.52747"><ele>868</ele></trkpt>
      <trkpt lat="46.83687" lon="11.52719"><ele>868</ele></trkpt>
      <trkpt lat="46.83694" lon="11.52703"><ele>868</ele></trkpt>
      <trkpt lat="46.83700" lon="11.52693"><ele>868</ele></trkpt>
      <trkpt lat="46.83709" lon="11.52685"><ele>867</ele></trkpt>
      <trkpt lat="46.83722" lon="11.52677"><ele>866</ele></trkpt>
      <trkpt lat="46.83752" lon="11.52662"><ele>867</ele></trkpt>
      <trkpt lat="46.83822" lon="11.52623"><ele>868</ele></trkpt>
      <trkpt lat="46.83845" lon="11.52609"><ele>868</ele></trkpt>
      <trkpt lat="46.83862" lon="11.52597"><ele>869</ele></trkpt>
      <trkpt lat="46.83881" lon="11.52581"><ele>869</ele></trkpt>
      <trkpt lat="46.83904" lon="11.52560"><ele>869</ele></trkpt>
      <trkpt lat="46.83928" lon="11.52543"><ele>870</ele></trkpt>
      <trkpt lat="46.83944" lon="11.52536"><ele>871</ele></trkpt>
      <trkpt lat="46.83989" lon="11.52531"><ele>872</ele></trkpt>
      <trkpt lat="46.83997" lon="11.52528"><ele>872</ele></trkpt>
      <trkpt lat="46.84007" lon="11.52522"><ele>872</ele></trkpt>
      <trkpt lat="46.84036" lon="11.52497"><ele>871</ele></trkpt>
      <trkpt lat="46.84053" lon="11.52484"><ele>870</ele></trkpt>
      <trkpt lat="46.84066" lon="11.52477"><ele>870</ele></trkpt>
      <trkpt lat="46.84078" lon="11.52473"><ele>871</ele></trkpt>
      <trkpt lat="46.84090" lon="11.52465"><ele>872</ele></trkpt>
      <trkpt lat="46.84099" lon="11.52457"><ele>872</ele></trkpt>
      <trkpt lat="46.84125" lon="11.52425"><ele>872</ele></trkpt>
      <trkpt lat="46.84142" lon="11.52406"><ele>872</ele></trkpt>
      <trkpt lat="46.84159" lon="11.52391"><ele>873</ele></trkpt>
      <trkpt lat="46.84173" lon="11.52382"><ele>874</ele></trkpt>
      <trkpt lat="46.84186" lon="11.52376"><ele>874</ele></trkpt>
      <trkpt lat="46.84200" lon="11.52372"><ele>873</ele></trkpt>
      <trkpt lat="46.84209" lon="11.52371"><ele>873</ele></trkpt>
      <trkpt lat="46.84263" lon="11.52389"><ele>872</ele></trkpt>
      <trkpt lat="46.84286" lon="11.52397"><ele>871</ele></trkpt>
      <trkpt lat="46.84292" lon="11.52400"><ele>871</ele></trkpt>
      <trkpt lat="46.84296" lon="11.52407"><ele>872</ele></trkpt>
      <trkpt lat="46.84299" lon="11.52420"><ele>873</ele></trkpt>
      <trkpt lat="46.84300" lon="11.52426"><ele>874</ele></trkpt>
      <trkpt lat="46.84313" lon="11.52461"><ele>872</ele></trkpt>
      <trkpt lat="46.84315" lon="11.52467"><ele>870</ele></trkpt>
      <trkpt lat="46.84326" lon="11.52496"><ele>869</ele></trkpt>
      <trkpt lat="46.84342" lon="11.52530"><ele>871</ele></trkpt>
      <trkpt lat="46.84382" lon="11.52596"><ele>873</ele></trkpt>
      <trkpt lat="46.84384" lon="11.52601"><ele>873</ele></trkpt>
      <trkpt lat="46.84685" lon="11.52353"><ele>880</ele></trkpt>
      <trkpt lat="46.84747" lon="11.52302"><ele>885</ele></trkpt>
      <trkpt lat="46.84816" lon="11.52246"><ele>888</ele></trkpt>
      <trkpt lat="46.84993" lon="11.52119"><ele>897</ele></trkpt>
      <trkpt lat="46.85046" lon="11.52079"><ele>900</ele></trkpt>
      <trkpt lat="46.85069" lon="11.52065"><ele>901</ele></trkpt>
      <trkpt lat="46.85094" lon="11.52050"><ele>902</ele></trkpt>
      <trkpt lat="46.85111" lon="11.52038"><ele>903</ele></trkpt>
      <trkpt lat="46.85116" lon="11.52032"><ele>903</ele></trkpt>
      <trkpt lat="46.85122" lon="11.52039"><ele>904</ele></trkpt>
      <trkpt lat="46.85139" lon="11.52059"><ele>905</ele></trkpt>
      <trkpt lat="46.85163" lon="11.52076"><ele>908</ele></trkpt>
      <trkpt lat="46.85189" lon="11.52092"><ele>910</ele></trkpt>
      <trkpt lat="46.85200" lon="11.52101"><ele>911</ele></trkpt>
      <trkpt lat="46.85208" lon="11.52108"><ele>912</ele></trkpt>
      <trkpt lat="46.85215" lon="11.52116"><ele>912</ele></trkpt>
      <trkpt lat="46.85249" lon="11.52157"><ele>916</ele></trkpt>
      <trkpt lat="46.85258" lon="11.52166"><ele>916</ele></trkpt>
      <trkpt lat="46.85269" lon="11.52173"><ele>918</ele></trkpt>
      <trkpt lat="46.85278" lon="11.52175"><ele>918</ele></trkpt>
      <trkpt lat="46.85287" lon="11.52176"><ele>919</ele></trkpt>
      <trkpt lat="46.85302" lon="11.52176"><ele>920</ele></trkpt>
      <trkpt lat="46.85316" lon="11.52176"><ele>921</ele></trkpt>
      <trkpt lat="46.85323" lon="11.52178"><ele>921</ele></trkpt>
      <trkpt lat="46.85336" lon="11.52184"><ele>922</ele></trkpt>
      <trkpt lat="46.85391" lon="11.52238"><ele>928</ele></trkpt>
      <trkpt lat="46.85404" lon="11.52249"><ele>928</ele></trkpt>
      <trkpt lat="46.85443" lon="11.52281"><ele>932</ele></trkpt>
      <trkpt lat="46.85442" lon="11.52292"><ele>932</ele></trkpt>
      <trkpt lat="46.85443" lon="11.52299"><ele>932</ele></trkpt>
      <trkpt lat="46.85445" lon="11.52307"><ele>933</ele></trkpt>
      <trkpt lat="46.85452" lon="11.52325"><ele>934</ele></trkpt>
      <trkpt lat="46.85461" lon="11.52341"><ele>936</ele></trkpt>
      <trkpt lat="46.85476" lon="11.52358"><ele>938</ele></trkpt>
      <trkpt lat="46.85485" lon="11.52374"><ele>940</ele></trkpt>
      <trkpt lat="46.85489" lon="11.52382"><ele>941</ele></trkpt>
      <trkpt lat="46.85485" lon="11.52374"><ele>940</ele></trkpt>
      <trkpt lat="46.85476" lon="11.52358"><ele>938</ele></trkpt>
      <trkpt lat="46.85461" lon="11.52341"><ele>936</ele></trkpt>
      <trkpt lat="46.85452" lon="11.52325"><ele>934</ele></trkpt>
      <trkpt lat="46.85445" lon="11.52307"><ele>933</ele></trkpt>
      <trkpt lat="46.85443" lon="11.52299"><ele>932</ele></trkpt>
      <trkpt lat="46.85442" lon="11.52292"><ele>932</ele></trkpt>
      <trkpt lat="46.85443" lon="11.52281"><ele>932</ele></trkpt>
      <trkpt lat="46.85444" lon="11.52274"><ele>931</ele></trkpt>
      <trkpt lat="46.85446" lon="11.52270"><ele>931</ele></trkpt>
      <trkpt lat="46.85453" lon="11.52255"><ele>930</ele></trkpt>
      <trkpt lat="46.85454" lon="11.52251"><ele>930</ele></trkpt>
      <trkpt lat="46.85455" lon="11.52247"><ele>930</ele></trkpt>
      <trkpt lat="46.85455" lon="11.52242"><ele>930</ele></trkpt>
      <trkpt lat="46.85453" lon="11.52193"><ele>930</ele></trkpt>
      <trkpt lat="46.85452" lon="11.52130"><ele>927</ele></trkpt>
      <trkpt lat="46.85450" lon="11.52110"><ele>925</ele></trkpt>
      <trkpt lat="46.85441" lon="11.52079"><ele>923</ele></trkpt>
      <trkpt lat="46.85436" lon="11.52059"><ele>921</ele></trkpt>
      <trkpt lat="46.85429" lon="11.52011"><ele>918</ele></trkpt>
      <trkpt lat="46.85421" lon="11.51951"><ele>914</ele></trkpt>
      <trkpt lat="46.85419" lon="11.51925"><ele>913</ele></trkpt>
      <trkpt lat="46.85410" lon="11.51816"><ele>908</ele></trkpt>
      <trkpt lat="46.85412" lon="11.51787"><ele>906</ele></trkpt>
      <trkpt lat="46.85411" lon="11.51777"><ele>906</ele></trkpt>
      <trkpt lat="46.85408" lon="11.51755"><ele>904</ele></trkpt>
      <trkpt lat="46.85408" lon="11.51746"><ele>904</ele></trkpt>
      <trkpt lat="46.85409" lon="11.51737"><ele>903</ele></trkpt>
      <trkpt lat="46.85410" lon="11.51730"><ele>903</ele></trkpt>
      <trkpt lat="46.85409" lon="11.51720"><ele>902</ele></trkpt>
      <trkpt lat="46.85401" lon="11.51697"><ele>902</ele></trkpt>
      <trkpt lat="46.85396" lon="11.51681"><ele>901</ele></trkpt>
      <trkpt lat="46.85409" lon="11.51670"><ele>901</ele></trkpt>
      <trkpt lat="46.85422" lon="11.51654"><ele>901</ele></trkpt>
      <trkpt lat="46.85433" lon="11.51637"><ele>901</ele></trkpt>
      <trkpt lat="46.85459" lon="11.51590"><ele>901</ele></trkpt>
      <trkpt lat="46.85585" lon="11.51357"><ele>900</ele></trkpt>
      <trkpt lat="46.85582" lon="11.51353"><ele>899</ele></trkpt>
      <trkpt lat="46.85580" lon="11.51349"><ele>898</ele></trkpt>
      <trkpt lat="46.85577" lon="11.51342"><ele>897</ele></trkpt>
      <trkpt lat="46.85558" lon="11.51307"><ele>894</ele></trkpt>
      <trkpt lat="46.85534" lon="11.51261"><ele>899</ele></trkpt>
      <trkpt lat="46.85532" lon="11.51258"><ele>900</ele></trkpt>
      <trkpt lat="46.85534" lon="11.51255"><ele>900</ele></trkpt>
      <trkpt lat="46.85537" lon="11.51253"><ele>900</ele></trkpt>
      <trkpt lat="46.85546" lon="11.51248"><ele>900</ele></trkpt>
      <trkpt lat="46.85568" lon="11.51245"><ele>898</ele></trkpt>
      <trkpt lat="46.85581" lon="11.51240"><ele>898</ele></trkpt>
      <trkpt lat="46.85586" lon="11.51237"><ele>898</ele></trkpt>
      <trkpt lat="46.85593" lon="11.51228"><ele>898</ele></trkpt>
      <trkpt lat="46.85605" lon="11.51207"><ele>900</ele></trkpt>
      <trkpt lat="46.85610" lon="11.51193"><ele>901</ele></trkpt>
      <trkpt lat="46.85615" lon="11.51178"><ele>901</ele></trkpt>
      <trkpt lat="46.85620" lon="11.51143"><ele>902</ele></trkpt>
      <trkpt lat="46.85622" lon="11.51129"><ele>902</ele></trkpt>
      <trkpt lat="46.85624" lon="11.51104"><ele>902</ele></trkpt>
      <trkpt lat="46.85622" lon="11.51086"><ele>903</ele></trkpt>
      <trkpt lat="46.85617" lon="11.51065"><ele>905</ele></trkpt>
      <trkpt lat="46.85617" lon="11.51061"><ele>905</ele></trkpt>
      <trkpt lat="46.85618" lon="11.51059"><ele>905</ele></trkpt>
      <trkpt lat="46.85623" lon="11.51045"><ele>905</ele></trkpt>
      <trkpt lat="46.85624" lon="11.51042"><ele>906</ele></trkpt>
      <trkpt lat="46.85624" lon="11.51038"><ele>906</ele></trkpt>
      <trkpt lat="46.85622" lon="11.51031"><ele>906</ele></trkpt>
      <trkpt lat="46.85619" lon="11.51025"><ele>906</ele></trkpt>
      <trkpt lat="46.85611" lon="11.51019"><ele>907</ele></trkpt>
      <trkpt lat="46.85608" lon="11.51015"><ele>909</ele></trkpt>
      <trkpt lat="46.85606" lon="11.51012"><ele>910</ele></trkpt>
      <trkpt lat="46.85594" lon="11.50978"><ele>912</ele></trkpt>
      <trkpt lat="46.85592" lon="11.50968"><ele>911</ele></trkpt>
      <trkpt lat="46.85590" lon="11.50963"><ele>911</ele></trkpt>
      <trkpt lat="46.85569" lon="11.50910"><ele>917</ele></trkpt>
      <trkpt lat="46.85557" lon="11.50876"><ele>918</ele></trkpt>
      <trkpt lat="46.85548" lon="11.50857"><ele>920</ele></trkpt>
      <trkpt lat="46.85520" lon="11.50807"><ele>922</ele></trkpt>
      <trkpt lat="46.85511" lon="11.50785"><ele>926</ele></trkpt>
      <trkpt lat="46.85506" lon="11.50769"><ele>927</ele></trkpt>
      <trkpt lat="46.85503" lon="11.50757"><ele>928</ele></trkpt>
      <trkpt lat="46.85499" lon="11.50737"><ele>929</ele></trkpt>
      <trkpt lat="46.85494" lon="11.50701"><ele>932</ele></trkpt>
      <trkpt lat="46.85491" lon="11.50678"><ele>934</ele></trkpt>
      <trkpt lat="46.85489" lon="11.50652"><ele>936</ele></trkpt>
      <trkpt lat="46.85485" lon="11.50554"><ele>943</ele></trkpt>
      <trkpt lat="46.85484" lon="11.50536"><ele>944</ele></trkpt>
      <trkpt lat="46.85480" lon="11.50496"><ele>947</ele></trkpt>
      <trkpt lat="46.85470" lon="11.50419"><ele>950</ele></trkpt>
      <trkpt lat="46.85466" lon="11.50383"><ele>953</ele></trkpt>
      <trkpt lat="46.85458" lon="11.50346"><ele>955</ele></trkpt>
      <trkpt lat="46.85452" lon="11.50323"><ele>957</ele></trkpt>
      <trkpt lat="46.85447" lon="11.50309"><ele>958</ele></trkpt>
      <trkpt lat="46.85441" lon="11.50296"><ele>958</ele></trkpt>
      <trkpt lat="46.85437" lon="11.50283"><ele>959</ele></trkpt>
      <trkpt lat="46.85428" lon="11.50264"><ele>960</ele></trkpt>
      <trkpt lat="46.85423" lon="11.50251"><ele>962</ele></trkpt>
      <trkpt lat="46.85421" lon="11.50235"><ele>964</ele></trkpt>
      <trkpt lat="46.85421" lon="11.50229"><ele>964</ele></trkpt>
      <trkpt lat="46.85422" lon="11.50224"><ele>966</ele></trkpt>
      <trkpt lat="46.85431" lon="11.50228"><ele>968</ele></trkpt>
      <trkpt lat="46.85435" lon="11.50231"><ele>969</ele></trkpt>
      <trkpt lat="46.85439" lon="11.50235"><ele>970</ele></trkpt>
      <trkpt lat="46.85448" lon="11.50249"><ele>969</ele></trkpt>
      <trkpt lat="46.85469" lon="11.50282"><ele>973</ele></trkpt>
      <trkpt lat="46.85479" lon="11.50293"><ele>972</ele></trkpt>
      <trkpt lat="46.85488" lon="11.50297"><ele>973</ele></trkpt>
      <trkpt lat="46.85495" lon="11.50297"><ele>974</ele></trkpt>
      <trkpt lat="46.85497" lon="11.50296"><ele>975</ele></trkpt>
      <trkpt lat="46.85501" lon="11.50291"><ele>975</ele></trkpt>
      <trkpt lat="46.85514" lon="11.50262"><ele>975</ele></trkpt>
      <trkpt lat="46.85523" lon="11.50246"><ele>976</ele></trkpt>
      <trkpt lat="46.85530" lon="11.50238"><ele>976</ele></trkpt>
      <trkpt lat="46.85533" lon="11.50238"><ele>976</ele></trkpt>
      <trkpt lat="46.85543" lon="11.50243"><ele>975</ele></trkpt>
      <trkpt lat="46.85576" lon="11.50276"><ele>972</ele></trkpt>
      <trkpt lat="46.85594" lon="11.50289"><ele>971</ele></trkpt>
      <trkpt lat="46.85601" lon="11.50292"><ele>970</ele></trkpt>
      <trkpt lat="46.85623" lon="11.50299"><ele>969</ele></trkpt>
      <trkpt lat="46.85641" lon="11.50307"><ele>969</ele></trkpt>
      <trkpt lat="46.85650" lon="11.50311"><ele>968</ele></trkpt>
      <trkpt lat="46.85674" lon="11.50327"><ele>968</ele></trkpt>
      <trkpt lat="46.85679" lon="11.50330"><ele>967</ele></trkpt>
      <trkpt lat="46.85689" lon="11.50333"><ele>967</ele></trkpt>
      <trkpt lat="46.85703" lon="11.50334"><ele>966</ele></trkpt>
      <trkpt lat="46.85710" lon="11.50333"><ele>966</ele></trkpt>
      <trkpt lat="46.85717" lon="11.50331"><ele>967</ele></trkpt>
      <trkpt lat="46.85723" lon="11.50327"><ele>968</ele></trkpt>
      <trkpt lat="46.85727" lon="11.50322"><ele>969</ele></trkpt>
      <trkpt lat="46.85753" lon="11.50285"><ele>968</ele></trkpt>
      <trkpt lat="46.85765" lon="11.50269"><ele>969</ele></trkpt>
      <trkpt lat="46.85777" lon="11.50239"><ele>964</ele></trkpt>
      <trkpt lat="46.85801" lon="11.50180"><ele>961</ele></trkpt>
      <trkpt lat="46.85808" lon="11.50167"><ele>959</ele></trkpt>
      <trkpt lat="46.85815" lon="11.50156"><ele>960</ele></trkpt>
      <trkpt lat="46.85842" lon="11.50131"><ele>955</ele></trkpt>
      <trkpt lat="46.85855" lon="11.50116"><ele>954</ele></trkpt>
      <trkpt lat="46.85868" lon="11.50102"><ele>954</ele></trkpt>
      <trkpt lat="46.85876" lon="11.50090"><ele>952</ele></trkpt>
      <trkpt lat="46.85883" lon="11.50076"><ele>951</ele></trkpt>
      <trkpt lat="46.85910" lon="11.49994"><ele>946</ele></trkpt>
      <trkpt lat="46.85955" lon="11.49869"><ele>937</ele></trkpt>
      <trkpt lat="46.85967" lon="11.49851"><ele>936</ele></trkpt>
      <trkpt lat="46.85985" lon="11.49827"><ele>935</ele></trkpt>
      <trkpt lat="46.86007" lon="11.49783"><ele>935</ele></trkpt>
      <trkpt lat="46.86009" lon="11.49773"><ele>935</ele></trkpt>
      <trkpt lat="46.86018" lon="11.49746"><ele>936</ele></trkpt>
      <trkpt lat="46.86057" lon="11.49659"><ele>936</ele></trkpt>
      <trkpt lat="46.86078" lon="11.49627"><ele>935</ele></trkpt>
      <trkpt lat="46.86087" lon="11.49616"><ele>935</ele></trkpt>
      <trkpt lat="46.86111" lon="11.49590"><ele>933</ele></trkpt>
      <trkpt lat="46.86118" lon="11.49579"><ele>933</ele></trkpt>
      <trkpt lat="46.86130" lon="11.49557"><ele>933</ele></trkpt>
      <trkpt lat="46.86154" lon="11.49489"><ele>933</ele></trkpt>
      <trkpt lat="46.86168" lon="11.49460"><ele>934</ele></trkpt>
      <trkpt lat="46.86189" lon="11.49428"><ele>934</ele></trkpt>
      <trkpt lat="46.86204" lon="11.49403"><ele>934</ele></trkpt>
      <trkpt lat="46.86213" lon="11.49376"><ele>934</ele></trkpt>
      <trkpt lat="46.86220" lon="11.49347"><ele>935</ele></trkpt>
      <trkpt lat="46.86226" lon="11.49280"><ele>936</ele></trkpt>
      <trkpt lat="46.86232" lon="11.49258"><ele>936</ele></trkpt>
      <trkpt lat="46.86275" lon="11.49173"><ele>940</ele></trkpt>
      <trkpt lat="46.86283" lon="11.49142"><ele>940</ele></trkpt>
      <trkpt lat="46.86297" lon="11.48939"><ele>946</ele></trkpt>
      <trkpt lat="46.86292" lon="11.48893"><ele>947</ele></trkpt>
      <trkpt lat="46.86291" lon="11.48861"><ele>947</ele></trkpt>
      <trkpt lat="46.86293" lon="11.48834"><ele>946</ele></trkpt>
      <trkpt lat="46.86302" lon="11.48755"><ele>947</ele></trkpt>
      <trkpt lat="46.86304" lon="11.48681"><ele>950</ele></trkpt>
      <trkpt lat="46.86302" lon="11.48635"><ele>953</ele></trkpt>
      <trkpt lat="46.86295" lon="11.48598"><ele>954</ele></trkpt>
      <trkpt lat="46.86271" lon="11.48516"><ele>958</ele></trkpt>
      <trkpt lat="46.86263" lon="11.48461"><ele>958</ele></trkpt>
      <trkpt lat="46.86260" lon="11.48401"><ele>961</ele></trkpt>
      <trkpt lat="46.86261" lon="11.48292"><ele>968</ele></trkpt>
      <trkpt lat="46.86267" lon="11.48256"><ele>968</ele></trkpt>
      <trkpt lat="46.86278" lon="11.48208"><ele>970</ele></trkpt>
      <trkpt lat="46.86322" lon="11.48078"><ele>972</ele></trkpt>
      <trkpt lat="46.86338" lon="11.48033"><ele>972</ele></trkpt>
      <trkpt lat="46.86342" lon="11.48025"><ele>972</ele></trkpt>
      <trkpt lat="46.86346" lon="11.48020"><ele>972</ele></trkpt>
      <trkpt lat="46.86351" lon="11.48015"><ele>972</ele></trkpt>
      <trkpt lat="46.86359" lon="11.48008"><ele>972</ele></trkpt>
      <trkpt lat="46.86382" lon="11.47995"><ele>972</ele></trkpt>
      <trkpt lat="46.86395" lon="11.47993"><ele>971</ele></trkpt>
      <trkpt lat="46.86403" lon="11.47991"><ele>970</ele></trkpt>
      <trkpt lat="46.86418" lon="11.47990"><ele>969</ele></trkpt>
      <trkpt lat="46.86425" lon="11.47988"><ele>969</ele></trkpt>
      <trkpt lat="46.86435" lon="11.47981"><ele>968</ele></trkpt>
      <trkpt lat="46.86455" lon="11.47964"><ele>968</ele></trkpt>
      <trkpt lat="46.86465" lon="11.47959"><ele>968</ele></trkpt>
      <trkpt lat="46.86471" lon="11.47957"><ele>968</ele></trkpt>
      <trkpt lat="46.86497" lon="11.47957"><ele>969</ele></trkpt>
      <trkpt lat="46.86538" lon="11.47955"><ele>970</ele></trkpt>
      <trkpt lat="46.86546" lon="11.47955"><ele>969</ele></trkpt>
      <trkpt lat="46.86552" lon="11.47958"><ele>969</ele></trkpt>
      <trkpt lat="46.86562" lon="11.47963"><ele>968</ele></trkpt>
      <trkpt lat="46.86569" lon="11.47965"><ele>968</ele></trkpt>
      <trkpt lat="46.86573" lon="11.47961"><ele>968</ele></trkpt>
      <trkpt lat="46.86576" lon="11.47955"><ele>968</ele></trkpt>
      <trkpt lat="46.86585" lon="11.47934"><ele>966</ele></trkpt>
      <trkpt lat="46.86597" lon="11.47899"><ele>966</ele></trkpt>
      <trkpt lat="46.86602" lon="11.47893"><ele>966</ele></trkpt>
      <trkpt lat="46.86629" lon="11.47879"><ele>964</ele></trkpt>
      <trkpt lat="46.86648" lon="11.47877"><ele>963</ele></trkpt>
      <trkpt lat="46.86651" lon="11.47876"><ele>962</ele></trkpt>
      <trkpt lat="46.86655" lon="11.47874"><ele>962</ele></trkpt>
      <trkpt lat="46.86660" lon="11.47869"><ele>961</ele></trkpt>
      <trkpt lat="46.86668" lon="11.47855"><ele>960</ele></trkpt>
      <trkpt lat="46.86670" lon="11.47853"><ele>960</ele></trkpt>
      <trkpt lat="46.86672" lon="11.47851"><ele>959</ele></trkpt>
      <trkpt lat="46.86677" lon="11.47851"><ele>959</ele></trkpt>
      <trkpt lat="46.86680" lon="11.47852"><ele>959</ele></trkpt>
      <trkpt lat="46.86702" lon="11.47874"><ele>960</ele></trkpt>
      <trkpt lat="46.86705" lon="11.47877"><ele>960</ele></trkpt>
      <trkpt lat="46.86708" lon="11.47879"><ele>960</ele></trkpt>
      <trkpt lat="46.86716" lon="11.47879"><ele>958</ele></trkpt>
      <trkpt lat="46.86767" lon="11.47875"><ele>954</ele></trkpt>
      <trkpt lat="46.86802" lon="11.47871"><ele>952</ele></trkpt>
      <trkpt lat="46.86816" lon="11.47870"><ele>950</ele></trkpt>
      <trkpt lat="46.86828" lon="11.47872"><ele>949</ele></trkpt>
      <trkpt lat="46.86843" lon="11.47878"><ele>948</ele></trkpt>
      <trkpt lat="46.86872" lon="11.47892"><ele>944</ele></trkpt>
      <trkpt lat="46.86879" lon="11.47898"><ele>943</ele></trkpt>
      <trkpt lat="46.86886" lon="11.47904"><ele>942</ele></trkpt>
      <trkpt lat="46.86918" lon="11.47948"><ele>942</ele></trkpt>
      <trkpt lat="46.86926" lon="11.47956"><ele>942</ele></trkpt>
      <trkpt lat="46.86938" lon="11.47966"><ele>940</ele></trkpt>
      <trkpt lat="46.86947" lon="11.47972"><ele>938</ele></trkpt>
      <trkpt lat="46.87033" lon="11.48026"><ele>934</ele></trkpt>
      <trkpt lat="46.87054" lon="11.48041"><ele>934</ele></trkpt>
      <trkpt lat="46.87029" lon="11.48120"><ele>932</ele></trkpt>
      <trkpt lat="46.87011" lon="11.48172"><ele>932</ele></trkpt>
      <trkpt lat="46.87006" lon="11.48164"><ele>932</ele></trkpt>
      <trkpt lat="46.86999" lon="11.48157"><ele>932</ele></trkpt>
      <trkpt lat="46.86995" lon="11.48155"><ele>932</ele></trkpt>
      <trkpt lat="46.86972" lon="11.48144"><ele>930</ele></trkpt>
      <trkpt lat="46.86962" lon="11.48139"><ele>931</ele></trkpt>
      <trkpt lat="46.86958" lon="11.48134"><ele>932</ele></trkpt>
      <trkpt lat="46.86956" lon="11.48130"><ele>932</ele></trkpt>
      <trkpt lat="46.86954" lon="11.48120"><ele>932</ele></trkpt>
      <trkpt lat="46.86953" lon="11.48115"><ele>932</ele></trkpt>
      <trkpt lat="46.86954" lon="11.48109"><ele>932</ele></trkpt>
      <trkpt lat="46.86957" lon="11.48098"><ele>932</ele></trkpt>
      <trkpt lat="46.86967" lon="11.48073"><ele>932</ele></trkpt>
      <trkpt lat="46.86990" lon="11.48004"><ele>932</ele></trkpt>
      <trkpt lat="46.86993" lon="11.47994"><ele>932</ele></trkpt>
      <trkpt lat="46.87029" lon="11.47852"><ele>931</ele></trkpt>
      <trkpt lat="46.87030" lon="11.47848"><ele>931</ele></trkpt>
      <trkpt lat="46.87041" lon="11.47809"><ele>931</ele></trkpt>
      <trkpt lat="46.87060" lon="11.47749"><ele>932</ele></trkpt>
      <trkpt lat="46.87242" lon="11.47228"><ele>932</ele></trkpt>
      <trkpt lat="46.87275" lon="11.47137"><ele>932</ele></trkpt>
      <trkpt lat="46.87277" lon="11.47129"><ele>932</ele></trkpt>
      <trkpt lat="46.87384" lon="11.46832"><ele>932</ele></trkpt>
      <trkpt lat="46.87522" lon="11.46433"><ele>933</ele></trkpt>
      <trkpt lat="46.88094" lon="11.44817"><ele>936</ele></trkpt>
      <trkpt lat="46.88102" lon="11.44788"><ele>937</ele></trkpt>
      <trkpt lat="46.88103" lon="11.44786"><ele>937</ele></trkpt>
      <trkpt lat="46.88105" lon="11.44786"><ele>937</ele></trkpt>
      <trkpt lat="46.88109" lon="11.44788"><ele>937</ele></trkpt>
      <trkpt lat="46.88122" lon="11.44798"><ele>937</ele></trkpt>
      <trkpt lat="46.88128" lon="11.44802"><ele>938</ele></trkpt>
      <trkpt lat="46.88130" lon="11.44791"><ele>938</ele></trkpt>
      <trkpt lat="46.88133" lon="11.44777"><ele>938</ele></trkpt>
      <trkpt lat="46.88277" lon="11.44369"><ele>938</ele></trkpt>
      <trkpt lat="46.88296" lon="11.44305"><ele>938</ele></trkpt>
      <trkpt lat="46.88312" lon="11.44239"><ele>938</ele></trkpt>
      <trkpt lat="46.88336" lon="11.44150"><ele>938</ele></trkpt>
      <trkpt lat="46.88347" lon="11.44088"><ele>940</ele></trkpt>
      <trkpt lat="46.88354" lon="11.44071"><ele>939</ele></trkpt>
      <trkpt lat="46.88371" lon="11.44037"><ele>940</ele></trkpt>
      <trkpt lat="46.88388" lon="11.43998"><ele>939</ele></trkpt>
      <trkpt lat="46.88403" lon="11.43955"><ele>940</ele></trkpt>
      <trkpt lat="46.88416" lon="11.43913"><ele>939</ele></trkpt>
      <trkpt lat="46.88422" lon="11.43896"><ele>940</ele></trkpt>
      <trkpt lat="46.88431" lon="11.43879"><ele>940</ele></trkpt>
      <trkpt lat="46.88473" lon="11.43832"><ele>939</ele></trkpt>
      <trkpt lat="46.88489" lon="11.43812"><ele>940</ele></trkpt>
      <trkpt lat="46.88506" lon="11.43788"><ele>940</ele></trkpt>
      <trkpt lat="46.88520" lon="11.43760"><ele>940</ele></trkpt>
      <trkpt lat="46.88529" lon="11.43742"><ele>940</ele></trkpt>
      <trkpt lat="46.88544" lon="11.43700"><ele>940</ele></trkpt>
      <trkpt lat="46.88553" lon="11.43683"><ele>940</ele></trkpt>
      <trkpt lat="46.88590" lon="11.43664"><ele>941</ele></trkpt>
      <trkpt lat="46.88698" lon="11.43591"><ele>940</ele></trkpt>
      <trkpt lat="46.88771" lon="11.43558"><ele>941</ele></trkpt>
      <trkpt lat="46.88943" lon="11.43478"><ele>940</ele></trkpt>
      <trkpt lat="46.88952" lon="11.43465"><ele>941</ele></trkpt>
      <trkpt lat="46.88968" lon="11.43455"><ele>941</ele></trkpt>
      <trkpt lat="46.88978" lon="11.43450"><ele>941</ele></trkpt>
      <trkpt lat="46.88993" lon="11.43439"><ele>941</ele></trkpt>
      <trkpt lat="46.89001" lon="11.43437"><ele>941</ele></trkpt>
      <trkpt lat="46.89013" lon="11.43437"><ele>941</ele></trkpt>
      <trkpt lat="46.89024" lon="11.43438"><ele>942</ele></trkpt>
      <trkpt lat="46.89051" lon="11.43427"><ele>942</ele></trkpt>
      <trkpt lat="46.89092" lon="11.43412"><ele>942</ele></trkpt>
      <trkpt lat="46.89098" lon="11.43408"><ele>942</ele></trkpt>
      <trkpt lat="46.89132" lon="11.43361"><ele>943</ele></trkpt>
      <trkpt lat="46.89133" lon="11.43359"><ele>943</ele></trkpt>
      <trkpt lat="46.89136" lon="11.43356"><ele>943</ele></trkpt>
      <trkpt lat="46.89138" lon="11.43360"><ele>943</ele></trkpt>
      <trkpt lat="46.89147" lon="11.43372"><ele>943</ele></trkpt>
      <trkpt lat="46.89151" lon="11.43374"><ele>943</ele></trkpt>
      <trkpt lat="46.89160" lon="11.43377"><ele>943</ele></trkpt>
      <trkpt lat="46.89200" lon="11.43385"><ele>943</ele></trkpt>
      <trkpt lat="46.89210" lon="11.43386"><ele>944</ele></trkpt>
      <trkpt lat="46.89221" lon="11.43385"><ele>944</ele></trkpt>
      <trkpt lat="46.89237" lon="11.43379"><ele>944</ele></trkpt>
      <trkpt lat="46.89244" lon="11.43375"><ele>944</ele></trkpt>
      <trkpt lat="46.89258" lon="11.43367"><ele>944</ele></trkpt>
      <trkpt lat="46.89272" lon="11.43358"><ele>944</ele></trkpt>
      <trkpt lat="46.89277" lon="11.43358"><ele>944</ele></trkpt>
      <trkpt lat="46.89281" lon="11.43359"><ele>944</ele></trkpt>
      <trkpt lat="46.89283" lon="11.43354"><ele>944</ele></trkpt>
      <trkpt lat="46.89287" lon="11.43350"><ele>944</ele></trkpt>
      <trkpt lat="46.89290" lon="11.43346"><ele>944</ele></trkpt>
      <trkpt lat="46.89307" lon="11.43337"><ele>944</ele></trkpt>
      <trkpt lat="46.89334" lon="11.43323"><ele>944</ele></trkpt>
      <trkpt lat="46.89362" lon="11.43302"><ele>945</ele></trkpt>
      <trkpt lat="46.89391" lon="11.43281"><ele>945</ele></trkpt>
      <trkpt lat="46.89403" lon="11.43274"><ele>945</ele></trkpt>
      <trkpt lat="46.89413" lon="11.43270"><ele>945</ele></trkpt>
      <trkpt lat="46.89420" lon="11.43268"><ele>945</ele></trkpt>
      <trkpt lat="46.89429" lon="11.43267"><ele>945</ele></trkpt>
      <trkpt lat="46.89482" lon="11.43266"><ele>946</ele></trkpt>
      <trkpt lat="46.89492" lon="11.43263"><ele>945</ele></trkpt>
      <trkpt lat="46.89495" lon="11.43262"><ele>945</ele></trkpt>
      <trkpt lat="46.89532" lon="11.43248"><ele>946</ele></trkpt>
      <trkpt lat="46.89596" lon="11.43223"><ele>946</ele></trkpt>
      <trkpt lat="46.89616" lon="11.43218"><ele>946</ele></trkpt>
      <trkpt lat="46.89619" lon="11.43217"><ele>946</ele></trkpt>
      <trkpt lat="46.89618" lon="11.43211"><ele>946</ele></trkpt>
      <trkpt lat="46.89617" lon="11.43192"><ele>947</ele></trkpt>
      <trkpt lat="46.89630" lon="11.43188"><ele>947</ele></trkpt>
    </trkseg>
  </trk>
</gpx>
