<?xml version="1.0" encoding="UTF-8"?>
<gpx version="1.1" creator="dolomites-trip" xmlns="http://www.topografix.com/GPX/1/1">
  <metadata><name>День 10: Bolzano → долина Isarco → Chiusa → Bressanone (короткий финал)</name></metadata>
  <trk>
    <name>День 10: Bolzano → долина Isarco → Chiusa → Bressanone (короткий финал)</name>
    <trkseg>
      <trkpt lat="46.49857" lon="11.35475"><ele>267</ele></trkpt>
      <trkpt lat="46.49858" lon="11.35460"><ele>267</ele></trkpt>
      <trkpt lat="46.49858" lon="11.35453"><ele>267</ele></trkpt>
      <trkpt lat="46.49809" lon="11.35460"><ele>266</ele></trkpt>
      <trkpt lat="46.49791" lon="11.35438"><ele>266</ele></trkpt>
      <trkpt lat="46.49785" lon="11.35402"><ele>266</ele></trkpt>
      <trkpt lat="46.49778" lon="11.35371"><ele>266</ele></trkpt>
      <trkpt lat="46.49776" lon="11.35359"><ele>266</ele></trkpt>
      <trkpt lat="46.49776" lon="11.35339"><ele>266</ele></trkpt>
      <trkpt lat="46.49771" lon="11.35339"><ele>266</ele></trkpt>
      <trkpt lat="46.49744" lon="11.35339"><ele>265</ele></trkpt>
      <trkpt lat="46.49726" lon="11.35345"><ele>264</ele></trkpt>
      <trkpt lat="46.49721" lon="11.35346"><ele>264</ele></trkpt>
      <trkpt lat="46.49677" lon="11.35350"><ele>263</ele></trkpt>
      <trkpt lat="46.49612" lon="11.35355"><ele>262</ele></trkpt>
      <trkpt lat="46.49602" lon="11.35353"><ele>262</ele></trkpt>
      <trkpt lat="46.49589" lon="11.35345"><ele>262</ele></trkpt>
      <trkpt lat="46.49580" lon="11.35337"><ele>262</ele></trkpt>
      <trkpt lat="46.49567" lon="11.35325"><ele>262</ele></trkpt>
      <trkpt lat="46.49555" lon="11.35320"><ele>263</ele></trkpt>
      <trkpt lat="46.49547" lon="11.35324"><ele>263</ele></trkpt>
      <trkpt lat="46.49539" lon="11.35343"><ele>263</ele></trkpt>
      <trkpt lat="46.49527" lon="11.35397"><ele>263</ele></trkpt>
      <trkpt lat="46.49522" lon="11.35395"><ele>263</ele></trkpt>
      <trkpt lat="46.49520" lon="11.35394"><ele>263</ele></trkpt>
      <trkpt lat="46.49512" lon="11.35389"><ele>263</ele></trkpt>
      <trkpt lat="46.49504" lon="11.35384"><ele>263</ele></trkpt>
      <trkpt lat="46.49499" lon="11.35389"><ele>263</ele></trkpt>
      <trkpt lat="46.49494" lon="11.35391"><ele>263</ele></trkpt>
      <trkpt lat="46.49488" lon="11.35392"><ele>264</ele></trkpt>
      <trkpt lat="46.49477" lon="11.35391"><ele>264</ele></trkpt>
      <trkpt lat="46.49464" lon="11.35387"><ele>264</ele></trkpt>
      <trkpt lat="46.49461" lon="11.35386"><ele>264</ele></trkpt>
      <trkpt lat="46.49462" lon="11.35384"><ele>264</ele></trkpt>
      <trkpt lat="46.49463" lon="11.35339"><ele>262</ele></trkpt>
      <trkpt lat="46.49462" lon="11.35306"><ele>262</ele></trkpt>
      <trkpt lat="46.49459" lon="11.35301"><ele>262</ele></trkpt>
      <trkpt lat="46.49458" lon="11.35309"><ele>262</ele></trkpt>
      <trkpt lat="46.49459" lon="11.35332"><ele>261</ele></trkpt>
      <trkpt lat="46.49459" lon="11.35355"><ele>262</ele></trkpt>
      <trkpt lat="46.49458" lon="11.35381"><ele>263</ele></trkpt>
      <trkpt lat="46.49453" lon="11.35412"><ele>262</ele></trkpt>
      <trkpt lat="46.49444" lon="11.35450"><ele>263</ele></trkpt>
      <trkpt lat="46.49442" lon="11.35455"><ele>263</ele></trkpt>
      <trkpt lat="46.49446" lon="11.35457"><ele>264</ele></trkpt>
      <trkpt lat="46.49444" lon="11.35462"><ele>264</ele></trkpt>
      <trkpt lat="46.49434" lon="11.35487"><ele>264</ele></trkpt>
      <trkpt lat="46.49430" lon="11.35493"><ele>263</ele></trkpt>
      <trkpt lat="46.49426" lon="11.35495"><ele>263</ele></trkpt>
      <trkpt lat="46.49425" lon="11.35497"><ele>263</ele></trkpt>
      <trkpt lat="46.49413" lon="11.35518"><ele>262</ele></trkpt>
      <trkpt lat="46.49405" lon="11.35534"><ele>261</ele></trkpt>
      <trkpt lat="46.49396" lon="11.35550"><ele>261</ele></trkpt>
      <trkpt lat="46.49393" lon="11.35557"><ele>261</ele></trkpt>
      <trkpt lat="46.49382" lon="11.35594"><ele>262</ele></trkpt>
      <trkpt lat="46.49379" lon="11.35607"><ele>262</ele></trkpt>
      <trkpt lat="46.49371" lon="11.35633"><ele>262</ele></trkpt>
      <trkpt lat="46.49347" lon="11.35703"><ele>263</ele></trkpt>
      <trkpt lat="46.49330" lon="11.35758"><ele>264</ele></trkpt>
      <trkpt lat="46.49318" lon="11.35811"><ele>263</ele></trkpt>
      <trkpt lat="46.49311" lon="11.35839"><ele>264</ele></trkpt>
      <trkpt lat="46.49298" lon="11.35892"><ele>264</ele></trkpt>
      <trkpt lat="46.49285" lon="11.35955"><ele>264</ele></trkpt>
      <trkpt lat="46.49278" lon="11.35994"><ele>265</ele></trkpt>
      <trkpt lat="46.49269" lon="11.36027"><ele>265</ele></trkpt>
      <trkpt lat="46.49264" lon="11.36055"><ele>260</ele></trkpt>
      <trkpt lat="46.49262" lon="11.36082"><ele>260</ele></trkpt>
      <trkpt lat="46.49247" lon="11.36186"><ele>266</ele></trkpt>
      <trkpt lat="46.49238" lon="11.36256"><ele>265</ele></trkpt>
      <trkpt lat="46.49229" lon="11.36355"><ele>266</ele></trkpt>
      <trkpt lat="46.49230" lon="11.36397"><ele>266</ele></trkpt>
      <trkpt lat="46.49257" lon="11.36545"><ele>266</ele></trkpt>
      <trkpt lat="46.49268" lon="11.36604"><ele>266</ele></trkpt>
      <trkpt lat="46.49292" lon="11.36738"><ele>267</ele></trkpt>
      <trkpt lat="46.49293" lon="11.36793"><ele>267</ele></trkpt>
      <trkpt lat="46.49295" lon="11.36822"><ele>268</ele></trkpt>
      <trkpt lat="46.49304" lon="11.36855"><ele>270</ele></trkpt>
      <trkpt lat="46.49305" lon="11.36864"><ele>270</ele></trkpt>
      <trkpt lat="46.49307" lon="11.36873"><ele>270</ele></trkpt>
      <trkpt lat="46.49307" lon="11.36875"><ele>270</ele></trkpt>
      <trkpt lat="46.49308" lon="11.36875"><ele>270</ele></trkpt>
      <trkpt lat="46.49326" lon="11.36946"><ele>269</ele></trkpt>
      <trkpt lat="46.49336" lon="11.36995"><ele>269</ele></trkpt>
      <trkpt lat="46.49351" lon="11.37122"><ele>268</ele></trkpt>
      <trkpt lat="46.49352" lon="11.37123"><ele>269</ele></trkpt>
      <trkpt lat="46.49354" lon="11.37125"><ele>269</ele></trkpt>
      <trkpt lat="46.49354" lon="11.37128"><ele>269</ele></trkpt>
      <trkpt lat="46.49362" lon="11.37197"><ele>271</ele></trkpt>
      <trkpt lat="46.49374" lon="11.37278"><ele>268</ele></trkpt>
      <trkpt lat="46.49397" lon="11.37432"><ele>270</ele></trkpt>
      <trkpt lat="46.49403" lon="11.37465"><ele>270</ele></trkpt>
      <trkpt lat="46.49403" lon="11.37468"><ele>270</ele></trkpt>
      <trkpt lat="46.49403" lon="11.37478"><ele>270</ele></trkpt>
      <trkpt lat="46.49426" lon="11.37617"><ele>272</ele></trkpt>
      <trkpt lat="46.49431" lon="11.37681"><ele>272</ele></trkpt>
      <trkpt lat="46.49432" lon="11.37708"><ele>272</ele></trkpt>
      <trkpt lat="46.49431" lon="11.37800"><ele>273</ele></trkpt>
      <trkpt lat="46.49432" lon="11.37824"><ele>274</ele></trkpt>
      <trkpt lat="46.49438" lon="11.37870"><ele>275</ele></trkpt>
      <trkpt lat="46.49454" lon="11.37950"><ele>276</ele></trkpt>
      <trkpt lat="46.49455" lon="11.37960"><ele>275</ele></trkpt>
      <trkpt lat="46.49455" lon="11.38012"><ele>275</ele></trkpt>
      <trkpt lat="46.49455" lon="11.38047"><ele>275</ele></trkpt>
      <trkpt lat="46.49462" lon="11.38208"><ele>276</ele></trkpt>
      <trkpt lat="46.49457" lon="11.38406"><ele>275</ele></trkpt>
      <trkpt lat="46.49488" lon="11.38673"><ele>276</ele></trkpt>
      <trkpt lat="46.49497" lon="11.38753"><ele>278</ele></trkpt>
      <trkpt lat="46.49501" lon="11.38777"><ele>279</ele></trkpt>
      <trkpt lat="46.49510" lon="11.38804"><ele>281</ele></trkpt>
      <trkpt lat="46.49508" lon="11.38853"><ele>279</ele></trkpt>
      <trkpt lat="46.49507" lon="11.38856"><ele>279</ele></trkpt>
      <trkpt lat="46.49488" lon="11.38921"><ele>278</ele></trkpt>
      <trkpt lat="46.49485" lon="11.38949"><ele>280</ele></trkpt>
      <trkpt lat="46.49478" lon="11.38976"><ele>280</ele></trkpt>
      <trkpt lat="46.49465" lon="11.39035"><ele>282</ele></trkpt>
      <trkpt lat="46.49464" lon="11.39049"><ele>282</ele></trkpt>
      <trkpt lat="46.49476" lon="11.39058"><ele>283</ele></trkpt>
      <trkpt lat="46.49492" lon="11.39068"><ele>283</ele></trkpt>
      <trkpt lat="46.49487" lon="11.39107"><ele>283</ele></trkpt>
      <trkpt lat="46.49484" lon="11.39124"><ele>283</ele></trkpt>
      <trkpt lat="46.49475" lon="11.39173"><ele>283</ele></trkpt>
      <trkpt lat="46.49461" lon="11.39167"><ele>283</ele></trkpt>
      <trkpt lat="46.49451" lon="11.39160"><ele>283</ele></trkpt>
      <trkpt lat="46.49444" lon="11.39155"><ele>283</ele></trkpt>
      <trkpt lat="46.49440" lon="11.39153"><ele>283</ele></trkpt>
      <trkpt lat="46.49430" lon="11.39147"><ele>283</ele></trkpt>
      <trkpt lat="46.49425" lon="11.39147"><ele>283</ele></trkpt>
      <trkpt lat="46.49417" lon="11.39164"><ele>284</ele></trkpt>
      <trkpt lat="46.49410" lon="11.39167"><ele>284</ele></trkpt>
      <trkpt lat="46.49402" lon="11.39173"><ele>284</ele></trkpt>
      <trkpt lat="46.49385" lon="11.39189"><ele>285</ele></trkpt>
      <trkpt lat="46.49310" lon="11.39261"><ele>290</ele></trkpt>
      <trkpt lat="46.49304" lon="11.39265"><ele>290</ele></trkpt>
      <trkpt lat="46.49300" lon="11.39265"><ele>290</ele></trkpt>
      <trkpt lat="46.49292" lon="11.39263"><ele>290</ele></trkpt>
      <trkpt lat="46.49283" lon="11.39280"><ele>293</ele></trkpt>
      <trkpt lat="46.49292" lon="11.39263"><ele>290</ele></trkpt>
      <trkpt lat="46.49300" lon="11.39265"><ele>290</ele></trkpt>
      <trkpt lat="46.49304" lon="11.39265"><ele>290</ele></trkpt>
      <trkpt lat="46.49310" lon="11.39261"><ele>290</ele></trkpt>
      <trkpt lat="46.49385" lon="11.39189"><ele>285</ele></trkpt>
      <trkpt lat="46.49402" lon="11.39173"><ele>284</ele></trkpt>
      <trkpt lat="46.49410" lon="11.39167"><ele>284</ele></trkpt>
      <trkpt lat="46.49417" lon="11.39164"><ele>284</ele></trkpt>
      <trkpt lat="46.49425" lon="11.39147"><ele>283</ele></trkpt>
      <trkpt lat="46.49437" lon="11.39158"><ele>283</ele></trkpt>
      <trkpt lat="46.49451" lon="11.39170"><ele>283</ele></trkpt>
      <trkpt lat="46.49461" lon="11.39178"><ele>283</ele></trkpt>
      <trkpt lat="46.49467" lon="11.39180"><ele>282</ele></trkpt>
      <trkpt lat="46.49506" lon="11.39205"><ele>280</ele></trkpt>
      <trkpt lat="46.49509" lon="11.39202"><ele>280</ele></trkpt>
      <trkpt lat="46.49513" lon="11.39186"><ele>280</ele></trkpt>
      <trkpt lat="46.49518" lon="11.39146"><ele>280</ele></trkpt>
      <trkpt lat="46.49518" lon="11.39144"><ele>280</ele></trkpt>
      <trkpt lat="46.49517" lon="11.39142"><ele>280</ele></trkpt>
      <trkpt lat="46.49515" lon="11.39142"><ele>280</ele></trkpt>
      <trkpt lat="46.49514" lon="11.39143"><ele>281</ele></trkpt>
      <trkpt lat="46.49513" lon="11.39147"><ele>281</ele></trkpt>
      <trkpt lat="46.49514" lon="11.39156"><ele>281</ele></trkpt>
      <trkpt lat="46.49510" lon="11.39183"><ele>282</ele></trkpt>
      <trkpt lat="46.49502" lon="11.39216"><ele>283</ele></trkpt>
      <trkpt lat="46.49493" lon="11.39273"><ele>283</ele></trkpt>
      <trkpt lat="46.49483" lon="11.39338"><ele>284</ele></trkpt>
      <trkpt lat="46.49479" lon="11.39357"><ele>284</ele></trkpt>
      <trkpt lat="46.49468" lon="11.39394"><ele>284</ele></trkpt>
      <trkpt lat="46.49466" lon="11.39404"><ele>284</ele></trkpt>
      <trkpt lat="46.49465" lon="11.39415"><ele>284</ele></trkpt>
      <trkpt lat="46.49466" lon="11.39423"><ele>284</ele></trkpt>
      <trkpt lat="46.49466" lon="11.39426"><ele>284</ele></trkpt>
      <trkpt lat="46.49465" lon="11.39427"><ele>284</ele></trkpt>
      <trkpt lat="46.49463" lon="11.39430"><ele>284</ele></trkpt>
      <trkpt lat="46.49457" lon="11.39434"><ele>284</ele></trkpt>
      <trkpt lat="46.49455" lon="11.39435"><ele>284</ele></trkpt>
      <trkpt lat="46.49452" lon="11.39435"><ele>284</ele></trkpt>
      <trkpt lat="46.49450" lon="11.39437"><ele>284</ele></trkpt>
      <trkpt lat="46.49440" lon="11.39449"><ele>284</ele></trkpt>
      <trkpt lat="46.49402" lon="11.39507"><ele>285</ele></trkpt>
      <trkpt lat="46.49374" lon="11.39551"><ele>284</ele></trkpt>
      <trkpt lat="46.49340" lon="11.39608"><ele>283</ele></trkpt>
      <trkpt lat="46.49301" lon="11.39672"><ele>282</ele></trkpt>
      <trkpt lat="46.49298" lon="11.39692"><ele>282</ele></trkpt>
      <trkpt lat="46.49287" lon="11.39716"><ele>284</ele></trkpt>
      <trkpt lat="46.49267" lon="11.39773"><ele>283</ele></trkpt>
      <trkpt lat="46.49258" lon="11.39820"><ele>284</ele></trkpt>
      <trkpt lat="46.49257" lon="11.39834"><ele>284</ele></trkpt>
      <trkpt lat="46.49259" lon="11.39854"><ele>285</ele></trkpt>
      <trkpt lat="46.49259" lon="11.39867"><ele>285</ele></trkpt>
      <trkpt lat="46.49255" lon="11.39896"><ele>285</ele></trkpt>
      <trkpt lat="46.49254" lon="11.39907"><ele>285</ele></trkpt>
      <trkpt lat="46.49256" lon="11.39927"><ele>284</ele></trkpt>
      <trkpt lat="46.49260" lon="11.39952"><ele>283</ele></trkpt>
      <trkpt lat="46.49266" lon="11.39973"><ele>283</ele></trkpt>
      <trkpt lat="46.49269" lon="11.39988"><ele>282</ele></trkpt>
      <trkpt lat="46.49273" lon="11.40011"><ele>282</ele></trkpt>
      <trkpt lat="46.49280" lon="11.40094"><ele>285</ele></trkpt>
      <trkpt lat="46.49283" lon="11.40120"><ele>285</ele></trkpt>
      <trkpt lat="46.49297" lon="11.40201"><ele>284</ele></trkpt>
      <trkpt lat="46.49309" lon="11.40256"><ele>285</ele></trkpt>
      <trkpt lat="46.49310" lon="11.40263"><ele>285</ele></trkpt>
      <trkpt lat="46.49310" lon="11.40268"><ele>285</ele></trkpt>
      <trkpt lat="46.49308" lon="11.40276"><ele>286</ele></trkpt>
      <trkpt lat="46.49300" lon="11.40298"><ele>287</ele></trkpt>
      <trkpt lat="46.49299" lon="11.40303"><ele>288</ele></trkpt>
      <trkpt lat="46.49312" lon="11.40386"><ele>288</ele></trkpt>
      <trkpt lat="46.49325" lon="11.40473"><ele>296</ele></trkpt>
      <trkpt lat="46.49340" lon="11.40580"><ele>288</ele></trkpt>
      <trkpt lat="46.49346" lon="11.40634"><ele>288</ele></trkpt>
      <trkpt lat="46.49348" lon="11.40691"><ele>288</ele></trkpt>
      <trkpt lat="46.49348" lon="11.40738"><ele>289</ele></trkpt>
      <trkpt lat="46.49345" lon="11.40798"><ele>289</ele></trkpt>
      <trkpt lat="46.49342" lon="11.40844"><ele>289</ele></trkpt>
      <trkpt lat="46.49340" lon="11.40871"><ele>290</ele></trkpt>
      <trkpt lat="46.49333" lon="11.40927"><ele>291</ele></trkpt>
      <trkpt lat="46.49303" lon="11.41155"><ele>292</ele></trkpt>
      <trkpt lat="46.49296" lon="11.41205"><ele>295</ele></trkpt>
      <trkpt lat="46.49288" lon="11.41249"><ele>294</ele></trkpt>
      <trkpt lat="46.49280" lon="11.41280"><ele>293</ele></trkpt>
      <trkpt lat="46.49270" lon="11.41308"><ele>296</ele></trkpt>
      <trkpt lat="46.49262" lon="11.41329"><ele>297</ele></trkpt>
      <trkpt lat="46.49252" lon="11.41353"><ele>295</ele></trkpt>
      <trkpt lat="46.49168" lon="11.41526"><ele>296</ele></trkpt>
      <trkpt lat="46.49142" lon="11.41579"><ele>296</ele></trkpt>
      <trkpt lat="46.49088" lon="11.41675"><ele>298</ele></trkpt>
      <trkpt lat="46.49084" lon="11.41682"><ele>297</ele></trkpt>
      <trkpt lat="46.49071" lon="11.41705"><ele>296</ele></trkpt>
      <trkpt lat="46.49008" lon="11.41815"><ele>298</ele></trkpt>
      <trkpt lat="46.48991" lon="11.41846"><ele>298</ele></trkpt>
      <trkpt lat="46.48968" lon="11.41892"><ele>299</ele></trkpt>
      <trkpt lat="46.48956" lon="11.41913"><ele>300</ele></trkpt>
      <trkpt lat="46.48932" lon="11.41966"><ele>300</ele></trkpt>
      <trkpt lat="46.48930" lon="11.41978"><ele>299</ele></trkpt>
      <trkpt lat="46.48927" lon="11.41995"><ele>298</ele></trkpt>
      <trkpt lat="46.48924" lon="11.42005"><ele>299</ele></trkpt>
      <trkpt lat="46.48914" lon="11.42032"><ele>299</ele></trkpt>
      <trkpt lat="46.48910" lon="11.42039"><ele>299</ele></trkpt>
      <trkpt lat="46.48904" lon="11.42048"><ele>300</ele></trkpt>
      <trkpt lat="46.48899" lon="11.42056"><ele>300</ele></trkpt>
      <trkpt lat="46.48893" lon="11.42072"><ele>301</ele></trkpt>
      <trkpt lat="46.48881" lon="11.42118"><ele>301</ele></trkpt>
      <trkpt lat="46.48873" lon="11.42152"><ele>300</ele></trkpt>
      <trkpt lat="46.48863" lon="11.42206"><ele>300</ele></trkpt>
      <trkpt lat="46.48855" lon="11.42261"><ele>300</ele></trkpt>
      <trkpt lat="46.48852" lon="11.42304"><ele>301</ele></trkpt>
      <trkpt lat="46.48851" lon="11.42364"><ele>301</ele></trkpt>
      <trkpt lat="46.48853" lon="11.42410"><ele>301</ele></trkpt>
      <trkpt lat="46.48858" lon="11.42453"><ele>302</ele></trkpt>
      <trkpt lat="46.48868" lon="11.42514"><ele>302</ele></trkpt>
      <trkpt lat="46.48878" lon="11.42559"><ele>304</ele></trkpt>
      <trkpt lat="46.48902" lon="11.42642"><ele>302</ele></trkpt>
      <trkpt lat="46.48914" lon="11.42681"><ele>302</ele></trkpt>
      <trkpt lat="46.48946" lon="11.42766"><ele>301</ele></trkpt>
      <trkpt lat="46.48966" lon="11.42811"><ele>302</ele></trkpt>
      <trkpt lat="46.48988" lon="11.42858"><ele>302</ele></trkpt>
      <trkpt lat="46.49015" lon="11.42910"><ele>302</ele></trkpt>
      <trkpt lat="46.49025" lon="11.42926"><ele>302</ele></trkpt>
      <trkpt lat="46.49045" lon="11.42956"><ele>305</ele></trkpt>
      <trkpt lat="46.49083" lon="11.43012"><ele>309</ele></trkpt>
      <trkpt lat="46.49112" lon="11.43047"><ele>309</ele></trkpt>
      <trkpt lat="46.49122" lon="11.43058"><ele>309</ele></trkpt>
      <trkpt lat="46.49153" lon="11.43119"><ele>309</ele></trkpt>
      <trkpt lat="46.49191" lon="11.43231"><ele>308</ele></trkpt>
      <trkpt lat="46.49220" lon="11.43352"><ele>308</ele></trkpt>
      <trkpt lat="46.49227" lon="11.43469"><ele>308</ele></trkpt>
      <trkpt lat="46.49219" lon="11.43551"><ele>308</ele></trkpt>
      <trkpt lat="46.49217" lon="11.43556"><ele>308</ele></trkpt>
      <trkpt lat="46.49212" lon="11.43564"><ele>309</ele></trkpt>
      <trkpt lat="46.49209" lon="11.43571"><ele>310</ele></trkpt>
      <trkpt lat="46.49206" lon="11.43583"><ele>309</ele></trkpt>
      <trkpt lat="46.49204" lon="11.43601"><ele>309</ele></trkpt>
      <trkpt lat="46.49198" lon="11.43659"><ele>310</ele></trkpt>
      <trkpt lat="46.49196" lon="11.43667"><ele>310</ele></trkpt>
      <trkpt lat="46.49189" lon="11.43680"><ele>312</ele></trkpt>
      <trkpt lat="46.49182" lon="11.43704"><ele>314</ele></trkpt>
      <trkpt lat="46.49176" lon="11.43730"><ele>315</ele></trkpt>
      <trkpt lat="46.49174" lon="11.43746"><ele>314</ele></trkpt>
      <trkpt lat="46.49172" lon="11.43766"><ele>314</ele></trkpt>
      <trkpt lat="46.49171" lon="11.43790"><ele>314</ele></trkpt>
      <trkpt lat="46.49172" lon="11.43804"><ele>314</ele></trkpt>
      <trkpt lat="46.49176" lon="11.43840"><ele>314</ele></trkpt>
      <trkpt lat="46.49178" lon="11.43858"><ele>313</ele></trkpt>
      <trkpt lat="46.49180" lon="11.43870"><ele>312</ele></trkpt>
      <trkpt lat="46.49194" lon="11.43896"><ele>311</ele></trkpt>
      <trkpt lat="46.49206" lon="11.43912"><ele>311</ele></trkpt>
      <trkpt lat="46.49218" lon="11.43924"><ele>310</ele></trkpt>
      <trkpt lat="46.49258" lon="11.43960"><ele>310</ele></trkpt>
      <trkpt lat="46.49295" lon="11.43993"><ele>310</ele></trkpt>
      <trkpt lat="46.49310" lon="11.44006"><ele>310</ele></trkpt>
      <trkpt lat="46.49439" lon="11.44131"><ele>311</ele></trkpt>
      <trkpt lat="46.49477" lon="11.44173"><ele>312</ele></trkpt>
      <trkpt lat="46.49494" lon="11.44195"><ele>313</ele></trkpt>
      <trkpt lat="46.49515" lon="11.44230"><ele>316</ele></trkpt>
      <trkpt lat="46.49542" lon="11.44285"><ele>316</ele></trkpt>
      <trkpt lat="46.49551" lon="11.44313"><ele>316</ele></trkpt>
      <trkpt lat="46.49553" lon="11.44323"><ele>315</ele></trkpt>
      <trkpt lat="46.49555" lon="11.44335"><ele>315</ele></trkpt>
      <trkpt lat="46.49560" lon="11.44389"><ele>312</ele></trkpt>
      <trkpt lat="46.49560" lon="11.44395"><ele>313</ele></trkpt>
      <trkpt lat="46.49559" lon="11.44400"><ele>313</ele></trkpt>
      <trkpt lat="46.49556" lon="11.44413"><ele>314</ele></trkpt>
      <trkpt lat="46.49555" lon="11.44420"><ele>315</ele></trkpt>
      <trkpt lat="46.49556" lon="11.44434"><ele>315</ele></trkpt>
      <trkpt lat="46.49574" lon="11.44529"><ele>315</ele></trkpt>
      <trkpt lat="46.49574" lon="11.44534"><ele>315</ele></trkpt>
      <trkpt lat="46.49581" lon="11.44566"><ele>316</ele></trkpt>
      <trkpt lat="46.49581" lon="11.44569"><ele>316</ele></trkpt>
      <trkpt lat="46.49579" lon="11.44575"><ele>316</ele></trkpt>
      <trkpt lat="46.49579" lon="11.44579"><ele>316</ele></trkpt>
      <trkpt lat="46.49583" lon="11.44641"><ele>317</ele></trkpt>
      <trkpt lat="46.49563" lon="11.44652"><ele>319</ele></trkpt>
      <trkpt lat="46.49533" lon="11.44661"><ele>320</ele></trkpt>
      <trkpt lat="46.49527" lon="11.44661"><ele>320</ele></trkpt>
      <trkpt lat="46.49522" lon="11.44661"><ele>320</ele></trkpt>
      <trkpt lat="46.49514" lon="11.44659"><ele>321</ele></trkpt>
      <trkpt lat="46.49511" lon="11.44658"><ele>321</ele></trkpt>
      <trkpt lat="46.49509" lon="11.44676"><ele>322</ele></trkpt>
      <trkpt lat="46.49507" lon="11.44691"><ele>323</ele></trkpt>
      <trkpt lat="46.49504" lon="11.44712"><ele>324</ele></trkpt>
      <trkpt lat="46.49501" lon="11.44735"><ele>325</ele></trkpt>
      <trkpt lat="46.49501" lon="11.44749"><ele>326</ele></trkpt>
      <trkpt lat="46.49502" lon="11.44758"><ele>326</ele></trkpt>
      <trkpt lat="46.49504" lon="11.44768"><ele>326</ele></trkpt>
      <trkpt lat="46.49507" lon="11.44777"><ele>327</ele></trkpt>
      <trkpt lat="46.49513" lon="11.44772"><ele>326</ele></trkpt>
      <trkpt lat="46.49517" lon="11.44773"><ele>326</ele></trkpt>
      <trkpt lat="46.49513" lon="11.44772"><ele>326</ele></trkpt>
      <trkpt lat="46.49507" lon="11.44777"><ele>327</ele></trkpt>
      <trkpt lat="46.49504" lon="11.44768"><ele>326</ele></trkpt>
      <trkpt lat="46.49502" lon="11.44758"><ele>326</ele></trkpt>
      <trkpt lat="46.49501" lon="11.44749"><ele>326</ele></trkpt>
      <trkpt lat="46.49501" lon="11.44735"><ele>325</ele></trkpt>
      <trkpt lat="46.49504" lon="11.44712"><ele>324</ele></trkpt>
      <trkpt lat="46.49507" lon="11.44691"><ele>323</ele></trkpt>
      <trkpt lat="46.49509" lon="11.44676"><ele>322</ele></trkpt>
      <trkpt lat="46.49511" lon="11.44658"><ele>321</ele></trkpt>
      <trkpt lat="46.49514" lon="11.44659"><ele>321</ele></trkpt>
      <trkpt lat="46.49522" lon="11.44661"><ele>320</ele></trkpt>
      <trkpt lat="46.49527" lon="11.44661"><ele>320</ele></trkpt>
      <trkpt lat="46.49533" lon="11.44661"><ele>320</ele></trkpt>
      <trkpt lat="46.49563" lon="11.44652"><ele>319</ele></trkpt>
      <trkpt lat="46.49569" lon="11.44656"><ele>319</ele></trkpt>
      <trkpt lat="46.49580" lon="11.44654"><ele>318</ele></trkpt>
      <trkpt lat="46.49583" lon="11.44655"><ele>318</ele></trkpt>
      <trkpt lat="46.49586" lon="11.44658"><ele>319</ele></trkpt>
      <trkpt lat="46.49600" lon="11.44725"><ele>320</ele></trkpt>
      <trkpt lat="46.49605" lon="11.44747"><ele>319</ele></trkpt>
      <trkpt lat="46.49626" lon="11.44817"><ele>316</ele></trkpt>
      <trkpt lat="46.49631" lon="11.44845"><ele>318</ele></trkpt>
      <trkpt lat="46.49629" lon="11.44853"><ele>319</ele></trkpt>
      <trkpt lat="46.49627" lon="11.44857"><ele>320</ele></trkpt>
      <trkpt lat="46.49626" lon="11.44861"><ele>321</ele></trkpt>
      <trkpt lat="46.49626" lon="11.44866"><ele>322</ele></trkpt>
      <trkpt lat="46.49627" lon="11.44869"><ele>322</ele></trkpt>
      <trkpt lat="46.49639" lon="11.44872"><ele>322</ele></trkpt>
      <trkpt lat="46.49649" lon="11.44877"><ele>321</ele></trkpt>
      <trkpt lat="46.49668" lon="11.44892"><ele>319</ele></trkpt>
      <trkpt lat="46.49672" lon="11.44898"><ele>318</ele></trkpt>
      <trkpt lat="46.49694" lon="11.44943"><ele>316</ele></trkpt>
      <trkpt lat="46.49706" lon="11.44962"><ele>316</ele></trkpt>
      <trkpt lat="46.49717" lon="11.44979"><ele>315</ele></trkpt>
      <trkpt lat="46.49732" lon="11.45001"><ele>314</ele></trkpt>
      <trkpt lat="46.49757" lon="11.45036"><ele>314</ele></trkpt>
      <trkpt lat="46.49771" lon="11.45052"><ele>314</ele></trkpt>
      <trkpt lat="46.49780" lon="11.45061"><ele>315</ele></trkpt>
      <trkpt lat="46.49811" lon="11.45090"><ele>315</ele></trkpt>
      <trkpt lat="46.49830" lon="11.45104"><ele>315</ele></trkpt>
      <trkpt lat="46.49880" lon="11.45133"><ele>315</ele></trkpt>
      <trkpt lat="46.49894" lon="11.45142"><ele>315</ele></trkpt>
      <trkpt lat="46.49913" lon="11.45156"><ele>315</ele></trkpt>
      <trkpt lat="46.49919" lon="11.45160"><ele>316</ele></trkpt>
      <trkpt lat="46.49932" lon="11.45168"><ele>315</ele></trkpt>
      <trkpt lat="46.49952" lon="11.45183"><ele>314</ele></trkpt>
      <trkpt lat="46.49966" lon="11.45196"><ele>315</ele></trkpt>
      <trkpt lat="46.49977" lon="11.45208"><ele>315</ele></trkpt>
      <trkpt lat="46.49995" lon="11.45229"><ele>316</ele></trkpt>
      <trkpt lat="46.50007" lon="11.45245"><ele>316</ele></trkpt>
      <trkpt lat="46.50016" lon="11.45260"><ele>316</ele></trkpt>
      <trkpt lat="46.50028" lon="11.45282"><ele>317</ele></trkpt>
      <trkpt lat="46.50039" lon="11.45305"><ele>316</ele></trkpt>
      <trkpt lat="46.50049" lon="11.45330"><ele>316</ele></trkpt>
      <trkpt lat="46.50056" lon="11.45348"><ele>318</ele></trkpt>
      <trkpt lat="46.50063" lon="11.45369"><ele>318</ele></trkpt>
      <trkpt lat="46.50068" lon="11.45392"><ele>318</ele></trkpt>
      <trkpt lat="46.50075" lon="11.45433"><ele>320</ele></trkpt>
      <trkpt lat="46.50077" lon="11.45458"><ele>322</ele></trkpt>
      <trkpt lat="46.50079" lon="11.45481"><ele>324</ele></trkpt>
      <trkpt lat="46.50086" lon="11.45589"><ele>320</ele></trkpt>
      <trkpt lat="46.50091" lon="11.45647"><ele>320</ele></trkpt>
      <trkpt lat="46.50095" lon="11.45681"><ele>320</ele></trkpt>
      <trkpt lat="46.50103" lon="11.45720"><ele>320</ele></trkpt>
      <trkpt lat="46.50110" lon="11.45745"><ele>320</ele></trkpt>
      <trkpt lat="46.50118" lon="11.45769"><ele>320</ele></trkpt>
      <trkpt lat="46.50129" lon="11.45796"><ele>320</ele></trkpt>
      <trkpt lat="46.50143" lon="11.45822"><ele>320</ele></trkpt>
      <trkpt lat="46.50157" lon="11.45845"><ele>322</ele></trkpt>
      <trkpt lat="46.50171" lon="11.45865"><ele>322</ele></trkpt>
      <trkpt lat="46.50187" lon="11.45885"><ele>323</ele></trkpt>
      <trkpt lat="46.50203" lon="11.45900"><ele>323</ele></trkpt>
      <trkpt lat="46.50222" lon="11.45917"><ele>321</ele></trkpt>
      <trkpt lat="46.50242" lon="11.45931"><ele>322</ele></trkpt>
      <trkpt lat="46.50263" lon="11.45946"><ele>322</ele></trkpt>
      <trkpt lat="46.50268" lon="11.45949"><ele>322</ele></trkpt>
      <trkpt lat="46.50282" lon="11.45958"><ele>322</ele></trkpt>
      <trkpt lat="46.50351" lon="11.46001"><ele>323</ele></trkpt>
      <trkpt lat="46.50421" lon="11.46045"><ele>323</ele></trkpt>
      <trkpt lat="46.50456" lon="11.46070"><ele>323</ele></trkpt>
      <trkpt lat="46.50472" lon="11.46082"><ele>323</ele></trkpt>
      <trkpt lat="46.50486" lon="11.46095"><ele>323</ele></trkpt>
      <trkpt lat="46.50498" lon="11.46106"><ele>323</ele></trkpt>
      <trkpt lat="46.50507" lon="11.46117"><ele>324</ele></trkpt>
      <trkpt lat="46.50521" lon="11.46136"><ele>324</ele></trkpt>
      <trkpt lat="46.50546" lon="11.46177"><ele>326</ele></trkpt>
      <trkpt lat="46.50565" lon="11.46216"><ele>325</ele></trkpt>
      <trkpt lat="46.50618" lon="11.46344"><ele>328</ele></trkpt>
      <trkpt lat="46.50692" lon="11.46522"><ele>326</ele></trkpt>
      <trkpt lat="46.50705" lon="11.46550"><ele>326</ele></trkpt>
      <trkpt lat="46.50737" lon="11.46629"><ele>326</ele></trkpt>
      <trkpt lat="46.50752" lon="11.46660"><ele>326</ele></trkpt>
      <trkpt lat="46.50764" lon="11.46682"><ele>326</ele></trkpt>
      <trkpt lat="46.50777" lon="11.46703"><ele>326</ele></trkpt>
      <trkpt lat="46.50791" lon="11.46724"><ele>326</ele></trkpt>
      <trkpt lat="46.50806" lon="11.46742"><ele>327</ele></trkpt>
      <trkpt lat="46.50856" lon="11.46799"><ele>328</ele></trkpt>
      <trkpt lat="46.50906" lon="11.46853"><ele>329</ele></trkpt>
      <trkpt lat="46.50929" lon="11.46876"><ele>330</ele></trkpt>
      <trkpt lat="46.51020" lon="11.46964"><ele>332</ele></trkpt>
      <trkpt lat="46.51063" lon="11.47006"><ele>332</ele></trkpt>
      <trkpt lat="46.51091" lon="11.47027"><ele>332</ele></trkpt>
      <trkpt lat="46.51123" lon="11.47055"><ele>333</ele></trkpt>
      <trkpt lat="46.51134" lon="11.47067"><ele>332</ele></trkpt>
      <trkpt lat="46.51143" lon="11.47080"><ele>334</ele></trkpt>
      <trkpt lat="46.51151" lon="11.47094"><ele>333</ele></trkpt>
      <trkpt lat="46.51159" lon="11.47111"><ele>332</ele></trkpt>
      <trkpt lat="46.51163" lon="11.47129"><ele>333</ele></trkpt>
      <trkpt lat="46.51165" lon="11.47160"><ele>334</ele></trkpt>
      <trkpt lat="46.51166" lon="11.47203"><ele>334</ele></trkpt>
      <trkpt lat="46.51146" lon="11.47460"><ele>337</ele></trkpt>
      <trkpt lat="46.51144" lon="11.47486"><ele>337</ele></trkpt>
      <trkpt lat="46.51144" lon="11.47523"><ele>337</ele></trkpt>
      <trkpt lat="46.51146" lon="11.47557"><ele>337</ele></trkpt>
      <trkpt lat="46.51148" lon="11.47587"><ele>337</ele></trkpt>
      <trkpt lat="46.51152" lon="11.47616"><ele>337</ele></trkpt>
      <trkpt lat="46.51157" lon="11.47641"><ele>336</ele></trkpt>
      <trkpt lat="46.51163" lon="11.47664"><ele>338</ele></trkpt>
      <trkpt lat="46.51172" lon="11.47688"><ele>337</ele></trkpt>
      <trkpt lat="46.51187" lon="11.47723"><ele>336</ele></trkpt>
      <trkpt lat="46.51200" lon="11.47747"><ele>337</ele></trkpt>
      <trkpt lat="46.51218" lon="11.47776"><ele>338</ele></trkpt>
      <trkpt lat="46.51238" lon="11.47800"><ele>338</ele></trkpt>
      <trkpt lat="46.51242" lon="11.47804"><ele>338</ele></trkpt>
      <trkpt lat="46.51254" lon="11.47817"><ele>337</ele></trkpt>
      <trkpt lat="46.51266" lon="11.47827"><ele>337</ele></trkpt>
      <trkpt lat="46.51292" lon="11.47845"><ele>338</ele></trkpt>
      <trkpt lat="46.51307" lon="11.47852"><ele>338</ele></trkpt>
      <trkpt lat="46.51325" lon="11.47859"><ele>340</ele></trkpt>
      <trkpt lat="46.51352" lon="11.47867"><ele>340</ele></trkpt>
      <trkpt lat="46.51376" lon="11.47870"><ele>340</ele></trkpt>
      <trkpt lat="46.51487" lon="11.47878"><ele>340</ele></trkpt>
      <trkpt lat="46.51511" lon="11.47884"><ele>340</ele></trkpt>
      <trkpt lat="46.51538" lon="11.47894"><ele>340</ele></trkpt>
      <trkpt lat="46.51557" lon="11.47903"><ele>340</ele></trkpt>
      <trkpt lat="46.51587" lon="11.47922"><ele>340</ele></trkpt>
      <trkpt lat="46.51702" lon="11.48004"><ele>343</ele></trkpt>
      <trkpt lat="46.51738" lon="11.48033"><ele>344</ele></trkpt>
      <trkpt lat="46.51763" lon="11.48057"><ele>344</ele></trkpt>
      <trkpt lat="46.51788" lon="11.48085"><ele>344</ele></trkpt>
      <trkpt lat="46.51815" lon="11.48122"><ele>348</ele></trkpt>
      <trkpt lat="46.51839" lon="11.48159"><ele>350</ele></trkpt>
      <trkpt lat="46.51899" lon="11.48238"><ele>350</ele></trkpt>
      <trkpt lat="46.51928" lon="11.48274"><ele>350</ele></trkpt>
      <trkpt lat="46.51940" lon="11.48287"><ele>350</ele></trkpt>
      <trkpt lat="46.52039" lon="11.48357"><ele>350</ele></trkpt>
      <trkpt lat="46.52056" lon="11.48372"><ele>348</ele></trkpt>
      <trkpt lat="46.52067" lon="11.48384"><ele>349</ele></trkpt>
      <trkpt lat="46.52077" lon="11.48398"><ele>351</ele></trkpt>
      <trkpt lat="46.52091" lon="11.48421"><ele>351</ele></trkpt>
      <trkpt lat="46.52123" lon="11.48485"><ele>352</ele></trkpt>
      <trkpt lat="46.52205" lon="11.48678"><ele>353</ele></trkpt>
      <trkpt lat="46.52246" lon="11.48749"><ele>353</ele></trkpt>
      <trkpt lat="46.52263" lon="11.48773"><ele>352</ele></trkpt>
      <trkpt lat="46.52284" lon="11.48798"><ele>351</ele></trkpt>
      <trkpt lat="46.52319" lon="11.48830"><ele>351</ele></trkpt>
      <trkpt lat="46.52349" lon="11.48855"><ele>352</ele></trkpt>
      <trkpt lat="46.52449" lon="11.48943"><ele>354</ele></trkpt>
      <trkpt lat="46.52455" lon="11.48948"><ele>354</ele></trkpt>
      <trkpt lat="46.52473" lon="11.48964"><ele>355</ele></trkpt>
      <trkpt lat="46.52527" lon="11.48994"><ele>356</ele></trkpt>
      <trkpt lat="46.52546" lon="11.49001"><ele>357</ele></trkpt>
      <trkpt lat="46.52571" lon="11.49006"><ele>355</ele></trkpt>
      <trkpt lat="46.52593" lon="11.49008"><ele>355</ele></trkpt>
      <trkpt lat="46.52615" lon="11.49007"><ele>356</ele></trkpt>
      <trkpt lat="46.52638" lon="11.49004"><ele>358</ele></trkpt>
      <trkpt lat="46.52652" lon="11.49000"><ele>360</ele></trkpt>
      <trkpt lat="46.52699" lon="11.48979"><ele>364</ele></trkpt>
      <trkpt lat="46.52750" lon="11.48955"><ele>364</ele></trkpt>
      <trkpt lat="46.52824" lon="11.48924"><ele>364</ele></trkpt>
      <trkpt lat="46.52878" lon="11.48902"><ele>364</ele></trkpt>
      <trkpt lat="46.52914" lon="11.48888"><ele>364</ele></trkpt>
      <trkpt lat="46.52938" lon="11.48883"><ele>364</ele></trkpt>
      <trkpt lat="46.52954" lon="11.48882"><ele>364</ele></trkpt>
      <trkpt lat="46.53062" lon="11.48886"><ele>366</ele></trkpt>
      <trkpt lat="46.53089" lon="11.48892"><ele>367</ele></trkpt>
      <trkpt lat="46.53101" lon="11.48897"><ele>366</ele></trkpt>
      <trkpt lat="46.53149" lon="11.48925"><ele>364</ele></trkpt>
      <trkpt lat="46.53164" lon="11.48935"><ele>364</ele></trkpt>
      <trkpt lat="46.53175" lon="11.48944"><ele>364</ele></trkpt>
      <trkpt lat="46.53191" lon="11.48958"><ele>363</ele></trkpt>
      <trkpt lat="46.53215" lon="11.48985"><ele>362</ele></trkpt>
      <trkpt lat="46.53223" lon="11.48997"><ele>362</ele></trkpt>
      <trkpt lat="46.53263" lon="11.49057"><ele>364</ele></trkpt>
      <trkpt lat="46.53267" lon="11.49062"><ele>366</ele></trkpt>
      <trkpt lat="46.53276" lon="11.49075"><ele>370</ele></trkpt>
      <trkpt lat="46.53332" lon="11.49160"><ele>372</ele></trkpt>
      <trkpt lat="46.53336" lon="11.49165"><ele>372</ele></trkpt>
      <trkpt lat="46.53408" lon="11.49272"><ele>369</ele></trkpt>
      <trkpt lat="46.53423" lon="11.49295"><ele>370</ele></trkpt>
      <trkpt lat="46.53455" lon="11.49344"><ele>372</ele></trkpt>
      <trkpt lat="46.53467" lon="11.49362"><ele>372</ele></trkpt>
      <trkpt lat="46.53472" lon="11.49371"><ele>372</ele></trkpt>
      <trkpt lat="46.53476" lon="11.49378"><ele>372</ele></trkpt>
      <trkpt lat="46.53493" lon="11.49414"><ele>371</ele></trkpt>
      <trkpt lat="46.53510" lon="11.49453"><ele>370</ele></trkpt>
      <trkpt lat="46.53517" lon="11.49479"><ele>370</ele></trkpt>
      <trkpt lat="46.53521" lon="11.49489"><ele>370</ele></trkpt>
      <trkpt lat="46.53533" lon="11.49517"><ele>370</ele></trkpt>
      <trkpt lat="46.53610" lon="11.49675"><ele>372</ele></trkpt>
      <trkpt lat="46.53650" lon="11.49763"><ele>371</ele></trkpt>
      <trkpt lat="46.53654" lon="11.49769"><ele>371</ele></trkpt>
      <trkpt lat="46.53664" lon="11.49776"><ele>373</ele></trkpt>
      <trkpt lat="46.53669" lon="11.49782"><ele>374</ele></trkpt>
      <trkpt lat="46.53677" lon="11.49797"><ele>374</ele></trkpt>
      <trkpt lat="46.53715" lon="11.49869"><ele>374</ele></trkpt>
      <trkpt lat="46.53731" lon="11.49897"><ele>374</ele></trkpt>
      <trkpt lat="46.53748" lon="11.49921"><ele>374</ele></trkpt>
      <trkpt lat="46.53755" lon="11.49929"><ele>375</ele></trkpt>
      <trkpt lat="46.53764" lon="11.49936"><ele>376</ele></trkpt>
      <trkpt lat="46.53773" lon="11.49950"><ele>375</ele></trkpt>
      <trkpt lat="46.53781" lon="11.49962"><ele>376</ele></trkpt>
      <trkpt lat="46.53796" lon="11.49977"><ele>376</ele></trkpt>
      <trkpt lat="46.53815" lon="11.49993"><ele>376</ele></trkpt>
      <trkpt lat="46.53856" lon="11.50023"><ele>376</ele></trkpt>
      <trkpt lat="46.53885" lon="11.50048"><ele>376</ele></trkpt>
      <trkpt lat="46.53917" lon="11.50079"><ele>377</ele></trkpt>
      <trkpt lat="46.53948" lon="11.50111"><ele>378</ele></trkpt>
      <trkpt lat="46.53972" lon="11.50139"><ele>378</ele></trkpt>
      <trkpt lat="46.54028" lon="11.50208"><ele>378</ele></trkpt>
      <trkpt lat="46.54061" lon="11.50249"><ele>382</ele></trkpt>
      <trkpt lat="46.54109" lon="11.50315"><ele>380</ele></trkpt>
      <trkpt lat="46.54124" lon="11.50333"><ele>381</ele></trkpt>
      <trkpt lat="46.54148" lon="11.50355"><ele>383</ele></trkpt>
      <trkpt lat="46.54230" lon="11.50422"><ele>385</ele></trkpt>
      <trkpt lat="46.54250" lon="11.50441"><ele>386</ele></trkpt>
      <trkpt lat="46.54273" lon="11.50466"><ele>386</ele></trkpt>
      <trkpt lat="46.54300" lon="11.50501"><ele>386</ele></trkpt>
      <trkpt lat="46.54363" lon="11.50593"><ele>388</ele></trkpt>
      <trkpt lat="46.54380" lon="11.50614"><ele>390</ele></trkpt>
      <trkpt lat="46.54405" lon="11.50642"><ele>390</ele></trkpt>
      <trkpt lat="46.54502" lon="11.50731"><ele>391</ele></trkpt>
      <trkpt lat="46.54517" lon="11.50746"><ele>392</ele></trkpt>
      <trkpt lat="46.54537" lon="11.50769"><ele>392</ele></trkpt>
      <trkpt lat="46.54564" lon="11.50804"><ele>392</ele></trkpt>
      <trkpt lat="46.54625" lon="11.50880"><ele>391</ele></trkpt>
      <trkpt lat="46.54656" lon="11.50914"><ele>392</ele></trkpt>
      <trkpt lat="46.54700" lon="11.50957"><ele>393</ele></trkpt>
      <trkpt lat="46.54720" lon="11.50980"><ele>392</ele></trkpt>
      <trkpt lat="46.54752" lon="11.51001"><ele>394</ele></trkpt>
      <trkpt lat="46.54862" lon="11.51069"><ele>395</ele></trkpt>
      <trkpt lat="46.54894" lon="11.51093"><ele>396</ele></trkpt>
      <trkpt lat="46.54914" lon="11.51112"><ele>398</ele></trkpt>
      <trkpt lat="46.54932" lon="11.51131"><ele>396</ele></trkpt>
      <trkpt lat="46.54959" lon="11.51165"><ele>396</ele></trkpt>
      <trkpt lat="46.55039" lon="11.51274"><ele>398</ele></trkpt>
      <trkpt lat="46.55062" lon="11.51301"><ele>400</ele></trkpt>
      <trkpt lat="46.55113" lon="11.51356"><ele>403</ele></trkpt>
      <trkpt lat="46.55127" lon="11.51373"><ele>402</ele></trkpt>
      <trkpt lat="46.55136" lon="11.51382"><ele>402</ele></trkpt>
      <trkpt lat="46.55144" lon="11.51388"><ele>403</ele></trkpt>
      <trkpt lat="46.55163" lon="11.51395"><ele>404</ele></trkpt>
      <trkpt lat="46.55207" lon="11.51404"><ele>404</ele></trkpt>
      <trkpt lat="46.55221" lon="11.51405"><ele>405</ele></trkpt>
      <trkpt lat="46.55236" lon="11.51405"><ele>405</ele></trkpt>
      <trkpt lat="46.55256" lon="11.51402"><ele>405</ele></trkpt>
      <trkpt lat="46.55275" lon="11.51398"><ele>404</ele></trkpt>
      <trkpt lat="46.55294" lon="11.51391"><ele>404</ele></trkpt>
      <trkpt lat="46.55313" lon="11.51382"><ele>404</ele></trkpt>
      <trkpt lat="46.55349" lon="11.51364"><ele>404</ele></trkpt>
      <trkpt lat="46.55496" lon="11.51271"><ele>408</ele></trkpt>
      <trkpt lat="46.55582" lon="11.51225"><ele>410</ele></trkpt>
      <trkpt lat="46.55609" lon="11.51212"><ele>410</ele></trkpt>
      <trkpt lat="46.55641" lon="11.51202"><ele>410</ele></trkpt>
      <trkpt lat="46.55659" lon="11.51198"><ele>411</ele></trkpt>
      <trkpt lat="46.55679" lon="11.51195"><ele>412</ele></trkpt>
      <trkpt lat="46.55702" lon="11.51192"><ele>413</ele></trkpt>
      <trkpt lat="46.55865" lon="11.51182"><ele>416</ele></trkpt>
      <trkpt lat="46.55882" lon="11.51182"><ele>416</ele></trkpt>
      <trkpt lat="46.55895" lon="11.51183"><ele>416</ele></trkpt>
      <trkpt lat="46.55912" lon="11.51185"><ele>416</ele></trkpt>
      <trkpt lat="46.55931" lon="11.51188"><ele>417</ele></trkpt>
      <trkpt lat="46.55977" lon="11.51204"><ele>416</ele></trkpt>
      <trkpt lat="46.56070" lon="11.51243"><ele>419</ele></trkpt>
      <trkpt lat="46.56095" lon="11.51256"><ele>419</ele></trkpt>
      <trkpt lat="46.56117" lon="11.51268"><ele>419</ele></trkpt>
      <trkpt lat="46.56138" lon="11.51282"><ele>420</ele></trkpt>
      <trkpt lat="46.56221" lon="11.51344"><ele>423</ele></trkpt>
      <trkpt lat="46.56282" lon="11.51391"><ele>424</ele></trkpt>
      <trkpt lat="46.56404" lon="11.51482"><ele>425</ele></trkpt>
      <trkpt lat="46.56453" lon="11.51523"><ele>426</ele></trkpt>
      <trkpt lat="46.56455" lon="11.51525"><ele>426</ele></trkpt>
      <trkpt lat="46.56459" lon="11.51529"><ele>426</ele></trkpt>
      <trkpt lat="46.56481" lon="11.51560"><ele>426</ele></trkpt>
      <trkpt lat="46.56501" lon="11.51591"><ele>426</ele></trkpt>
      <trkpt lat="46.56522" lon="11.51629"><ele>425</ele></trkpt>
      <trkpt lat="46.56542" lon="11.51671"><ele>425</ele></trkpt>
      <trkpt lat="46.56580" lon="11.51760"><ele>426</ele></trkpt>
      <trkpt lat="46.56606" lon="11.51814"><ele>425</ele></trkpt>
      <trkpt lat="46.56618" lon="11.51838"><ele>426</ele></trkpt>
      <trkpt lat="46.56637" lon="11.51867"><ele>426</ele></trkpt>
      <trkpt lat="46.56662" lon="11.51903"><ele>426</ele></trkpt>
      <trkpt lat="46.56701" lon="11.51948"><ele>427</ele></trkpt>
      <trkpt lat="46.56731" lon="11.51975"><ele>427</ele></trkpt>
      <trkpt lat="46.56764" lon="11.52003"><ele>428</ele></trkpt>
      <trkpt lat="46.56807" lon="11.52034"><ele>427</ele></trkpt>
      <trkpt lat="46.56855" lon="11.52062"><ele>428</ele></trkpt>
      <trkpt lat="46.56897" lon="11.52081"><ele>429</ele></trkpt>
      <trkpt lat="46.56934" lon="11.52098"><ele>428</ele></trkpt>
      <trkpt lat="46.56998" lon="11.52118"><ele>429</ele></trkpt>
      <trkpt lat="46.57085" lon="11.52141"><ele>430</ele></trkpt>
      <trkpt lat="46.57209" lon="11.52169"><ele>430</ele></trkpt>
      <trkpt lat="46.57341" lon="11.52200"><ele>432</ele></trkpt>
      <trkpt lat="46.57478" lon="11.52228"><ele>437</ele></trkpt>
      <trkpt lat="46.57556" lon="11.52243"><ele>436</ele></trkpt>
      <trkpt lat="46.57576" lon="11.52243"><ele>436</ele></trkpt>
      <trkpt lat="46.57614" lon="11.52237"><ele>440</ele></trkpt>
      <trkpt lat="46.57694" lon="11.52230"><ele>438</ele></trkpt>
      <trkpt lat="46.57710" lon="11.52230"><ele>438</ele></trkpt>
      <trkpt lat="46.57728" lon="11.52233"><ele>438</ele></trkpt>
      <trkpt lat="46.57751" lon="11.52234"><ele>438</ele></trkpt>
      <trkpt lat="46.57788" lon="11.52238"><ele>438</ele></trkpt>
      <trkpt lat="46.57814" lon="11.52243"><ele>438</ele></trkpt>
      <trkpt lat="46.57872" lon="11.52258"><ele>443</ele></trkpt>
      <trkpt lat="46.57887" lon="11.52264"><ele>444</ele></trkpt>
      <trkpt lat="46.57956" lon="11.52299"><ele>444</ele></trkpt>
      <trkpt lat="46.57959" lon="11.52301"><ele>444</ele></trkpt>
      <trkpt lat="46.58006" lon="11.52326"><ele>440</ele></trkpt>
      <trkpt lat="46.58051" lon="11.52349"><ele>439</ele></trkpt>
      <trkpt lat="46.58098" lon="11.52372"><ele>445</ele></trkpt>
      <trkpt lat="46.58122" lon="11.52377"><ele>445</ele></trkpt>
      <trkpt lat="46.58148" lon="11.52379"><ele>445</ele></trkpt>
      <trkpt lat="46.58201" lon="11.52378"><ele>444</ele></trkpt>
      <trkpt lat="46.58334" lon="11.52368"><ele>447</ele></trkpt>
      <trkpt lat="46.58415" lon="11.52359"><ele>449</ele></trkpt>
      <trkpt lat="46.58446" lon="11.52360"><ele>450</ele></trkpt>
      <trkpt lat="46.58481" lon="11.52365"><ele>450</ele></trkpt>
      <trkpt lat="46.58494" lon="11.52369"><ele>450</ele></trkpt>
      <trkpt lat="46.58506" lon="11.52373"><ele>449</ele></trkpt>
      <trkpt lat="46.58523" lon="11.52382"><ele>450</ele></trkpt>
      <trkpt lat="46.58546" lon="11.52397"><ele>449</ele></trkpt>
      <trkpt lat="46.58593" lon="11.52432"><ele>451</ele></trkpt>
      <trkpt lat="46.58605" lon="11.52442"><ele>451</ele></trkpt>
      <trkpt lat="46.58615" lon="11.52452"><ele>452</ele></trkpt>
      <trkpt lat="46.58633" lon="11.52474"><ele>454</ele></trkpt>
      <trkpt lat="46.58636" lon="11.52475"><ele>453</ele></trkpt>
      <trkpt lat="46.58639" lon="11.52470"><ele>451</ele></trkpt>
      <trkpt lat="46.58666" lon="11.52414"><ele>450</ele></trkpt>
      <trkpt lat="46.58669" lon="11.52406"><ele>454</ele></trkpt>
      <trkpt lat="46.58669" lon="11.52402"><ele>455</ele></trkpt>
      <trkpt lat="46.58669" lon="11.52398"><ele>456</ele></trkpt>
      <trkpt lat="46.58668" lon="11.52395"><ele>456</ele></trkpt>
      <trkpt lat="46.58665" lon="11.52391"><ele>457</ele></trkpt>
      <trkpt lat="46.58660" lon="11.52386"><ele>458</ele></trkpt>
      <trkpt lat="46.58610" lon="11.52347"><ele>460</ele></trkpt>
      <trkpt lat="46.58590" lon="11.52334"><ele>456</ele></trkpt>
      <trkpt lat="46.58577" lon="11.52328"><ele>454</ele></trkpt>
      <trkpt lat="46.58575" lon="11.52325"><ele>454</ele></trkpt>
      <trkpt lat="46.58573" lon="11.52321"><ele>456</ele></trkpt>
      <trkpt lat="46.58574" lon="11.52318"><ele>457</ele></trkpt>
      <trkpt lat="46.58575" lon="11.52316"><ele>458</ele></trkpt>
      <trkpt lat="46.58581" lon="11.52317"><ele>459</ele></trkpt>
      <trkpt lat="46.58685" lon="11.52382"><ele>467</ele></trkpt>
      <trkpt lat="46.58716" lon="11.52396"><ele>469</ele></trkpt>
      <trkpt lat="46.58749" lon="11.52405"><ele>470</ele></trkpt>
      <trkpt lat="46.58835" lon="11.52416"><ele>479</ele></trkpt>
      <trkpt lat="46.58868" lon="11.52424"><ele>480</ele></trkpt>
      <trkpt lat="46.58890" lon="11.52434"><ele>481</ele></trkpt>
      <trkpt lat="46.58937" lon="11.52461"><ele>482</ele></trkpt>
      <trkpt lat="46.58942" lon="11.52463"><ele>482</ele></trkpt>
      <trkpt lat="46.58944" lon="11.52465"><ele>482</ele></trkpt>
      <trkpt lat="46.58962" lon="11.52475"><ele>482</ele></trkpt>
      <trkpt lat="46.58964" lon="11.52479"><ele>482</ele></trkpt>
      <trkpt lat="46.58969" lon="11.52483"><ele>482</ele></trkpt>
      <trkpt lat="46.58987" lon="11.52496"><ele>483</ele></trkpt>
      <trkpt lat="46.59007" lon="11.52513"><ele>483</ele></trkpt>
      <trkpt lat="46.59047" lon="11.52557"><ele>482</ele></trkpt>
      <trkpt lat="46.59047" lon="11.52560"><ele>482</ele></trkpt>
      <trkpt lat="46.59044" lon="11.52568"><ele>481</ele></trkpt>
      <trkpt lat="46.59044" lon="11.52572"><ele>480</ele></trkpt>
      <trkpt lat="46.59047" lon="11.52576"><ele>480</ele></trkpt>
      <trkpt lat="46.59057" lon="11.52591"><ele>479</ele></trkpt>
      <trkpt lat="46.59059" lon="11.52594"><ele>480</ele></trkpt>
      <trkpt lat="46.59059" lon="11.52597"><ele>480</ele></trkpt>
      <trkpt lat="46.59038" lon="11.52631"><ele>480</ele></trkpt>
      <trkpt lat="46.59048" lon="11.52662"><ele>480</ele></trkpt>
      <trkpt lat="46.59059" lon="11.52680"><ele>478</ele></trkpt>
      <trkpt lat="46.59070" lon="11.52692"><ele>478</ele></trkpt>
      <trkpt lat="46.59091" lon="11.52708"><ele>478</ele></trkpt>
      <trkpt lat="46.59105" lon="11.52707"><ele>478</ele></trkpt>
      <trkpt lat="46.59116" lon="11.52699"><ele>480</ele></trkpt>
      <trkpt lat="46.59134" lon="11.52689"><ele>478</ele></trkpt>
      <trkpt lat="46.59141" lon="11.52678"><ele>479</ele></trkpt>
      <trkpt lat="46.59148" lon="11.52661"><ele>478</ele></trkpt>
      <trkpt lat="46.59154" lon="11.52655"><ele>477</ele></trkpt>
      <trkpt lat="46.59166" lon="11.52636"><ele>480</ele></trkpt>
      <trkpt lat="46.59185" lon="11.52627"><ele>481</ele></trkpt>
      <trkpt lat="46.59213" lon="11.52627"><ele>480</ele></trkpt>
      <trkpt lat="46.59275" lon="11.52638"><ele>479</ele></trkpt>
      <trkpt lat="46.59288" lon="11.52646"><ele>478</ele></trkpt>
      <trkpt lat="46.59298" lon="11.52656"><ele>478</ele></trkpt>
      <trkpt lat="46.59325" lon="11.52685"><ele>478</ele></trkpt>
      <trkpt lat="46.59348" lon="11.52716"><ele>474</ele></trkpt>
      <trkpt lat="46.59448" lon="11.52820"><ele>470</ele></trkpt>
      <trkpt lat="46.59477" lon="11.52847"><ele>469</ele></trkpt>
      <trkpt lat="46.59511" lon="11.52872"><ele>468</ele></trkpt>
      <trkpt lat="46.59532" lon="11.52885"><ele>467</ele></trkpt>
      <trkpt lat="46.59548" lon="11.52890"><ele>468</ele></trkpt>
      <trkpt lat="46.59550" lon="11.52892"><ele>468</ele></trkpt>
      <trkpt lat="46.59557" lon="11.52901"><ele>467</ele></trkpt>
      <trkpt lat="46.59573" lon="11.52904"><ele>466</ele></trkpt>
      <trkpt lat="46.59578" lon="11.52903"><ele>466</ele></trkpt>
      <trkpt lat="46.59598" lon="11.52895"><ele>467</ele></trkpt>
      <trkpt lat="46.59613" lon="11.52890"><ele>467</ele></trkpt>
      <trkpt lat="46.59625" lon="11.52888"><ele>466</ele></trkpt>
      <trkpt lat="46.59708" lon="11.52881"><ele>464</ele></trkpt>
      <trkpt lat="46.59739" lon="11.52882"><ele>465</ele></trkpt>
      <trkpt lat="46.59754" lon="11.52884"><ele>466</ele></trkpt>
      <trkpt lat="46.59779" lon="11.52888"><ele>465</ele></trkpt>
      <trkpt lat="46.59810" lon="11.52900"><ele>466</ele></trkpt>
      <trkpt lat="46.59812" lon="11.52901"><ele>466</ele></trkpt>
      <trkpt lat="46.59813" lon="11.52903"><ele>466</ele></trkpt>
      <trkpt lat="46.59813" lon="11.52905"><ele>466</ele></trkpt>
      <trkpt lat="46.59813" lon="11.52914"><ele>464</ele></trkpt>
      <trkpt lat="46.59814" lon="11.52916"><ele>464</ele></trkpt>
      <trkpt lat="46.59836" lon="11.52927"><ele>465</ele></trkpt>
      <trkpt lat="46.59844" lon="11.52934"><ele>465</ele></trkpt>
      <trkpt lat="46.59847" lon="11.52935"><ele>466</ele></trkpt>
      <trkpt lat="46.59846" lon="11.52938"><ele>465</ele></trkpt>
      <trkpt lat="46.59822" lon="11.52992"><ele>464</ele></trkpt>
      <trkpt lat="46.59821" lon="11.52995"><ele>465</ele></trkpt>
      <trkpt lat="46.59806" lon="11.53030"><ele>468</ele></trkpt>
      <trkpt lat="46.59801" lon="11.53032"><ele>468</ele></trkpt>
      <trkpt lat="46.59736" lon="11.53020"><ele>471</ele></trkpt>
      <trkpt lat="46.59731" lon="11.53020"><ele>471</ele></trkpt>
      <trkpt lat="46.59728" lon="11.53022"><ele>471</ele></trkpt>
      <trkpt lat="46.59725" lon="11.53025"><ele>471</ele></trkpt>
      <trkpt lat="46.59723" lon="11.53030"><ele>471</ele></trkpt>
      <trkpt lat="46.59720" lon="11.53037"><ele>471</ele></trkpt>
      <trkpt lat="46.59716" lon="11.53047"><ele>472</ele></trkpt>
      <trkpt lat="46.59712" lon="11.53053"><ele>472</ele></trkpt>
      <trkpt lat="46.59708" lon="11.53056"><ele>472</ele></trkpt>
      <trkpt lat="46.59703" lon="11.53057"><ele>472</ele></trkpt>
      <trkpt lat="46.59666" lon="11.53053"><ele>474</ele></trkpt>
      <trkpt lat="46.59662" lon="11.53055"><ele>474</ele></trkpt>
      <trkpt lat="46.59660" lon="11.53058"><ele>474</ele></trkpt>
      <trkpt lat="46.59656" lon="11.53064"><ele>473</ele></trkpt>
      <trkpt lat="46.59655" lon="11.53067"><ele>472</ele></trkpt>
      <trkpt lat="46.59654" lon="11.53072"><ele>472</ele></trkpt>
      <trkpt lat="46.59661" lon="11.53075"><ele>471</ele></trkpt>
      <trkpt lat="46.59671" lon="11.53078"><ele>471</ele></trkpt>
      <trkpt lat="46.59724" lon="11.53085"><ele>474</ele></trkpt>
      <trkpt lat="46.59734" lon="11.53087"><ele>474</ele></trkpt>
      <trkpt lat="46.59743" lon="11.53090"><ele>473</ele></trkpt>
      <trkpt lat="46.59752" lon="11.53096"><ele>472</ele></trkpt>
      <trkpt lat="46.59765" lon="11.53110"><ele>470</ele></trkpt>
      <trkpt lat="46.59770" lon="11.53118"><ele>471</ele></trkpt>
      <trkpt lat="46.59775" lon="11.53125"><ele>472</ele></trkpt>
      <trkpt lat="46.59780" lon="11.53133"><ele>472</ele></trkpt>
      <trkpt lat="46.59794" lon="11.53152"><ele>473</ele></trkpt>
      <trkpt lat="46.59811" lon="11.53177"><ele>475</ele></trkpt>
      <trkpt lat="46.59815" lon="11.53183"><ele>475</ele></trkpt>
      <trkpt lat="46.59818" lon="11.53192"><ele>475</ele></trkpt>
      <trkpt lat="46.59818" lon="11.53192"><ele>475</ele></trkpt>
      <trkpt lat="46.59815" lon="11.53183"><ele>475</ele></trkpt>
      <trkpt lat="46.59811" lon="11.53177"><ele>475</ele></trkpt>
      <trkpt lat="46.59794" lon="11.53152"><ele>473</ele></trkpt>
      <trkpt lat="46.59780" lon="11.53133"><ele>472</ele></trkpt>
      <trkpt lat="46.59775" lon="11.53125"><ele>472</ele></trkpt>
      <trkpt lat="46.59770" lon="11.53118"><ele>471</ele></trkpt>
      <trkpt lat="46.59765" lon="11.53110"><ele>470</ele></trkpt>
      <trkpt lat="46.59752" lon="11.53096"><ele>472</ele></trkpt>
      <trkpt lat="46.59743" lon="11.53090"><ele>473</ele></trkpt>
      <trkpt lat="46.59734" lon="11.53087"><ele>474</ele></trkpt>
      <trkpt lat="46.59724" lon="11.53085"><ele>474</ele></trkpt>
      <trkpt lat="46.59671" lon="11.53078"><ele>471</ele></trkpt>
      <trkpt lat="46.59661" lon="11.53075"><ele>471</ele></trkpt>
      <trkpt lat="46.59654" lon="11.53072"><ele>472</ele></trkpt>
      <trkpt lat="46.59655" lon="11.53067"><ele>472</ele></trkpt>
      <trkpt lat="46.59656" lon="11.53064"><ele>473</ele></trkpt>
      <trkpt lat="46.59660" lon="11.53058"><ele>474</ele></trkpt>
      <trkpt lat="46.59662" lon="11.53055"><ele>474</ele></trkpt>
      <trkpt lat="46.59666" lon="11.53053"><ele>474</ele></trkpt>
      <trkpt lat="46.59703" lon="11.53057"><ele>472</ele></trkpt>
      <trkpt lat="46.59708" lon="11.53056"><ele>472</ele></trkpt>
      <trkpt lat="46.59712" lon="11.53053"><ele>472</ele></trkpt>
      <trkpt lat="46.59716" lon="11.53047"><ele>472</ele></trkpt>
      <trkpt lat="46.59720" lon="11.53037"><ele>471</ele></trkpt>
      <trkpt lat="46.59723" lon="11.53030"><ele>471</ele></trkpt>
      <trkpt lat="46.59725" lon="11.53025"><ele>471</ele></trkpt>
      <trkpt lat="46.59728" lon="11.53022"><ele>471</ele></trkpt>
      <trkpt lat="46.59731" lon="11.53020"><ele>471</ele></trkpt>
      <trkpt lat="46.59736" lon="11.53020"><ele>471</ele></trkpt>
      <trkpt lat="46.59801" lon="11.53032"><ele>468</ele></trkpt>
      <trkpt lat="46.59806" lon="11.53030"><ele>468</ele></trkpt>
      <trkpt lat="46.59821" lon="11.52995"><ele>465</ele></trkpt>
      <trkpt lat="46.59822" lon="11.52992"><ele>464</ele></trkpt>
      <trkpt lat="46.59846" lon="11.52938"><ele>465</ele></trkpt>
      <trkpt lat="46.59847" lon="11.52935"><ele>466</ele></trkpt>
      <trkpt lat="46.59849" lon="11.52937"><ele>466</ele></trkpt>
      <trkpt lat="46.59853" lon="11.52943"><ele>466</ele></trkpt>
      <trkpt lat="46.59856" lon="11.52954"><ele>465</ele></trkpt>
      <trkpt lat="46.59860" lon="11.52961"><ele>464</ele></trkpt>
      <trkpt lat="46.59880" lon="11.52986"><ele>464</ele></trkpt>
      <trkpt lat="46.59887" lon="11.52992"><ele>465</ele></trkpt>
      <trkpt lat="46.59891" lon="11.52994"><ele>465</ele></trkpt>
      <trkpt lat="46.59897" lon="11.52999"><ele>466</ele></trkpt>
      <trkpt lat="46.59948" lon="11.53069"><ele>467</ele></trkpt>
      <trkpt lat="46.59967" lon="11.53093"><ele>466</ele></trkpt>
      <trkpt lat="46.60006" lon="11.53119"><ele>467</ele></trkpt>
      <trkpt lat="46.60073" lon="11.53152"><ele>468</ele></trkpt>
      <trkpt lat="46.60200" lon="11.53208"><ele>470</ele></trkpt>
      <trkpt lat="46.60250" lon="11.53224"><ele>471</ele></trkpt>
      <trkpt lat="46.60309" lon="11.53237"><ele>472</ele></trkpt>
      <trkpt lat="46.60397" lon="11.53293"><ele>475</ele></trkpt>
      <trkpt lat="46.60467" lon="11.53358"><ele>477</ele></trkpt>
      <trkpt lat="46.60480" lon="11.53368"><ele>476</ele></trkpt>
      <trkpt lat="46.60495" lon="11.53374"><ele>476</ele></trkpt>
      <trkpt lat="46.60521" lon="11.53380"><ele>477</ele></trkpt>
      <trkpt lat="46.60546" lon="11.53381"><ele>478</ele></trkpt>
      <trkpt lat="46.60565" lon="11.53381"><ele>478</ele></trkpt>
      <trkpt lat="46.60585" lon="11.53377"><ele>478</ele></trkpt>
      <trkpt lat="46.60604" lon="11.53370"><ele>478</ele></trkpt>
      <trkpt lat="46.60618" lon="11.53368"><ele>478</ele></trkpt>
      <trkpt lat="46.60643" lon="11.53362"><ele>481</ele></trkpt>
      <trkpt lat="46.60661" lon="11.53350"><ele>483</ele></trkpt>
      <trkpt lat="46.60665" lon="11.53349"><ele>484</ele></trkpt>
      <trkpt lat="46.60667" lon="11.53350"><ele>483</ele></trkpt>
      <trkpt lat="46.60676" lon="11.53354"><ele>482</ele></trkpt>
      <trkpt lat="46.60686" lon="11.53357"><ele>482</ele></trkpt>
      <trkpt lat="46.60753" lon="11.53357"><ele>482</ele></trkpt>
      <trkpt lat="46.60813" lon="11.53343"><ele>480</ele></trkpt>
      <trkpt lat="46.60824" lon="11.53341"><ele>481</ele></trkpt>
      <trkpt lat="46.60837" lon="11.53342"><ele>481</ele></trkpt>
      <trkpt lat="46.60903" lon="11.53355"><ele>478</ele></trkpt>
      <trkpt lat="46.60944" lon="11.53370"><ele>477</ele></trkpt>
      <trkpt lat="46.60953" lon="11.53373"><ele>477</ele></trkpt>
      <trkpt lat="46.60982" lon="11.53377"><ele>478</ele></trkpt>
      <trkpt lat="46.61015" lon="11.53386"><ele>478</ele></trkpt>
      <trkpt lat="46.61027" lon="11.53388"><ele>478</ele></trkpt>
      <trkpt lat="46.61061" lon="11.53388"><ele>479</ele></trkpt>
      <trkpt lat="46.61071" lon="11.53390"><ele>479</ele></trkpt>
      <trkpt lat="46.61084" lon="11.53394"><ele>480</ele></trkpt>
      <trkpt lat="46.61148" lon="11.53428"><ele>481</ele></trkpt>
      <trkpt lat="46.61202" lon="11.53481"><ele>481</ele></trkpt>
      <trkpt lat="46.61245" lon="11.53544"><ele>484</ele></trkpt>
      <trkpt lat="46.61267" lon="11.53585"><ele>484</ele></trkpt>
      <trkpt lat="46.61271" lon="11.53589"><ele>485</ele></trkpt>
      <trkpt lat="46.61282" lon="11.53595"><ele>488</ele></trkpt>
      <trkpt lat="46.61287" lon="11.53598"><ele>490</ele></trkpt>
      <trkpt lat="46.61291" lon="11.53602"><ele>491</ele></trkpt>
      <trkpt lat="46.61303" lon="11.53621"><ele>491</ele></trkpt>
      <trkpt lat="46.61308" lon="11.53627"><ele>492</ele></trkpt>
      <trkpt lat="46.61335" lon="11.53649"><ele>496</ele></trkpt>
      <trkpt lat="46.61347" lon="11.53669"><ele>497</ele></trkpt>
      <trkpt lat="46.61348" lon="11.53673"><ele>497</ele></trkpt>
      <trkpt lat="46.61350" lon="11.53684"><ele>497</ele></trkpt>
      <trkpt lat="46.61351" lon="11.53691"><ele>498</ele></trkpt>
      <trkpt lat="46.61365" lon="11.53715"><ele>497</ele></trkpt>
      <trkpt lat="46.61371" lon="11.53721"><ele>497</ele></trkpt>
      <trkpt lat="46.61379" lon="11.53725"><ele>498</ele></trkpt>
      <trkpt lat="46.61388" lon="11.53725"><ele>500</ele></trkpt>
      <trkpt lat="46.61410" lon="11.53721"><ele>502</ele></trkpt>
      <trkpt lat="46.61415" lon="11.53726"><ele>502</ele></trkpt>
      <trkpt lat="46.61422" lon="11.53724"><ele>502</ele></trkpt>
      <trkpt lat="46.61429" lon="11.53734"><ele>501</ele></trkpt>
      <trkpt lat="46.61434" lon="11.53738"><ele>501</ele></trkpt>
      <trkpt lat="46.61445" lon="11.53747"><ele>501</ele></trkpt>
      <trkpt lat="46.61448" lon="11.53751"><ele>502</ele></trkpt>
      <trkpt lat="46.61449" lon="11.53755"><ele>502</ele></trkpt>
      <trkpt lat="46.61450" lon="11.53759"><ele>502</ele></trkpt>
      <trkpt lat="46.61448" lon="11.53767"><ele>502</ele></trkpt>
      <trkpt lat="46.61436" lon="11.53800"><ele>500</ele></trkpt>
      <trkpt lat="46.61426" lon="11.53823"><ele>498</ele></trkpt>
      <trkpt lat="46.61424" lon="11.53827"><ele>499</ele></trkpt>
      <trkpt lat="46.61425" lon="11.53832"><ele>499</ele></trkpt>
      <trkpt lat="46.61426" lon="11.53835"><ele>499</ele></trkpt>
      <trkpt lat="46.61428" lon="11.53839"><ele>498</ele></trkpt>
      <trkpt lat="46.61465" lon="11.53851"><ele>500</ele></trkpt>
      <trkpt lat="46.61513" lon="11.53860"><ele>500</ele></trkpt>
      <trkpt lat="46.61520" lon="11.53860"><ele>500</ele></trkpt>
      <trkpt lat="46.61538" lon="11.53852"><ele>500</ele></trkpt>
      <trkpt lat="46.61548" lon="11.53849"><ele>499</ele></trkpt>
      <trkpt lat="46.61560" lon="11.53848"><ele>498</ele></trkpt>
      <trkpt lat="46.61565" lon="11.53846"><ele>498</ele></trkpt>
      <trkpt lat="46.61581" lon="11.53835"><ele>501</ele></trkpt>
      <trkpt lat="46.61608" lon="11.53818"><ele>502</ele></trkpt>
      <trkpt lat="46.61617" lon="11.53809"><ele>503</ele></trkpt>
      <trkpt lat="46.61621" lon="11.53805"><ele>504</ele></trkpt>
      <trkpt lat="46.61638" lon="11.53800"><ele>503</ele></trkpt>
      <trkpt lat="46.61669" lon="11.53793"><ele>502</ele></trkpt>
      <trkpt lat="46.61676" lon="11.53794"><ele>502</ele></trkpt>
      <trkpt lat="46.61741" lon="11.53811"><ele>502</ele></trkpt>
      <trkpt lat="46.61752" lon="11.53815"><ele>503</ele></trkpt>
      <trkpt lat="46.61759" lon="11.53818"><ele>504</ele></trkpt>
      <trkpt lat="46.61769" lon="11.53824"><ele>504</ele></trkpt>
      <trkpt lat="46.61776" lon="11.53830"><ele>504</ele></trkpt>
      <trkpt lat="46.61836" lon="11.53893"><ele>504</ele></trkpt>
      <trkpt lat="46.61838" lon="11.53898"><ele>504</ele></trkpt>
      <trkpt lat="46.61840" lon="11.53910"><ele>503</ele></trkpt>
      <trkpt lat="46.61843" lon="11.53948"><ele>502</ele></trkpt>
      <trkpt lat="46.61847" lon="11.53958"><ele>500</ele></trkpt>
      <trkpt lat="46.61850" lon="11.53961"><ele>500</ele></trkpt>
      <trkpt lat="46.61856" lon="11.53964"><ele>501</ele></trkpt>
      <trkpt lat="46.61898" lon="11.53970"><ele>503</ele></trkpt>
      <trkpt lat="46.61910" lon="11.53974"><ele>502</ele></trkpt>
      <trkpt lat="46.61938" lon="11.53984"><ele>501</ele></trkpt>
      <trkpt lat="46.61995" lon="11.53997"><ele>504</ele></trkpt>
      <trkpt lat="46.62002" lon="11.54000"><ele>504</ele></trkpt>
      <trkpt lat="46.62009" lon="11.54005"><ele>504</ele></trkpt>
      <trkpt lat="46.62044" lon="11.54042"><ele>503</ele></trkpt>
      <trkpt lat="46.62056" lon="11.54058"><ele>504</ele></trkpt>
      <trkpt lat="46.62069" lon="11.54078"><ele>503</ele></trkpt>
      <trkpt lat="46.62076" lon="11.54095"><ele>504</ele></trkpt>
      <trkpt lat="46.62116" lon="11.54221"><ele>502</ele></trkpt>
      <trkpt lat="46.62155" lon="11.54315"><ele>503</ele></trkpt>
      <trkpt lat="46.62161" lon="11.54330"><ele>505</ele></trkpt>
      <trkpt lat="46.62172" lon="11.54351"><ele>504</ele></trkpt>
      <trkpt lat="46.62185" lon="11.54369"><ele>505</ele></trkpt>
      <trkpt lat="46.62209" lon="11.54392"><ele>505</ele></trkpt>
      <trkpt lat="46.62229" lon="11.54400"><ele>506</ele></trkpt>
      <trkpt lat="46.62291" lon="11.54411"><ele>505</ele></trkpt>
      <trkpt lat="46.62318" lon="11.54423"><ele>506</ele></trkpt>
      <trkpt lat="46.62350" lon="11.54451"><ele>506</ele></trkpt>
      <trkpt lat="46.62414" lon="11.54520"><ele>505</ele></trkpt>
      <trkpt lat="46.62449" lon="11.54566"><ele>506</ele></trkpt>
      <trkpt lat="46.62475" lon="11.54604"><ele>506</ele></trkpt>
      <trkpt lat="46.62501" lon="11.54654"><ele>506</ele></trkpt>
      <trkpt lat="46.62539" lon="11.54734"><ele>507</ele></trkpt>
      <trkpt lat="46.62556" lon="11.54759"><ele>510</ele></trkpt>
      <trkpt lat="46.62570" lon="11.54789"><ele>508</ele></trkpt>
      <trkpt lat="46.62581" lon="11.54807"><ele>510</ele></trkpt>
      <trkpt lat="46.62589" lon="11.54817"><ele>509</ele></trkpt>
      <trkpt lat="46.62598" lon="11.54824"><ele>509</ele></trkpt>
      <trkpt lat="46.62632" lon="11.54864"><ele>509</ele></trkpt>
      <trkpt lat="46.62648" lon="11.54877"><ele>508</ele></trkpt>
      <trkpt lat="46.62679" lon="11.54896"><ele>509</ele></trkpt>
      <trkpt lat="46.62694" lon="11.54902"><ele>508</ele></trkpt>
      <trkpt lat="46.62724" lon="11.54910"><ele>508</ele></trkpt>
      <trkpt lat="46.62767" lon="11.54918"><ele>511</ele></trkpt>
      <trkpt lat="46.62771" lon="11.54920"><ele>511</ele></trkpt>
      <trkpt lat="46.62775" lon="11.54923"><ele>510</ele></trkpt>
      <trkpt lat="46.62784" lon="11.54931"><ele>506</ele></trkpt>
      <trkpt lat="46.62789" lon="11.54935"><ele>505</ele></trkpt>
      <trkpt lat="46.62795" lon="11.54936"><ele>504</ele></trkpt>
      <trkpt lat="46.62800" lon="11.54937"><ele>504</ele></trkpt>
      <trkpt lat="46.62805" lon="11.54935"><ele>506</ele></trkpt>
      <trkpt lat="46.62824" lon="11.54922"><ele>505</ele></trkpt>
      <trkpt lat="46.62834" lon="11.54912"><ele>504</ele></trkpt>
      <trkpt lat="46.62838" lon="11.54910"><ele>507</ele></trkpt>
      <trkpt lat="46.62841" lon="11.54909"><ele>508</ele></trkpt>
      <trkpt lat="46.62844" lon="11.54909"><ele>509</ele></trkpt>
      <trkpt lat="46.62848" lon="11.54911"><ele>509</ele></trkpt>
      <trkpt lat="46.62860" lon="11.54919"><ele>508</ele></trkpt>
      <trkpt lat="46.62886" lon="11.54949"><ele>508</ele></trkpt>
      <trkpt lat="46.62897" lon="11.54964"><ele>510</ele></trkpt>
      <trkpt lat="46.62908" lon="11.54983"><ele>512</ele></trkpt>
      <trkpt lat="46.62926" lon="11.55010"><ele>510</ele></trkpt>
      <trkpt lat="46.62945" lon="11.55026"><ele>507</ele></trkpt>
      <trkpt lat="46.62964" lon="11.55037"><ele>513</ele></trkpt>
      <trkpt lat="46.62973" lon="11.55044"><ele>514</ele></trkpt>
      <trkpt lat="46.62981" lon="11.55053"><ele>509</ele></trkpt>
      <trkpt lat="46.63009" lon="11.55101"><ele>509</ele></trkpt>
      <trkpt lat="46.63019" lon="11.55116"><ele>510</ele></trkpt>
      <trkpt lat="46.63029" lon="11.55126"><ele>511</ele></trkpt>
      <trkpt lat="46.63053" lon="11.55162"><ele>511</ele></trkpt>
      <trkpt lat="46.63076" lon="11.55185"><ele>510</ele></trkpt>
      <trkpt lat="46.63109" lon="11.55197"><ele>512</ele></trkpt>
      <trkpt lat="46.63213" lon="11.55225"><ele>512</ele></trkpt>
      <trkpt lat="46.63269" lon="11.55252"><ele>511</ele></trkpt>
      <trkpt lat="46.63282" lon="11.55258"><ele>511</ele></trkpt>
      <trkpt lat="46.63386" lon="11.55339"><ele>512</ele></trkpt>
      <trkpt lat="46.63401" lon="11.55352"><ele>513</ele></trkpt>
      <trkpt lat="46.63409" lon="11.55360"><ele>514</ele></trkpt>
      <trkpt lat="46.63417" lon="11.55370"><ele>513</ele></trkpt>
      <trkpt lat="46.63421" lon="11.55377"><ele>514</ele></trkpt>
      <trkpt lat="46.63429" lon="11.55389"><ele>513</ele></trkpt>
      <trkpt lat="46.63479" lon="11.55467"><ele>512</ele></trkpt>
      <trkpt lat="46.63497" lon="11.55491"><ele>515</ele></trkpt>
      <trkpt lat="46.63502" lon="11.55501"><ele>514</ele></trkpt>
      <trkpt lat="46.63516" lon="11.55546"><ele>514</ele></trkpt>
      <trkpt lat="46.63569" lon="11.55695"><ele>514</ele></trkpt>
      <trkpt lat="46.63589" lon="11.55750"><ele>516</ele></trkpt>
      <trkpt lat="46.63590" lon="11.55756"><ele>516</ele></trkpt>
      <trkpt lat="46.63590" lon="11.55762"><ele>515</ele></trkpt>
      <trkpt lat="46.63590" lon="11.55768"><ele>514</ele></trkpt>
      <trkpt lat="46.63591" lon="11.55777"><ele>514</ele></trkpt>
      <trkpt lat="46.63595" lon="11.55791"><ele>514</ele></trkpt>
      <trkpt lat="46.63600" lon="11.55811"><ele>514</ele></trkpt>
      <trkpt lat="46.63603" lon="11.55829"><ele>516</ele></trkpt>
      <trkpt lat="46.63608" lon="11.55870"><ele>516</ele></trkpt>
      <trkpt lat="46.63609" lon="11.55900"><ele>515</ele></trkpt>
      <trkpt lat="46.63611" lon="11.55993"><ele>515</ele></trkpt>
      <trkpt lat="46.63614" lon="11.56080"><ele>514</ele></trkpt>
      <trkpt lat="46.63616" lon="11.56114"><ele>514</ele></trkpt>
      <trkpt lat="46.63620" lon="11.56153"><ele>515</ele></trkpt>
      <trkpt lat="46.63624" lon="11.56183"><ele>515</ele></trkpt>
      <trkpt lat="46.63629" lon="11.56212"><ele>516</ele></trkpt>
      <trkpt lat="46.63640" lon="11.56268"><ele>517</ele></trkpt>
      <trkpt lat="46.63651" lon="11.56307"><ele>516</ele></trkpt>
      <trkpt lat="46.63671" lon="11.56363"><ele>516</ele></trkpt>
      <trkpt lat="46.63683" lon="11.56390"><ele>519</ele></trkpt>
      <trkpt lat="46.63703" lon="11.56429"><ele>517</ele></trkpt>
      <trkpt lat="46.63709" lon="11.56438"><ele>518</ele></trkpt>
      <trkpt lat="46.63713" lon="11.56444"><ele>518</ele></trkpt>
      <trkpt lat="46.63717" lon="11.56446"><ele>519</ele></trkpt>
      <trkpt lat="46.63736" lon="11.56451"><ele>520</ele></trkpt>
      <trkpt lat="46.63772" lon="11.56455"><ele>522</ele></trkpt>
      <trkpt lat="46.63782" lon="11.56453"><ele>522</ele></trkpt>
      <trkpt lat="46.63787" lon="11.56450"><ele>523</ele></trkpt>
      <trkpt lat="46.63804" lon="11.56451"><ele>523</ele></trkpt>
      <trkpt lat="46.63830" lon="11.56445"><ele>525</ele></trkpt>
      <trkpt lat="46.63850" lon="11.56438"><ele>523</ele></trkpt>
      <trkpt lat="46.63910" lon="11.56406"><ele>526</ele></trkpt>
      <trkpt lat="46.63915" lon="11.56404"><ele>526</ele></trkpt>
      <trkpt lat="46.63953" lon="11.56392"><ele>529</ele></trkpt>
      <trkpt lat="46.64019" lon="11.56376"><ele>532</ele></trkpt>
      <trkpt lat="46.64038" lon="11.56367"><ele>534</ele></trkpt>
      <trkpt lat="46.64065" lon="11.56364"><ele>536</ele></trkpt>
      <trkpt lat="46.64082" lon="11.56359"><ele>537</ele></trkpt>
      <trkpt lat="46.64100" lon="11.56354"><ele>548</ele></trkpt>
      <trkpt lat="46.64082" lon="11.56359"><ele>537</ele></trkpt>
      <trkpt lat="46.64065" lon="11.56364"><ele>536</ele></trkpt>
      <trkpt lat="46.64038" lon="11.56367"><ele>534</ele></trkpt>
      <trkpt lat="46.64019" lon="11.56376"><ele>532</ele></trkpt>
      <trkpt lat="46.63953" lon="11.56392"><ele>529</ele></trkpt>
      <trkpt lat="46.63915" lon="11.56404"><ele>526</ele></trkpt>
      <trkpt lat="46.63915" lon="11.56409"><ele>525</ele></trkpt>
      <trkpt lat="46.63918" lon="11.56433"><ele>525</ele></trkpt>
      <trkpt lat="46.63919" lon="11.56438"><ele>526</ele></trkpt>
      <trkpt lat="46.63919" lon="11.56444"><ele>526</ele></trkpt>
      <trkpt lat="46.63921" lon="11.56465"><ele>525</ele></trkpt>
      <trkpt lat="46.63924" lon="11.56486"><ele>524</ele></trkpt>
      <trkpt lat="46.63925" lon="11.56500"><ele>523</ele></trkpt>
      <trkpt lat="46.63925" lon="11.56507"><ele>523</ele></trkpt>
      <trkpt lat="46.63923" lon="11.56511"><ele>523</ele></trkpt>
      <trkpt lat="46.63922" lon="11.56516"><ele>522</ele></trkpt>
      <trkpt lat="46.63922" lon="11.56521"><ele>522</ele></trkpt>
      <trkpt lat="46.63923" lon="11.56525"><ele>522</ele></trkpt>
      <trkpt lat="46.63938" lon="11.56548"><ele>522</ele></trkpt>
      <trkpt lat="46.63949" lon="11.56560"><ele>524</ele></trkpt>
      <trkpt lat="46.63959" lon="11.56571"><ele>526</ele></trkpt>
      <trkpt lat="46.63983" lon="11.56602"><ele>527</ele></trkpt>
      <trkpt lat="46.63999" lon="11.56621"><ele>528</ele></trkpt>
      <trkpt lat="46.64021" lon="11.56640"><ele>528</ele></trkpt>
      <trkpt lat="46.64049" lon="11.56667"><ele>531</ele></trkpt>
      <trkpt lat="46.64060" lon="11.56679"><ele>530</ele></trkpt>
      <trkpt lat="46.64075" lon="11.56692"><ele>526</ele></trkpt>
      <trkpt lat="46.64088" lon="11.56698"><ele>527</ele></trkpt>
      <trkpt lat="46.64108" lon="11.56713"><ele>526</ele></trkpt>
      <trkpt lat="46.64115" lon="11.56726"><ele>526</ele></trkpt>
      <trkpt lat="46.64129" lon="11.56762"><ele>524</ele></trkpt>
      <trkpt lat="46.64144" lon="11.56785"><ele>524</ele></trkpt>
      <trkpt lat="46.64151" lon="11.56800"><ele>524</ele></trkpt>
      <trkpt lat="46.64160" lon="11.56819"><ele>523</ele></trkpt>
      <trkpt lat="46.64164" lon="11.56828"><ele>522</ele></trkpt>
      <trkpt lat="46.64168" lon="11.56841"><ele>521</ele></trkpt>
      <trkpt lat="46.64155" lon="11.56858"><ele>520</ele></trkpt>
      <trkpt lat="46.64151" lon="11.56862"><ele>519</ele></trkpt>
      <trkpt lat="46.64148" lon="11.56868"><ele>519</ele></trkpt>
      <trkpt lat="46.64149" lon="11.56870"><ele>519</ele></trkpt>
      <trkpt lat="46.64160" lon="11.56889"><ele>519</ele></trkpt>
      <trkpt lat="46.64209" lon="11.56943"><ele>519</ele></trkpt>
      <trkpt lat="46.64270" lon="11.56999"><ele>519</ele></trkpt>
      <trkpt lat="46.64303" lon="11.57028"><ele>520</ele></trkpt>
      <trkpt lat="46.64361" lon="11.57078"><ele>521</ele></trkpt>
      <trkpt lat="46.64377" lon="11.57090"><ele>522</ele></trkpt>
      <trkpt lat="46.64405" lon="11.57110"><ele>522</ele></trkpt>
      <trkpt lat="46.64442" lon="11.57130"><ele>522</ele></trkpt>
      <trkpt lat="46.64458" lon="11.57138"><ele>521</ele></trkpt>
      <trkpt lat="46.64467" lon="11.57144"><ele>521</ele></trkpt>
      <trkpt lat="46.64477" lon="11.57157"><ele>521</ele></trkpt>
      <trkpt lat="46.64487" lon="11.57184"><ele>520</ele></trkpt>
      <trkpt lat="46.64494" lon="11.57210"><ele>520</ele></trkpt>
      <trkpt lat="46.64499" lon="11.57235"><ele>520</ele></trkpt>
      <trkpt lat="46.64503" lon="11.57278"><ele>520</ele></trkpt>
      <trkpt lat="46.64502" lon="11.57366"><ele>520</ele></trkpt>
      <trkpt lat="46.64500" lon="11.57396"><ele>520</ele></trkpt>
      <trkpt lat="46.64486" lon="11.57466"><ele>520</ele></trkpt>
      <trkpt lat="46.64474" lon="11.57512"><ele>520</ele></trkpt>
      <trkpt lat="46.64465" lon="11.57557"><ele>520</ele></trkpt>
      <trkpt lat="46.64459" lon="11.57643"><ele>520</ele></trkpt>
      <trkpt lat="46.64456" lon="11.57715"><ele>520</ele></trkpt>
      <trkpt lat="46.64455" lon="11.57768"><ele>520</ele></trkpt>
      <trkpt lat="46.64456" lon="11.57789"><ele>520</ele></trkpt>
      <trkpt lat="46.64455" lon="11.57791"><ele>520</ele></trkpt>
      <trkpt lat="46.64455" lon="11.57794"><ele>520</ele></trkpt>
      <trkpt lat="46.64460" lon="11.57817"><ele>520</ele></trkpt>
      <trkpt lat="46.64470" lon="11.57851"><ele>521</ele></trkpt>
      <trkpt lat="46.64478" lon="11.57882"><ele>521</ele></trkpt>
      <trkpt lat="46.64497" lon="11.57999"><ele>522</ele></trkpt>
      <trkpt lat="46.64503" lon="11.58042"><ele>522</ele></trkpt>
      <trkpt lat="46.64502" lon="11.58084"><ele>523</ele></trkpt>
      <trkpt lat="46.64502" lon="11.58091"><ele>522</ele></trkpt>
      <trkpt lat="46.64503" lon="11.58100"><ele>521</ele></trkpt>
      <trkpt lat="46.64520" lon="11.58158"><ele>521</ele></trkpt>
      <trkpt lat="46.64531" lon="11.58191"><ele>522</ele></trkpt>
      <trkpt lat="46.64545" lon="11.58226"><ele>522</ele></trkpt>
      <trkpt lat="46.64561" lon="11.58264"><ele>522</ele></trkpt>
      <trkpt lat="46.64569" lon="11.58282"><ele>521</ele></trkpt>
      <trkpt lat="46.64576" lon="11.58297"><ele>522</ele></trkpt>
      <trkpt lat="46.64588" lon="11.58313"><ele>522</ele></trkpt>
      <trkpt lat="46.64600" lon="11.58322"><ele>522</ele></trkpt>
      <trkpt lat="46.64614" lon="11.58331"><ele>524</ele></trkpt>
      <trkpt lat="46.64640" lon="11.58346"><ele>526</ele></trkpt>
      <trkpt lat="46.64656" lon="11.58357"><ele>524</ele></trkpt>
      <trkpt lat="46.64700" lon="11.58395"><ele>524</ele></trkpt>
      <trkpt lat="46.64733" lon="11.58416"><ele>523</ele></trkpt>
      <trkpt lat="46.64770" lon="11.58439"><ele>524</ele></trkpt>
      <trkpt lat="46.64830" lon="11.58478"><ele>524</ele></trkpt>
      <trkpt lat="46.64849" lon="11.58492"><ele>524</ele></trkpt>
      <trkpt lat="46.64872" lon="11.58512"><ele>524</ele></trkpt>
      <trkpt lat="46.64900" lon="11.58534"><ele>524</ele></trkpt>
      <trkpt lat="46.64953" lon="11.58595"><ele>524</ele></trkpt>
      <trkpt lat="46.65004" lon="11.58643"><ele>527</ele></trkpt>
      <trkpt lat="46.65010" lon="11.58654"><ele>526</ele></trkpt>
      <trkpt lat="46.65013" lon="11.58657"><ele>525</ele></trkpt>
      <trkpt lat="46.65016" lon="11.58660"><ele>525</ele></trkpt>
      <trkpt lat="46.65031" lon="11.58668"><ele>524</ele></trkpt>
      <trkpt lat="46.65049" lon="11.58676"><ele>527</ele></trkpt>
      <trkpt lat="46.65057" lon="11.58682"><ele>526</ele></trkpt>
      <trkpt lat="46.65064" lon="11.58687"><ele>526</ele></trkpt>
      <trkpt lat="46.65072" lon="11.58698"><ele>527</ele></trkpt>
      <trkpt lat="46.65104" lon="11.58745"><ele>528</ele></trkpt>
      <trkpt lat="46.65136" lon="11.58799"><ele>529</ele></trkpt>
      <trkpt lat="46.65159" lon="11.58830"><ele>530</ele></trkpt>
      <trkpt lat="46.65166" lon="11.58841"><ele>531</ele></trkpt>
      <trkpt lat="46.65191" lon="11.58883"><ele>530</ele></trkpt>
      <trkpt lat="46.65270" lon="11.59008"><ele>533</ele></trkpt>
      <trkpt lat="46.65282" lon="11.59023"><ele>534</ele></trkpt>
      <trkpt lat="46.65324" lon="11.59053"><ele>533</ele></trkpt>
      <trkpt lat="46.65477" lon="11.59159"><ele>535</ele></trkpt>
      <trkpt lat="46.65482" lon="11.59163"><ele>535</ele></trkpt>
      <trkpt lat="46.65554" lon="11.59214"><ele>535</ele></trkpt>
      <trkpt lat="46.65563" lon="11.59221"><ele>534</ele></trkpt>
      <trkpt lat="46.65577" lon="11.59237"><ele>534</ele></trkpt>
      <trkpt lat="46.65583" lon="11.59247"><ele>534</ele></trkpt>
      <trkpt lat="46.65591" lon="11.59262"><ele>535</ele></trkpt>
      <trkpt lat="46.65597" lon="11.59278"><ele>535</ele></trkpt>
      <trkpt lat="46.65616" lon="11.59340"><ele>534</ele></trkpt>
      <trkpt lat="46.65619" lon="11.59355"><ele>535</ele></trkpt>
      <trkpt lat="46.65621" lon="11.59375"><ele>535</ele></trkpt>
      <trkpt lat="46.65634" lon="11.59499"><ele>533</ele></trkpt>
      <trkpt lat="46.65635" lon="11.59525"><ele>534</ele></trkpt>
      <trkpt lat="46.65631" lon="11.59593"><ele>534</ele></trkpt>
      <trkpt lat="46.65630" lon="11.59638"><ele>533</ele></trkpt>
      <trkpt lat="46.65630" lon="11.59646"><ele>533</ele></trkpt>
      <trkpt lat="46.65631" lon="11.59653"><ele>533</ele></trkpt>
      <trkpt lat="46.65641" lon="11.59677"><ele>534</ele></trkpt>
      <trkpt lat="46.65650" lon="11.59705"><ele>533</ele></trkpt>
      <trkpt lat="46.65654" lon="11.59712"><ele>533</ele></trkpt>
      <trkpt lat="46.65669" lon="11.59730"><ele>534</ele></trkpt>
      <trkpt lat="46.65681" lon="11.59748"><ele>534</ele></trkpt>
      <trkpt lat="46.65689" lon="11.59764"><ele>534</ele></trkpt>
      <trkpt lat="46.65693" lon="11.59775"><ele>534</ele></trkpt>
      <trkpt lat="46.65697" lon="11.59789"><ele>534</ele></trkpt>
      <trkpt lat="46.65700" lon="11.59805"><ele>533</ele></trkpt>
      <trkpt lat="46.65702" lon="11.59838"><ele>533</ele></trkpt>
      <trkpt lat="46.65702" lon="11.59853"><ele>533</ele></trkpt>
      <trkpt lat="46.65704" lon="11.59866"><ele>533</ele></trkpt>
      <trkpt lat="46.65712" lon="11.59959"><ele>533</ele></trkpt>
      <trkpt lat="46.65705" lon="11.60093"><ele>532</ele></trkpt>
      <trkpt lat="46.65703" lon="11.60139"><ele>532</ele></trkpt>
      <trkpt lat="46.65702" lon="11.60162"><ele>532</ele></trkpt>
      <trkpt lat="46.65700" lon="11.60184"><ele>535</ele></trkpt>
      <trkpt lat="46.65699" lon="11.60233"><ele>538</ele></trkpt>
      <trkpt lat="46.65699" lon="11.60239"><ele>536</ele></trkpt>
      <trkpt lat="46.65703" lon="11.60253"><ele>536</ele></trkpt>
      <trkpt lat="46.65704" lon="11.60261"><ele>536</ele></trkpt>
      <trkpt lat="46.65702" lon="11.60295"><ele>535</ele></trkpt>
      <trkpt lat="46.65703" lon="11.60304"><ele>535</ele></trkpt>
      <trkpt lat="46.65705" lon="11.60333"><ele>534</ele></trkpt>
      <trkpt lat="46.65710" lon="11.60365"><ele>532</ele></trkpt>
      <trkpt lat="46.65748" lon="11.60501"><ele>534</ele></trkpt>
      <trkpt lat="46.65766" lon="11.60552"><ele>537</ele></trkpt>
      <trkpt lat="46.65776" lon="11.60586"><ele>536</ele></trkpt>
      <trkpt lat="46.65779" lon="11.60595"><ele>536</ele></trkpt>
      <trkpt lat="46.65791" lon="11.60607"><ele>541</ele></trkpt>
      <trkpt lat="46.65797" lon="11.60615"><ele>542</ele></trkpt>
      <trkpt lat="46.65806" lon="11.60628"><ele>540</ele></trkpt>
      <trkpt lat="46.65821" lon="11.60652"><ele>539</ele></trkpt>
      <trkpt lat="46.65826" lon="11.60657"><ele>538</ele></trkpt>
      <trkpt lat="46.65831" lon="11.60661"><ele>538</ele></trkpt>
      <trkpt lat="46.65839" lon="11.60664"><ele>539</ele></trkpt>
      <trkpt lat="46.65848" lon="11.60670"><ele>540</ele></trkpt>
      <trkpt lat="46.65857" lon="11.60672"><ele>542</ele></trkpt>
      <trkpt lat="46.65860" lon="11.60675"><ele>542</ele></trkpt>
      <trkpt lat="46.65870" lon="11.60685"><ele>538</ele></trkpt>
      <trkpt lat="46.65885" lon="11.60692"><ele>537</ele></trkpt>
      <trkpt lat="46.65922" lon="11.60718"><ele>538</ele></trkpt>
      <trkpt lat="46.65931" lon="11.60726"><ele>539</ele></trkpt>
      <trkpt lat="46.65969" lon="11.60765"><ele>538</ele></trkpt>
      <trkpt lat="46.65979" lon="11.60777"><ele>537</ele></trkpt>
      <trkpt lat="46.65983" lon="11.60780"><ele>538</ele></trkpt>
      <trkpt lat="46.65988" lon="11.60783"><ele>538</ele></trkpt>
      <trkpt lat="46.66042" lon="11.60791"><ele>536</ele></trkpt>
      <trkpt lat="46.66055" lon="11.60790"><ele>538</ele></trkpt>
      <trkpt lat="46.66061" lon="11.60791"><ele>538</ele></trkpt>
      <trkpt lat="46.66072" lon="11.60795"><ele>538</ele></trkpt>
      <trkpt lat="46.66086" lon="11.60798"><ele>538</ele></trkpt>
      <trkpt lat="46.66126" lon="11.60809"><ele>538</ele></trkpt>
      <trkpt lat="46.66135" lon="11.60813"><ele>538</ele></trkpt>
      <trkpt lat="46.66153" lon="11.60823"><ele>538</ele></trkpt>
      <trkpt lat="46.66172" lon="11.60830"><ele>538</ele></trkpt>
      <trkpt lat="46.66201" lon="11.60835"><ele>538</ele></trkpt>
      <trkpt lat="46.66222" lon="11.60837"><ele>536</ele></trkpt>
      <trkpt lat="46.66228" lon="11.60836"><ele>536</ele></trkpt>
      <trkpt lat="46.66237" lon="11.60832"><ele>536</ele></trkpt>
      <trkpt lat="46.66251" lon="11.60828"><ele>536</ele></trkpt>
      <trkpt lat="46.66259" lon="11.60827"><ele>537</ele></trkpt>
      <trkpt lat="46.66265" lon="11.60828"><ele>537</ele></trkpt>
      <trkpt lat="46.66269" lon="11.60830"><ele>537</ele></trkpt>
      <trkpt lat="46.66282" lon="11.60838"><ele>537</ele></trkpt>
      <trkpt lat="46.66288" lon="11.60843"><ele>537</ele></trkpt>
      <trkpt lat="46.66302" lon="11.60864"><ele>536</ele></trkpt>
      <trkpt lat="46.66330" lon="11.60887"><ele>538</ele></trkpt>
      <trkpt lat="46.66365" lon="11.60924"><ele>537</ele></trkpt>
      <trkpt lat="46.66398" lon="11.60964"><ele>536</ele></trkpt>
      <trkpt lat="46.66422" lon="11.60995"><ele>536</ele></trkpt>
      <trkpt lat="46.66435" lon="11.61018"><ele>536</ele></trkpt>
      <trkpt lat="46.66452" lon="11.61053"><ele>536</ele></trkpt>
      <trkpt lat="46.66463" lon="11.61097"><ele>535</ele></trkpt>
      <trkpt lat="46.66467" lon="11.61128"><ele>535</ele></trkpt>
      <trkpt lat="46.66468" lon="11.61164"><ele>536</ele></trkpt>
      <trkpt lat="46.66470" lon="11.61183"><ele>536</ele></trkpt>
      <trkpt lat="46.66476" lon="11.61201"><ele>536</ele></trkpt>
      <trkpt lat="46.66493" lon="11.61238"><ele>536</ele></trkpt>
      <trkpt lat="46.66502" lon="11.61265"><ele>536</ele></trkpt>
      <trkpt lat="46.66521" lon="11.61326"><ele>537</ele></trkpt>
      <trkpt lat="46.66526" lon="11.61355"><ele>536</ele></trkpt>
      <trkpt lat="46.66534" lon="11.61384"><ele>536</ele></trkpt>
      <trkpt lat="46.66545" lon="11.61413"><ele>536</ele></trkpt>
      <trkpt lat="46.66582" lon="11.61482"><ele>536</ele></trkpt>
      <trkpt lat="46.66623" lon="11.61537"><ele>536</ele></trkpt>
      <trkpt lat="46.66655" lon="11.61574"><ele>536</ele></trkpt>
      <trkpt lat="46.66771" lon="11.61667"><ele>537</ele></trkpt>
      <trkpt lat="46.66844" lon="11.61712"><ele>537</ele></trkpt>
      <trkpt lat="46.66900" lon="11.61745"><ele>538</ele></trkpt>
      <trkpt lat="46.66918" lon="11.61761"><ele>537</ele></trkpt>
      <trkpt lat="46.66926" lon="11.61768"><ele>536</ele></trkpt>
      <trkpt lat="46.66944" lon="11.61782"><ele>536</ele></trkpt>
      <trkpt lat="46.66958" lon="11.61798"><ele>536</ele></trkpt>
      <trkpt lat="46.66983" lon="11.61827"><ele>536</ele></trkpt>
      <trkpt lat="46.67052" lon="11.61867"><ele>537</ele></trkpt>
      <trkpt lat="46.67089" lon="11.61910"><ele>537</ele></trkpt>
      <trkpt lat="46.67097" lon="11.61917"><ele>537</ele></trkpt>
      <trkpt lat="46.67121" lon="11.61924"><ele>538</ele></trkpt>
      <trkpt lat="46.67145" lon="11.61938"><ele>539</ele></trkpt>
      <trkpt lat="46.67190" lon="11.61993"><ele>538</ele></trkpt>
      <trkpt lat="46.67366" lon="11.62087"><ele>538</ele></trkpt>
      <trkpt lat="46.67614" lon="11.62176"><ele>540</ele></trkpt>
      <trkpt lat="46.67793" lon="11.62231"><ele>541</ele></trkpt>
      <trkpt lat="46.67902" lon="11.62245"><ele>542</ele></trkpt>
      <trkpt lat="46.67909" lon="11.62246"><ele>542</ele></trkpt>
      <trkpt lat="46.68014" lon="11.62288"><ele>542</ele></trkpt>
      <trkpt lat="46.68041" lon="11.62306"><ele>542</ele></trkpt>
      <trkpt lat="46.68068" lon="11.62327"><ele>541</ele></trkpt>
      <trkpt lat="46.68133" lon="11.62374"><ele>542</ele></trkpt>
      <trkpt lat="46.68156" lon="11.62394"><ele>542</ele></trkpt>
      <trkpt lat="46.68185" lon="11.62420"><ele>544</ele></trkpt>
      <trkpt lat="46.68200" lon="11.62433"><ele>543</ele></trkpt>
      <trkpt lat="46.68216" lon="11.62451"><ele>542</ele></trkpt>
      <trkpt lat="46.68246" lon="11.62493"><ele>544</ele></trkpt>
      <trkpt lat="46.68265" lon="11.62526"><ele>543</ele></trkpt>
      <trkpt lat="46.68291" lon="11.62565"><ele>544</ele></trkpt>
      <trkpt lat="46.68295" lon="11.62571"><ele>545</ele></trkpt>
      <trkpt lat="46.68301" lon="11.62577"><ele>545</ele></trkpt>
      <trkpt lat="46.68310" lon="11.62582"><ele>546</ele></trkpt>
      <trkpt lat="46.68312" lon="11.62597"><ele>544</ele></trkpt>
      <trkpt lat="46.68316" lon="11.62608"><ele>544</ele></trkpt>
      <trkpt lat="46.68356" lon="11.62681"><ele>544</ele></trkpt>
      <trkpt lat="46.68364" lon="11.62698"><ele>544</ele></trkpt>
      <trkpt lat="46.68382" lon="11.62751"><ele>544</ele></trkpt>
      <trkpt lat="46.68398" lon="11.62804"><ele>542</ele></trkpt>
      <trkpt lat="46.68405" lon="11.62832"><ele>543</ele></trkpt>
      <trkpt lat="46.68417" lon="11.62901"><ele>544</ele></trkpt>
      <trkpt lat="46.68418" lon="11.62918"><ele>544</ele></trkpt>
      <trkpt lat="46.68417" lon="11.62943"><ele>544</ele></trkpt>
      <trkpt lat="46.68414" lon="11.62966"><ele>544</ele></trkpt>
      <trkpt lat="46.68413" lon="11.62974"><ele>544</ele></trkpt>
      <trkpt lat="46.68411" lon="11.62980"><ele>544</ele></trkpt>
      <trkpt lat="46.68391" lon="11.63021"><ele>545</ele></trkpt>
      <trkpt lat="46.68375" lon="11.63042"><ele>544</ele></trkpt>
      <trkpt lat="46.68369" lon="11.63052"><ele>544</ele></trkpt>
      <trkpt lat="46.68335" lon="11.63143"><ele>546</ele></trkpt>
      <trkpt lat="46.68321" lon="11.63183"><ele>545</ele></trkpt>
      <trkpt lat="46.68312" lon="11.63232"><ele>545</ele></trkpt>
      <trkpt lat="46.68306" lon="11.63338"><ele>545</ele></trkpt>
      <trkpt lat="46.68311" lon="11.63409"><ele>544</ele></trkpt>
      <trkpt lat="46.68316" lon="11.63444"><ele>545</ele></trkpt>
      <trkpt lat="46.68323" lon="11.63467"><ele>545</ele></trkpt>
      <trkpt lat="46.68340" lon="11.63515"><ele>545</ele></trkpt>
      <trkpt lat="46.68384" lon="11.63592"><ele>547</ele></trkpt>
      <trkpt lat="46.68399" lon="11.63610"><ele>547</ele></trkpt>
      <trkpt lat="46.68411" lon="11.63621"><ele>547</ele></trkpt>
      <trkpt lat="46.68456" lon="11.63690"><ele>547</ele></trkpt>
      <trkpt lat="46.68636" lon="11.63958"><ele>548</ele></trkpt>
      <trkpt lat="46.68675" lon="11.64023"><ele>548</ele></trkpt>
      <trkpt lat="46.68706" lon="11.64082"><ele>548</ele></trkpt>
      <trkpt lat="46.68747" lon="11.64164"><ele>548</ele></trkpt>
      <trkpt lat="46.68764" lon="11.64196"><ele>548</ele></trkpt>
      <trkpt lat="46.68785" lon="11.64228"><ele>549</ele></trkpt>
      <trkpt lat="46.68810" lon="11.64257"><ele>549</ele></trkpt>
      <trkpt lat="46.68831" lon="11.64276"><ele>550</ele></trkpt>
      <trkpt lat="46.68850" lon="11.64288"><ele>549</ele></trkpt>
      <trkpt lat="46.68865" lon="11.64294"><ele>549</ele></trkpt>
      <trkpt lat="46.68886" lon="11.64297"><ele>550</ele></trkpt>
      <trkpt lat="46.68926" lon="11.64300"><ele>550</ele></trkpt>
      <trkpt lat="46.68986" lon="11.64302"><ele>550</ele></trkpt>
      <trkpt lat="46.69004" lon="11.64303"><ele>550</ele></trkpt>
      <trkpt lat="46.69024" lon="11.64306"><ele>550</ele></trkpt>
      <trkpt lat="46.69057" lon="11.64316"><ele>550</ele></trkpt>
      <trkpt lat="46.69202" lon="11.64367"><ele>550</ele></trkpt>
      <trkpt lat="46.69350" lon="11.64420"><ele>552</ele></trkpt>
      <trkpt lat="46.69376" lon="11.64433"><ele>552</ele></trkpt>
      <trkpt lat="46.69398" lon="11.64445"><ele>552</ele></trkpt>
      <trkpt lat="46.69411" lon="11.64453"><ele>552</ele></trkpt>
      <trkpt lat="46.69419" lon="11.64459"><ele>552</ele></trkpt>
      <trkpt lat="46.69452" lon="11.64484"><ele>552</ele></trkpt>
      <trkpt lat="46.69550" lon="11.64572"><ele>551</ele></trkpt>
      <trkpt lat="46.69837" lon="11.64806"><ele>553</ele></trkpt>
      <trkpt lat="46.69994" lon="11.64933"><ele>553</ele></trkpt>
      <trkpt lat="46.70173" lon="11.65079"><ele>553</ele></trkpt>
      <trkpt lat="46.70183" lon="11.65079"><ele>554</ele></trkpt>
      <trkpt lat="46.70276" lon="11.65155"><ele>553</ele></trkpt>
      <trkpt lat="46.70300" lon="11.65175"><ele>553</ele></trkpt>
      <trkpt lat="46.70339" lon="11.65207"><ele>554</ele></trkpt>
      <trkpt lat="46.70367" lon="11.65232"><ele>554</ele></trkpt>
      <trkpt lat="46.70373" lon="11.65244"><ele>554</ele></trkpt>
      <trkpt lat="46.70394" lon="11.65265"><ele>554</ele></trkpt>
      <trkpt lat="46.70407" lon="11.65272"><ele>554</ele></trkpt>
      <trkpt lat="46.70459" lon="11.65332"><ele>554</ele></trkpt>
      <trkpt lat="46.70699" lon="11.65642"><ele>555</ele></trkpt>
      <trkpt lat="46.70717" lon="11.65661"><ele>556</ele></trkpt>
      <trkpt lat="46.70757" lon="11.65703"><ele>555</ele></trkpt>
      <trkpt lat="46.70884" lon="11.65819"><ele>556</ele></trkpt>
      <trkpt lat="46.70888" lon="11.65823"><ele>556</ele></trkpt>
      <trkpt lat="46.70926" lon="11.65861"><ele>557</ele></trkpt>
      <trkpt lat="46.71007" lon="11.65917"><ele>557</ele></trkpt>
      <trkpt lat="46.71026" lon="11.65925"><ele>557</ele></trkpt>
      <trkpt lat="46.71048" lon="11.65932"><ele>559</ele></trkpt>
      <trkpt lat="46.71066" lon="11.65940"><ele>559</ele></trkpt>
      <trkpt lat="46.71072" lon="11.65943"><ele>558</ele></trkpt>
      <trkpt lat="46.71088" lon="11.65955"><ele>557</ele></trkpt>
      <trkpt lat="46.71116" lon="11.65969"><ele>558</ele></trkpt>
      <trkpt lat="46.71142" lon="11.65979"><ele>558</ele></trkpt>
      <trkpt lat="46.71236" lon="11.66004"><ele>558</ele></trkpt>
      <trkpt lat="46.71305" lon="11.66017"><ele>559</ele></trkpt>
      <trkpt lat="46.71356" lon="11.66027"><ele>559</ele></trkpt>
      <trkpt lat="46.71396" lon="11.66033"><ele>558</ele></trkpt>
      <trkpt lat="46.71407" lon="11.66041"><ele>558</ele></trkpt>
      <trkpt lat="46.71449" lon="11.66045"><ele>559</ele></trkpt>
      <trkpt lat="46.71452" lon="11.66049"><ele>559</ele></trkpt>
      <trkpt lat="46.71483" lon="11.66045"><ele>558</ele></trkpt>
      <trkpt lat="46.71511" lon="11.66038"><ele>558</ele></trkpt>
      <trkpt lat="46.71530" lon="11.66030"><ele>558</ele></trkpt>
      <trkpt lat="46.71548" lon="11.66020"><ele>558</ele></trkpt>
      <trkpt lat="46.71571" lon="11.66003"><ele>558</ele></trkpt>
      <trkpt lat="46.71589" lon="11.65987"><ele>559</ele></trkpt>
      <trkpt lat="46.71611" lon="11.65965"><ele>559</ele></trkpt>
      <trkpt lat="46.71641" lon="11.65924"><ele>558</ele></trkpt>
      <trkpt lat="46.71660" lon="11.65901"><ele>559</ele></trkpt>
      <trkpt lat="46.71684" lon="11.65879"><ele>559</ele></trkpt>
      <trkpt lat="46.71682" lon="11.65877"><ele>560</ele></trkpt>
      <trkpt lat="46.71677" lon="11.65866"><ele>560</ele></trkpt>
      <trkpt lat="46.71672" lon="11.65852"><ele>560</ele></trkpt>
      <trkpt lat="46.71665" lon="11.65824"><ele>560</ele></trkpt>
      <trkpt lat="46.71661" lon="11.65790"><ele>560</ele></trkpt>
      <trkpt lat="46.71660" lon="11.65780"><ele>560</ele></trkpt>
      <trkpt lat="46.71659" lon="11.65776"><ele>560</ele></trkpt>
      <trkpt lat="46.71657" lon="11.65777"><ele>560</ele></trkpt>
      <trkpt lat="46.71657" lon="11.65779"><ele>560</ele></trkpt>
      <trkpt lat="46.71650" lon="11.65780"><ele>560</ele></trkpt>
      <trkpt lat="46.71650" lon="11.65777"><ele>560</ele></trkpt>
    </trkseg>
  </trk>
</gpx>
